{"type":"FeatureCollection","features":[{"type":"Feature","geometry":{"type":"MultiPolygon","coordinates":[[[[35.313188,32.449859],[35.313357,32.450368],[35.314099,32.45077],[35.314539,32.451857],[35.314841,32.452093],[35.315265,32.45205],[35.315833,32.451325],[35.316334,32.451005],[35.31758,32.451284],[35.318742,32.450894],[35.319341,32.451],[35.319037,32.450598],[35.317967,32.45099],[35.317207,32.450407],[35.315786,32.450336],[35.315489,32.449382],[35.316036,32.448427],[35.315965,32.447831],[35.316078,32.447724],[35.317921,32.448247],[35.319511,32.448138],[35.320552,32.447743],[35.321185,32.447695],[35.321635,32.447993],[35.32172,32.448363],[35.321313,32.448792],[35.321047,32.449735],[35.321047,32.450176],[35.321287,32.450331],[35.321329,32.45057],[35.321251,32.450949],[35.322295,32.449843],[35.323263,32.448443],[35.323558,32.447164],[35.322984,32.446283],[35.322778,32.44619],[35.322054,32.446545],[35.32094,32.446652],[35.319606,32.447244],[35.317311,32.447236],[35.31439,32.448203],[35.313339,32.449294],[35.313188,32.449859]]],[[[35.320402,32.454038],[35.320047,32.454071],[35.319939,32.453939],[35.319803,32.453136],[35.319756,32.453732],[35.319901,32.454171],[35.320402,32.454038]]],[[[35.320645,32.453732],[35.320761,32.453585],[35.320806,32.453516],[35.320818,32.453469],[35.320821,32.453282],[35.32081,32.453191],[35.320778,32.453318],[35.320707,32.453633],[35.320645,32.453732]]],[[[35.319888,32.45254],[35.319889,32.452535],[35.319961,32.452281],[35.319961,32.452179],[35.319926,32.452154],[35.319948,32.45219],[35.319949,32.452191],[35.319951,32.452194],[35.319952,32.452197],[35.319953,32.4522],[35.319954,32.452204],[35.319955,32.452207],[35.319955,32.45221],[35.319955,32.452213],[35.319955,32.452217],[35.319955,32.45222],[35.319954,32.452223],[35.319953,32.452226],[35.319952,32.452229],[35.319951,32.452232],[35.319949,32.452235],[35.319947,32.452238],[35.319945,32.452241],[35.319944,32.452242],[35.319897,32.452382],[35.31989,32.452519],[35.31989,32.45252],[35.31989,32.452521],[35.319888,32.45254]]]]},"properties":{"name":"Firing zone (unnumbered)","signed_date":"2005-07-24","mechanism":"closed_military_area","area_m2":215632.5,"source_crs":"EPSG:32636","evidence_ref":["5afd0a34dc"]}},{"type":"Feature","geometry":{"type":"Polygon","coordinates":[[[35.195422,32.308641],[35.195025,32.308395],[35.194823,32.307399],[35.194274,32.306683],[35.193652,32.306354],[35.193263,32.305771],[35.192567,32.305451],[35.189904,32.30568],[35.188017,32.305422],[35.187048,32.305446],[35.186477,32.305902],[35.18637,32.306257],[35.18648,32.306752],[35.186078,32.307151],[35.185784,32.308076],[35.185992,32.309779],[35.186824,32.310692],[35.187901,32.311195],[35.188912,32.310746],[35.189447,32.310689],[35.189227,32.311367],[35.18984,32.311741],[35.19,32.312229],[35.191209,32.312729],[35.191638,32.312715],[35.191878,32.312116],[35.192329,32.311928],[35.192615,32.312037],[35.19281,32.312849],[35.193338,32.313176],[35.193753,32.313252],[35.194567,32.312924],[35.195201,32.313166],[35.196169,32.31291],[35.196772,32.312925],[35.19694,32.313021],[35.196833,32.313427],[35.197078,32.313788],[35.197993,32.314051],[35.199239,32.313838],[35.200504,32.313276],[35.200768,32.313082],[35.200796,32.312536],[35.201737,32.312267],[35.201278,32.311802],[35.196569,32.309553],[35.195422,32.308641]],[[35.190229,32.312024],[35.189406,32.311278],[35.190041,32.310193],[35.188669,32.310206],[35.189335,32.309933],[35.187587,32.308462],[35.18765,32.308182],[35.188458,32.307749],[35.189524,32.307889],[35.189579,32.307789],[35.188035,32.306391],[35.188043,32.306058],[35.188301,32.305872],[35.188787,32.305818],[35.190206,32.306305],[35.190285,32.306451],[35.191892,32.306385],[35.193107,32.306917],[35.193758,32.307597],[35.193931,32.308801],[35.195122,32.309801],[35.195385,32.310454],[35.196916,32.310657],[35.197617,32.31096],[35.197308,32.31146],[35.197744,32.31171],[35.196979,32.312209],[35.196842,32.312017],[35.196044,32.312375],[35.195823,32.312138],[35.195264,32.312396],[35.194995,32.311822],[35.194251,32.312757],[35.193639,32.312723],[35.193357,32.312377],[35.194027,32.311418],[35.193169,32.310606],[35.192127,32.310293],[35.191609,32.311285],[35.191625,32.311691],[35.191287,32.312164],[35.190691,32.312204],[35.190229,32.312024]]]},"properties":{"name":"Firing zone (unnumbered)","signed_date":"2002-12-16","mechanism":"closed_military_area","area_m2":438152.6,"source_crs":"EPSG:32636","evidence_ref":["e23b3ec177"]}},{"type":"Feature","geometry":{"type":"Polygon","coordinates":[[[34.965374,31.569549],[34.962477,31.570893],[34.961161,31.571209],[34.960093,31.571135],[34.958902,31.570781],[34.958123,31.570182],[34.956934,31.568913],[34.956486,31.567576],[34.956611,31.566661],[34.957191,31.565044],[34.957852,31.56392],[34.961335,31.560188],[34.960749,31.559821],[34.959987,31.558766],[34.959791,31.557224],[34.960343,31.556276],[34.959634,31.555671],[34.959333,31.554773],[34.959722,31.55334],[34.960644,31.552584],[34.958298,31.550902],[34.955467,31.549312],[34.950541,31.547543],[34.9443,31.546229],[34.941812,31.546174],[34.941758,31.551467],[34.943194,31.553798],[34.942898,31.56165],[34.944743,31.563685],[34.94816,31.58137],[34.952376,31.594881],[34.956745,31.598593],[34.957809,31.595233],[34.960289,31.590419],[34.962022,31.587853],[34.967419,31.583114],[34.969476,31.582167],[34.970466,31.580726],[34.971093,31.576822],[34.970946,31.571002],[34.970059,31.570215],[34.96969,31.568942],[34.968382,31.569876],[34.967446,31.570256],[34.966358,31.570191],[34.965374,31.569549]]]},"properties":{"zone_name":"309à'","name":"Firing zone 309à'","signed_date":"2000-01-05","mechanism":"closed_military_area","area_m2":8262485.9,"source_crs":"EPSG:32636","evidence_ref":["7c6dec7b1e"]}},{"type":"Feature","geometry":{"type":"Polygon","coordinates":[[[35.120367,32.284473],[35.120651,32.285238],[35.12239,32.287395],[35.122708,32.288225],[35.122415,32.289288],[35.122722,32.289292],[35.122996,32.28834],[35.123516,32.288334],[35.124997,32.289666],[35.125639,32.290544],[35.1256,32.289441],[35.126641,32.286651],[35.124632,32.285511],[35.123219,32.285037],[35.122769,32.285095],[35.122225,32.284909],[35.121844,32.28434],[35.121913,32.284022],[35.122539,32.283656],[35.124309,32.283211],[35.124997,32.282637],[35.124885,32.282308],[35.126768,32.281406],[35.127043,32.281502],[35.127855,32.282793],[35.128605,32.283325],[35.128942,32.284058],[35.129605,32.284366],[35.129791,32.284732],[35.129847,32.284598],[35.129758,32.284168],[35.129467,32.283816],[35.125901,32.280013],[35.12562,32.279907],[35.124933,32.279956],[35.124478,32.28018],[35.122176,32.28155],[35.121466,32.282135],[35.120566,32.283244],[35.120367,32.284473]]]},"properties":{"name":"Firing zone (unnumbered)","signed_date":"2005-10-06","mechanism":"closed_military_area","area_m2":335135.1,"source_crs":"EPSG:32636","evidence_ref":["e4f574c604"]}},{"type":"Feature","geometry":{"type":"Polygon","coordinates":[[[35.184973,32.258642],[35.184877,32.258095],[35.184557,32.257999],[35.184406,32.257519],[35.182925,32.257628],[35.182143,32.257773],[35.18038,32.258512],[35.179669,32.259066],[35.179634,32.259406],[35.180692,32.260197],[35.181338,32.260141],[35.181746,32.259922],[35.181793,32.259015],[35.183535,32.259228],[35.183945,32.258941],[35.184973,32.258642]]]},"properties":{"zone_name":"411","name":"Firing zone 411","signed_date":"1971-03-22","mechanism":"closed_military_area","area_m2":78094.5,"source_crs":"EPSG:32636","evidence_ref":["3d8facf01d"]}},{"type":"Feature","geometry":{"type":"Polygon","coordinates":[[[35.536501,32.330587],[35.536317,32.324288],[35.535853,32.318467],[35.535769,32.317579],[35.535363,32.316825],[35.53427,32.315733],[35.531844,32.313823],[35.527031,32.309365],[35.524765,32.307147],[35.521285,32.303355],[35.517321,32.299546],[35.515904,32.297906],[35.51041,32.294187],[35.50948,32.293437],[35.508185,32.291934],[35.507735,32.289966],[35.507691,32.288939],[35.50805,32.287809],[35.509414,32.285751],[35.509774,32.28479],[35.509635,32.279535],[35.509352,32.279194],[35.508142,32.27906],[35.502056,32.278698],[35.500161,32.278736],[35.495623,32.283677],[35.49313,32.285891],[35.492368,32.286954],[35.492129,32.287811],[35.492982,32.289864],[35.495977,32.293795],[35.496302,32.294546],[35.495982,32.295402],[35.495299,32.296056],[35.494536,32.297135],[35.494137,32.298232],[35.49418,32.299121],[35.494747,32.299976],[35.495838,32.300933],[35.497939,32.30223],[35.498826,32.30233],[35.499433,32.302809],[35.500323,32.303903],[35.500407,32.304826],[35.499926,32.305992],[35.499244,32.306848],[35.49768,32.309677],[35.497604,32.311013],[35.498253,32.312276],[35.499549,32.313815],[35.501035,32.314387],[35.504023,32.315163],[35.510489,32.318053],[35.512024,32.318904],[35.515056,32.321192],[35.517038,32.323105],[35.51813,32.323924],[35.525398,32.326662],[35.527702,32.32823],[35.528835,32.329357],[35.531625,32.33161],[35.534009,32.332939],[35.535139,32.333108],[35.536147,32.332865],[35.536588,32.332109],[35.536501,32.330587]]]},"properties":{"zone_name":"902","name":"Firing zone 902","signed_date":"1999-07-02","mechanism":"closed_military_area","area_m2":10653259.2,"source_crs":"EPSG:32636","evidence_ref":["0a5088687d"]}},{"type":"Feature","geometry":{"type":"Polygon","coordinates":[[[35.002517,31.647935],[35.004945,31.646105],[35.007362,31.64401],[35.00902,31.64195],[35.009461,31.639826],[35.009381,31.637988],[35.00842,31.637031],[35.007649,31.636513],[35.005224,31.636082],[35.004872,31.635793],[35.005065,31.635084],[35.005107,31.63385],[35.004321,31.632626],[35.003478,31.631934],[35.002274,31.630482],[34.999265,31.62859],[34.995527,31.624885],[34.992787,31.622635],[34.992005,31.621529],[34.991423,31.620126],[34.991465,31.618833],[34.992198,31.617645],[34.99323,31.61725],[34.991543,31.616068],[34.991106,31.614956],[34.989818,31.612802],[34.98877,31.61223],[34.98731,31.611723],[34.983605,31.609487],[34.982534,31.607799],[34.982232,31.606568],[34.982171,31.603687],[34.982503,31.603096],[34.982352,31.602451],[34.982405,31.601744],[34.98267,31.60121],[34.984093,31.599955],[34.984004,31.599013],[34.983432,31.598082],[34.981524,31.595936],[34.98017,31.593959],[34.979665,31.592907],[34.979367,31.591854],[34.979482,31.590792],[34.979805,31.58973],[34.980566,31.588832],[34.980919,31.588654],[34.977825,31.589404],[34.976259,31.590826],[34.975719,31.591892],[34.972415,31.593439],[34.972701,31.594331],[34.972635,31.594535],[34.971623,31.595363],[34.970365,31.595684],[34.968625,31.597896],[34.968228,31.599049],[34.967349,31.598998],[34.966668,31.598385],[34.965376,31.600674],[34.964155,31.605309],[34.969524,31.610769],[34.976044,31.618741],[34.983916,31.629799],[34.989891,31.637449],[34.99115,31.638792],[34.995594,31.642792],[34.998396,31.64554],[35.002517,31.647935]]]},"properties":{"zone_name":"935","name":"Firing zone 935","signed_date":"2004-02-03","mechanism":"closed_military_area","area_m2":8953774.4,"source_crs":"EPSG:32636","evidence_ref":["64a5bab7a7"]}},{"type":"Feature","geometry":{"type":"Polygon","coordinates":[[[35.161285,31.930771],[35.163455,31.929353],[35.164706,31.928765],[35.165819,31.928507],[35.166669,31.928648],[35.167739,31.929117],[35.16904,31.930504],[35.170068,31.931154],[35.171386,31.930865],[35.171535,31.930249],[35.171435,31.928369],[35.172028,31.927366],[35.172592,31.927259],[35.172948,31.927923],[35.173216,31.927775],[35.173205,31.927524],[35.173794,31.927489],[35.17483,31.926355],[35.175677,31.925128],[35.175583,31.924417],[35.175736,31.923583],[35.175163,31.923462],[35.174919,31.923251],[35.174904,31.922012],[35.172508,31.923109],[35.170328,31.92364],[35.167119,31.923716],[35.166671,31.923846],[35.166524,31.923944],[35.167013,31.924718],[35.165691,31.924681],[35.165265,31.92436],[35.165105,31.92353],[35.164788,31.923806],[35.164581,31.924763],[35.164088,31.924865],[35.163819,31.924735],[35.163266,31.925034],[35.162842,31.925589],[35.160127,31.925679],[35.160219,31.926339],[35.160618,31.926499],[35.160238,31.92686],[35.160304,31.927323],[35.159979,31.928247],[35.160281,31.92853],[35.161051,31.930557],[35.161285,31.930771]]]},"properties":{"name":"Firing zone (unnumbered)","signed_date":"1991-04-02","mechanism":"closed_military_area","area_m2":800486.2,"source_crs":"EPSG:32636","evidence_ref":["8649809f6e"]}},{"type":"Feature","geometry":{"type":"Polygon","coordinates":[[[35.373526,31.907458],[35.376147,31.906983],[35.380151,31.907154],[35.381049,31.907802],[35.381808,31.908094],[35.383189,31.908328],[35.390023,31.909259],[35.396858,31.909899],[35.401552,31.910656],[35.405004,31.910827],[35.405969,31.910414],[35.407897,31.908351],[35.41196,31.904459],[35.413611,31.902277],[35.414023,31.901333],[35.417903,31.89573],[35.416258,31.895707],[35.414002,31.896802],[35.412407,31.897105],[35.411905,31.896412],[35.410363,31.896688],[35.410066,31.89659],[35.410056,31.896223],[35.409899,31.896109],[35.408555,31.895906],[35.40828,31.895766],[35.408265,31.895472],[35.407371,31.894732],[35.407205,31.894353],[35.406346,31.894328],[35.405956,31.89402],[35.405924,31.893611],[35.406358,31.893176],[35.406349,31.892845],[35.405725,31.893163],[35.405338,31.893125],[35.405159,31.892971],[35.405283,31.892139],[35.40513,31.891957],[35.404163,31.891846],[35.403828,31.891238],[35.403252,31.891055],[35.403259,31.889926],[35.401577,31.888844],[35.400222,31.888645],[35.398933,31.887638],[35.398602,31.888646],[35.398198,31.888985],[35.397475,31.889069],[35.395311,31.887652],[35.394177,31.887515],[35.393206,31.887056],[35.392885,31.886714],[35.393421,31.885341],[35.392878,31.884883],[35.393007,31.884046],[35.392786,31.88391],[35.392653,31.883177],[35.393795,31.881775],[35.393888,31.881481],[35.393764,31.881009],[35.394628,31.879266],[35.395788,31.878085],[35.396204,31.877447],[35.396457,31.876219],[35.396701,31.876029],[35.39906,31.876343],[35.400254,31.876079],[35.402249,31.87434],[35.404274,31.873247],[35.405914,31.872885],[35.406744,31.87254],[35.424789,31.872322],[35.424326,31.851336],[35.423704,31.850631],[35.422254,31.849867],[35.419147,31.848695],[35.417766,31.847815],[35.415487,31.846699],[35.412379,31.844585],[35.409272,31.843059],[35.404648,31.841654],[35.4003,31.840131],[35.398644,31.839368],[35.395124,31.838314],[35.393331,31.83808],[35.39002,31.837732],[35.38533,31.83768],[35.38402,31.837916],[35.383745,31.8378],[35.382297,31.838037],[35.377746,31.838219],[35.375747,31.839104],[35.374851,31.839283],[35.374025,31.839932],[35.371613,31.841172],[35.367202,31.842767],[35.365547,31.843003],[35.362728,31.843177],[35.359547,31.842659],[35.358236,31.842602],[35.356166,31.842133],[35.352304,31.842086],[35.350253,31.84231],[35.349824,31.843552],[35.349483,31.845849],[35.348726,31.847497],[35.347349,31.848794],[35.340178,31.850626],[35.336457,31.852986],[35.334667,31.855106],[35.332602,31.85817],[35.326541,31.865182],[35.322895,31.873192],[35.322348,31.8769],[35.322215,31.881376],[35.322911,31.885615],[35.32395,31.889264],[35.325681,31.893972],[35.327825,31.897089],[35.329485,31.900091],[35.331282,31.902385],[35.338053,31.908265],[35.343233,31.911321],[35.346134,31.912377],[35.347791,31.912493],[35.354137,31.910191],[35.356,31.909892],[35.359589,31.910301],[35.361245,31.909712],[35.367454,31.908349],[35.370903,31.907696],[35.373526,31.907458]]]},"properties":{"zone_name":"929","name":"Firing zone 929","signed_date":"1999-05-05","mechanism":"closed_military_area","area_m2":58709811.5,"source_crs":"EPSG:32636","evidence_ref":["d7074c7965"]}},{"type":"Feature","geometry":{"type":"Polygon","coordinates":[[[35.137413,31.870884],[35.136969,31.87149],[35.137284,31.872501],[35.139489,31.87264],[35.141751,31.873068],[35.1415,31.871402],[35.137413,31.870884]]]},"properties":{"name":"Firing zone (unnumbered)","signed_date":"1984-04-19","mechanism":"closed_military_area","area_m2":72721.5,"source_crs":"EPSG:32636","evidence_ref":["7a0fe13779"]}},{"type":"Feature","geometry":{"type":"Polygon","coordinates":[[[34.996923,31.963628],[34.99238,31.958356],[34.990793,31.960687],[34.9893,31.963446],[34.997148,31.963873],[34.996923,31.963628]]]},"properties":{"zone_name":"203","name":"Firing zone 203","signed_date":"1993-11-04","mechanism":"closed_military_area","area_m2":219072.9,"source_crs":"EPSG:32636","evidence_ref":["345a9c9bc6"]}},{"type":"Feature","geometry":{"type":"Polygon","coordinates":[[[35.245163,32.347641],[35.245371,32.347225],[35.245111,32.346052],[35.243738,32.344776],[35.243648,32.343542],[35.244303,32.340983],[35.243729,32.340188],[35.241885,32.339824],[35.240174,32.339798],[35.238225,32.33873],[35.23727,32.337187],[35.237089,32.33805],[35.237315,32.339],[35.239896,32.342697],[35.240921,32.343518],[35.243697,32.346586],[35.245163,32.347641]]]},"properties":{"zone_name":"927","name":"Firing zone 927","signed_date":"2000-01-05","mechanism":"closed_military_area","area_m2":277240.1,"source_crs":"EPSG:32636","evidence_ref":["7c6dec7b1e"]}},{"type":"Feature","geometry":{"type":"Polygon","coordinates":[[[34.999767,32.106016],[35.005707,32.107819],[35.011104,32.10788],[35.01613,32.107729],[35.019171,32.107206],[35.024447,32.105735],[35.031122,32.102836],[35.031591,32.101253],[35.03166,32.097243],[35.031476,32.096028],[35.031045,32.094708],[35.0308,32.092859],[35.030246,32.09048],[35.029839,32.087078],[35.029192,32.085128],[35.027369,32.081207],[35.026323,32.079834],[35.024458,32.076892],[35.02357,32.075093],[35.021196,32.071482],[35.019614,32.069544],[35.019069,32.069279],[35.017607,32.069336],[35.015826,32.069958],[35.015446,32.069923],[35.014296,32.068896],[35.014249,32.067293],[35.014724,32.066232],[35.016357,32.064526],[35.019778,32.063974],[35.021047,32.063582],[35.025007,32.059478],[35.026642,32.059133],[35.029578,32.058823],[35.032276,32.058203],[35.033166,32.057765],[35.033896,32.057191],[35.034857,32.056087],[35.035199,32.054269],[35.034995,32.053035],[35.034448,32.051524],[35.032843,32.048779],[35.031258,32.044303],[35.030526,32.043069],[35.0295,32.042227],[35.026501,32.040669],[35.023798,32.040045],[35.022103,32.039872],[35.020764,32.040009],[35.01971,32.040251],[35.018836,32.040781],[35.017899,32.041727],[35.015694,32.043087],[35.015071,32.043029],[35.01459,32.042463],[35.012854,32.041125],[35.011929,32.040825],[35.010955,32.040882],[35.009891,32.0414],[35.0084,32.04246],[35.007588,32.042529],[35.0062,32.040856],[35.005615,32.040614],[35.005046,32.040614],[35.002278,32.041431],[34.986431,32.089109],[34.985183,32.089016],[34.983667,32.089188],[34.983212,32.089649],[34.982976,32.090329],[34.983012,32.091136],[34.98349,32.092555],[34.985418,32.095209],[34.985748,32.096847],[34.985713,32.09732],[34.989504,32.099317],[34.995845,32.103773],[34.999767,32.106016]]]},"properties":{"zone_name":"203","name":"Firing zone 203","signed_date":"1993-11-04","mechanism":"closed_military_area","area_m2":24038814.3,"source_crs":"EPSG:32636","evidence_ref":["345a9c9bc6"]}},{"type":"Feature","geometry":{"type":"Polygon","coordinates":[[[35.220738,31.936796],[35.220871,31.936846],[35.220932,31.936738],[35.220803,31.936683],[35.220738,31.936796]]]},"properties":{"name":"Firing zone (unnumbered)","signed_date":"2006-10-17","mechanism":"closed_military_area","area_m2":186.5,"source_crs":"EPSG:32636","evidence_ref":["fbdbfcb880"]}},{"type":"Feature","geometry":{"type":"Polygon","coordinates":[[[35.044769,31.479428],[35.043957,31.4788],[35.043504,31.478893],[35.041651,31.480422],[35.040628,31.481021],[35.04066,31.482379],[35.041548,31.482321],[35.042917,31.48121],[35.044833,31.480217],[35.044936,31.479778],[35.044769,31.479428]]]},"properties":{"zone_name":"959","name":"Firing zone 959","signed_date":"1975-05-27","mechanism":"closed_military_area","area_m2":76284.0,"source_crs":"EPSG:32636","evidence_ref":["2903a04f19"]}},{"type":"Feature","geometry":{"type":"Polygon","coordinates":[[[35.119512,32.425602],[35.119063,32.425644],[35.117838,32.42501],[35.117063,32.423645],[35.116439,32.42198],[35.116479,32.421702],[35.117337,32.421501],[35.119274,32.42164],[35.120625,32.422056],[35.120993,32.422385],[35.121098,32.42286],[35.121799,32.423575],[35.121834,32.42414],[35.121566,32.424392],[35.120719,32.42443],[35.12003,32.425273],[35.120925,32.426037],[35.121189,32.426581],[35.122831,32.425764],[35.123364,32.425279],[35.123581,32.42495],[35.12341,32.423899],[35.122592,32.423522],[35.121519,32.422534],[35.121105,32.421863],[35.120309,32.421233],[35.118544,32.420765],[35.117461,32.420143],[35.117037,32.420067],[35.115347,32.421384],[35.114949,32.421875],[35.114627,32.423607],[35.114997,32.424817],[35.115398,32.425263],[35.116768,32.426092],[35.117968,32.426244],[35.119727,32.426733],[35.12061,32.426777],[35.120489,32.426473],[35.119512,32.425602]]]},"properties":{"name":"Firing zone (unnumbered)","signed_date":"2005-07-24","mechanism":"closed_military_area","area_m2":254751.7,"source_crs":"EPSG:32636","evidence_ref":["5afd0a34dc"]}},{"type":"Feature","geometry":{"type":"Polygon","coordinates":[[[35.411553,32.213939],[35.413604,32.211094],[35.416314,32.206909],[35.41752,32.205739],[35.418451,32.204546],[35.421271,32.200092],[35.422607,32.196085],[35.422931,32.19335],[35.423313,32.192486],[35.425778,32.18956],[35.426352,32.188426],[35.426626,32.187749],[35.426511,32.185765],[35.425593,32.181082],[35.425506,32.17926],[35.425614,32.178327],[35.425777,32.177532],[35.42616,32.176923],[35.429474,32.173216],[35.429555,32.172586],[35.429416,32.172002],[35.429113,32.171512],[35.427491,32.170883],[35.424661,32.170515],[35.41991,32.170523],[35.417713,32.170152],[35.416889,32.169862],[35.414744,32.168721],[35.414001,32.167976],[35.413367,32.167253],[35.411686,32.164289],[35.410332,32.160892],[35.410053,32.15872],[35.409749,32.157902],[35.409637,32.156992],[35.409644,32.147813],[35.409421,32.145782],[35.409145,32.145456],[35.407194,32.144548],[35.404445,32.142939],[35.404032,32.142496],[35.403646,32.141597],[35.403561,32.140406],[35.403906,32.134637],[35.403846,32.132476],[35.404388,32.129183],[35.404519,32.126297],[35.404844,32.124473],[35.404336,32.117573],[35.404743,32.115469],[35.40372,32.112097],[35.403607,32.110672],[35.403359,32.110204],[35.402782,32.109926],[35.399818,32.109836],[35.395563,32.109048],[35.390922,32.107571],[35.387707,32.105964],[35.383338,32.102725],[35.379049,32.09856],[35.376986,32.095738],[35.375529,32.09414],[35.374979,32.09358],[35.374375,32.09358],[35.373254,32.095637],[35.371667,32.098068],[35.368986,32.103141],[35.366221,32.106917],[35.3654,32.107783],[35.362881,32.111581],[35.36132,32.114418],[35.361872,32.115388],[35.362881,32.114641],[35.363737,32.114257],[35.364722,32.114133],[35.365294,32.114753],[35.365689,32.115693],[35.365845,32.119369],[35.366119,32.120417],[35.366455,32.123829],[35.367038,32.124868],[35.367688,32.128484],[35.368409,32.1301],[35.368699,32.131777],[35.368284,32.134605],[35.36874,32.134978],[35.368474,32.135458],[35.367606,32.136029],[35.366713,32.136361],[35.364936,32.137623],[35.365016,32.139795],[35.364662,32.14143],[35.364476,32.145295],[35.364766,32.154276],[35.367329,32.159353],[35.367825,32.160638],[35.37152,32.167563],[35.37212,32.167152],[35.373854,32.165395],[35.3745,32.165225],[35.375563,32.163227],[35.376645,32.161942],[35.378779,32.161823],[35.379314,32.160945],[35.379741,32.159515],[35.38046,32.158552],[35.381263,32.15823],[35.382878,32.158664],[35.384018,32.159592],[35.384135,32.160536],[35.38363,32.162523],[35.383575,32.164026],[35.383877,32.16489],[35.385109,32.165814],[35.385875,32.16667],[35.38631,32.169112],[35.38624,32.169984],[35.385338,32.171027],[35.384919,32.172775],[35.385705,32.17442],[35.386566,32.175352],[35.387446,32.176995],[35.387672,32.178571],[35.387516,32.179681],[35.385905,32.182083],[35.385567,32.183352],[35.384282,32.18401],[35.383646,32.184577],[35.382941,32.184858],[35.382005,32.185793],[35.381643,32.187075],[35.385814,32.187888],[35.387383,32.189369],[35.387411,32.190447],[35.38719,32.191746],[35.384438,32.193847],[35.383701,32.19494],[35.383605,32.196128],[35.385254,32.198675],[35.387622,32.201814],[35.389247,32.203612],[35.393576,32.207776],[35.394958,32.207537],[35.395715,32.207894],[35.396484,32.208676],[35.397141,32.209935],[35.397719,32.210562],[35.399164,32.210958],[35.401434,32.211869],[35.404717,32.213345],[35.405353,32.21381],[35.406281,32.213527],[35.407105,32.213988],[35.409421,32.214316],[35.411553,32.213939]]]},"properties":{"zone_name":"904à'","name":"Firing zone 904à'","signed_date":"2000-01-05","mechanism":"closed_military_area","area_m2":42495678.7,"source_crs":"EPSG:32636","evidence_ref":["7c6dec7b1e"]}},{"type":"Feature","geometry":{"type":"Polygon","coordinates":[[[35.367956,32.019491],[35.367473,32.019663],[35.365626,32.021208],[35.363897,32.022101],[35.36261,32.022411],[35.361403,32.022275],[35.36096,32.02207],[35.360598,32.021625],[35.359224,32.018131],[35.358136,32.016796],[35.356806,32.015563],[35.357492,32.017002],[35.357614,32.017619],[35.357535,32.018716],[35.357255,32.019401],[35.358261,32.019503],[35.358543,32.019708],[35.358464,32.020462],[35.356655,32.021424],[35.356615,32.021801],[35.356979,32.023103],[35.356538,32.023926],[35.353643,32.024581],[35.353201,32.025233],[35.353202,32.025713],[35.356259,32.025606],[35.356944,32.025845],[35.358676,32.027008],[35.359279,32.027179],[35.362819,32.026763],[35.363261,32.026386],[35.363702,32.025494],[35.364385,32.024808],[35.365711,32.024258],[35.366677,32.024291],[35.368086,32.024769],[35.367956,32.019491]]]},"properties":{"name":"Firing zone (unnumbered)","signed_date":"1995-04-02","mechanism":"closed_military_area","area_m2":662997.8,"source_crs":"EPSG:32636","evidence_ref":["c172fda648"]}},{"type":"Feature","geometry":{"type":"Polygon","coordinates":[[[35.447387,32.324262],[35.449693,32.323669],[35.452847,32.323466],[35.459309,32.323913],[35.464619,32.324749],[35.472547,32.326562],[35.474546,32.326297],[35.475159,32.325512],[35.476004,32.325315],[35.47739,32.325572],[35.482705,32.328107],[35.484706,32.3283],[35.487397,32.327967],[35.48993,32.326328],[35.491236,32.325736],[35.493849,32.325078],[35.498926,32.325199],[35.499234,32.325001],[35.496146,32.321809],[35.494908,32.31946],[35.494594,32.317435],[35.494127,32.315672],[35.492584,32.314239],[35.491269,32.311695],[35.49141,32.307515],[35.491791,32.306665],[35.492168,32.304051],[35.491781,32.303139],[35.488233,32.299685],[35.487768,32.298642],[35.487379,32.297204],[35.488284,32.291325],[35.485495,32.284668],[35.484335,32.28232],[35.483867,32.279969],[35.48361,32.27161],[35.483377,32.270762],[35.480601,32.26783],[35.480435,32.264041],[35.479415,32.256727],[35.478718,32.255032],[35.477638,32.253989],[35.476098,32.252946],[35.472714,32.252106],[35.470948,32.252696],[35.469184,32.254006],[35.461595,32.261402],[35.458225,32.26572],[35.446718,32.274429],[35.445564,32.2743],[35.444913,32.273995],[35.436641,32.278126],[35.428301,32.281416],[35.420386,32.284273],[35.41399,32.287189],[35.414382,32.287483],[35.414922,32.288528],[35.414001,32.289053],[35.401633,32.294296],[35.39979,32.29567],[35.40195,32.298738],[35.403417,32.30174],[35.403496,32.302654],[35.403269,32.30409],[35.402656,32.305201],[35.397973,32.309258],[35.396746,32.310894],[35.394751,32.312791],[35.391144,32.317094],[35.391162,32.317815],[35.391532,32.318477],[35.393921,32.320826],[35.398313,32.324476],[35.405401,32.329885],[35.408251,32.331449],[35.411128,32.33088],[35.414765,32.330831],[35.416476,32.329944],[35.416631,32.329328],[35.41616,32.327919],[35.416263,32.327475],[35.41704,32.326614],[35.418103,32.325952],[35.419238,32.325682],[35.422007,32.325547],[35.425621,32.32502],[35.4307,32.324799],[35.432136,32.325522],[35.433684,32.326049],[35.43518,32.325643],[35.438674,32.323436],[35.440081,32.323134],[35.441169,32.3233],[35.443947,32.32452],[35.445175,32.324537],[35.447387,32.324262]]]},"properties":{"zone_name":"901","name":"Firing zone 901","signed_date":"1999-05-05","mechanism":"closed_military_area","area_m2":49227808.4,"source_crs":"EPSG:32636","evidence_ref":["d7074c7965"]}},{"type":"Feature","geometry":{"type":"Polygon","coordinates":[[[35.238318,32.35518],[35.237311,32.353194],[35.23821,32.352303],[35.242687,32.349768],[35.240482,32.345546],[35.237581,32.348386],[35.235883,32.348872],[35.23449,32.348617],[35.231704,32.345883],[35.230173,32.343988],[35.228089,32.342125],[35.226999,32.341659],[35.225928,32.341884],[35.22486,32.343331],[35.224056,32.344946],[35.224027,32.348529],[35.224801,32.350772],[35.225588,32.352316],[35.227897,32.355064],[35.231648,32.35784],[35.234823,32.359516],[35.235983,32.359491],[35.236665,32.358512],[35.238318,32.35518]]]},"properties":{"zone_name":"927","name":"Firing zone 927","signed_date":"2000-01-05","mechanism":"closed_military_area","area_m2":1786353.0,"source_crs":"EPSG:32636","evidence_ref":["7c6dec7b1e"]}},{"type":"Feature","geometry":{"type":"Polygon","coordinates":[[[35.221146,31.936385],[35.22118,31.936396],[35.2212,31.936376],[35.221245,31.936388],[35.221268,31.936306],[35.221221,31.936298],[35.221207,31.936321],[35.221166,31.936312],[35.221146,31.936385]]]},"properties":{"name":"Firing zone (unnumbered)","signed_date":"2006-10-17","mechanism":"closed_military_area","area_m2":80.7,"source_crs":"EPSG:32636","evidence_ref":["fbdbfcb880"]}},{"type":"Feature","geometry":{"type":"Polygon","coordinates":[[[35.026759,31.564484],[35.02679,31.565079],[35.027504,31.565946],[35.02726,31.566892],[35.027744,31.56747],[35.028753,31.56831],[35.030037,31.569061],[35.031693,31.569641],[35.031973,31.56956],[35.032306,31.567031],[35.032208,31.565731],[35.032334,31.564775],[35.033275,31.562016],[35.032954,31.56273],[35.032244,31.562756],[35.032507,31.563964],[35.03209,31.564576],[35.031881,31.565862],[35.031616,31.56603],[35.031737,31.566256],[35.032191,31.56642],[35.032158,31.566746],[35.031864,31.567265],[35.030937,31.567618],[35.030749,31.567834],[35.031147,31.568256],[35.030812,31.56864],[35.031222,31.5692],[35.031129,31.569312],[35.029092,31.568198],[35.029708,31.567131],[35.029754,31.565346],[35.029502,31.565056],[35.028335,31.564594],[35.028096,31.564131],[35.028487,31.563798],[35.029185,31.564113],[35.029505,31.564034],[35.029614,31.563889],[35.029488,31.563112],[35.029748,31.562293],[35.030482,31.561407],[35.031166,31.561323],[35.03216,31.560738],[35.031349,31.560441],[35.030052,31.561106],[35.029113,31.561899],[35.027753,31.562636],[35.0275,31.562636],[35.02732,31.563186],[35.026866,31.563636],[35.026759,31.564484]]]},"properties":{"name":"Firing zone (unnumbered)","signed_date":"2006-03-23","mechanism":"closed_military_area","area_m2":194917.0,"source_crs":"EPSG:32636","evidence_ref":["334abc3554"]}},{"type":"Feature","geometry":{"type":"Polygon","coordinates":[[[35.460265,31.745296],[35.459545,31.74519],[35.458494,31.745686],[35.457971,31.745678],[35.457904,31.745105],[35.456254,31.744706],[35.456016,31.743843],[35.453385,31.742881],[35.453202,31.742572],[35.452803,31.74248],[35.452912,31.742164],[35.45257,31.741976],[35.45285,31.741298],[35.453403,31.740975],[35.453879,31.740174],[35.454409,31.740343],[35.455707,31.741731],[35.455898,31.740829],[35.45741,31.740254],[35.457804,31.739935],[35.456771,31.738453],[35.448764,31.724712],[35.447596,31.722266],[35.446969,31.71883],[35.446959,31.715126],[35.447263,31.712943],[35.448256,31.708311],[35.448482,31.705797],[35.448154,31.698523],[35.447449,31.69515],[35.445033,31.688011],[35.443093,31.685634],[35.440381,31.683722],[35.436897,31.682404],[35.435735,31.681547],[35.434186,31.680758],[35.431702,31.676727],[35.42883,31.672696],[35.424948,31.666223],[35.421301,31.660673],[35.417813,31.656841],[35.41688,31.654397],[35.41741,31.649436],[35.416865,31.647651],[35.414307,31.644944],[35.41144,31.642367],[35.40927,31.639926],[35.408338,31.637876],[35.40747,31.629677],[35.406377,31.624254],[35.40156,31.61249],[35.398847,31.608988],[35.395435,31.603172],[35.392801,31.599738],[35.389703,31.59617],[35.385375,31.591861],[35.382079,31.587388],[35.380578,31.584192],[35.380425,31.581634],[35.381114,31.577114],[35.382055,31.574598],[35.382999,31.573232],[35.384438,31.570459],[35.384834,31.569306],[35.381491,31.565941],[35.378745,31.562322],[35.378693,31.560999],[35.379339,31.560232],[35.383068,31.557029],[35.383663,31.556003],[35.383662,31.555236],[35.383162,31.553789],[35.382264,31.553021],[35.381115,31.551318],[35.379815,31.548206],[35.37926,31.543815],[35.379102,31.539466],[35.379436,31.531918],[35.37983,31.529146],[35.382408,31.523599],[35.382505,31.521936],[35.382253,31.520486],[35.380809,31.519976],[35.379662,31.518999],[35.379709,31.517505],[35.380105,31.516567],[35.380602,31.515926],[35.380899,31.515075],[35.380847,31.514179],[35.380299,31.514008],[35.377661,31.513927],[35.377153,31.511624],[35.377754,31.510345],[35.38376,31.501595],[35.384355,31.5004],[35.386582,31.493703],[35.386381,31.492723],[35.386528,31.491359],[35.387169,31.488458],[35.387348,31.483725],[35.376475,31.47521],[35.368109,31.469519],[35.361042,31.46494],[35.357246,31.462126],[35.342369,31.452674],[35.315758,31.436143],[35.309087,31.432647],[35.299127,31.425519],[35.289338,31.416848],[35.2865,31.415052],[35.279641,31.411326],[35.248249,31.389871],[35.245938,31.387951],[35.240242,31.384667],[35.239795,31.384537],[35.239049,31.385263],[35.236465,31.388589],[35.228316,31.398357],[35.219618,31.410382],[35.220166,31.41341],[35.218127,31.41503],[35.211166,31.421809],[35.211664,31.434644],[35.211664,31.440189],[35.211366,31.443556],[35.211023,31.44542],[35.211677,31.445388],[35.212857,31.44608],[35.215544,31.446995],[35.218072,31.447415],[35.22064,31.447321],[35.223889,31.446618],[35.232245,31.446235],[35.235785,31.447112],[35.238341,31.448555],[35.239217,31.449498],[35.240962,31.452611],[35.241356,31.454119],[35.242286,31.455999],[35.243139,31.457306],[35.244382,31.458601],[35.246738,31.460007],[35.247612,31.460988],[35.248294,31.462099],[35.24899,31.463771],[35.24933,31.466252],[35.250636,31.47],[35.252775,31.473331],[35.254442,31.47651],[35.256561,31.47896],[35.258757,31.480768],[35.261119,31.481689],[35.265283,31.482936],[35.270993,31.484413],[35.273099,31.485896],[35.274615,31.486597],[35.276225,31.487105],[35.278989,31.489944],[35.28033,31.49091],[35.280978,31.491819],[35.282391,31.493252],[35.284283,31.494364],[35.2865,31.496748],[35.287722,31.498738],[35.290393,31.50184],[35.295543,31.507342],[35.299184,31.514839],[35.301047,31.51644],[35.304748,31.522612],[35.306248,31.52466],[35.30829,31.527006],[35.310234,31.528716],[35.312077,31.530004],[35.313774,31.531845],[35.314001,31.536567],[35.312495,31.539665],[35.313828,31.539589],[35.314702,31.540141],[35.314548,31.541605],[35.314189,31.542583],[35.314218,31.544493],[35.315203,31.544919],[35.316094,31.546118],[35.316867,31.548533],[35.317154,31.550318],[35.316314,31.555039],[35.316342,31.556941],[35.316866,31.55803],[35.316996,31.559407],[35.317436,31.560642],[35.318377,31.560906],[35.319828,31.560963],[35.323284,31.560468],[35.326033,31.560427],[35.327141,31.560264],[35.327845,31.562443],[35.326864,31.570163],[35.325694,31.573008],[35.325747,31.575122],[35.325268,31.57807],[35.325521,31.579949],[35.32519,31.580482],[35.324509,31.580849],[35.324321,31.581616],[35.324341,31.582439],[35.323882,31.583388],[35.32384,31.584448],[35.323503,31.584806],[35.323052,31.58605],[35.322389,31.587178],[35.322008,31.588479],[35.32157,31.593073],[35.321551,31.595073],[35.321139,31.59796],[35.321179,31.599549],[35.320774,31.599908],[35.320224,31.599977],[35.319593,31.600299],[35.319278,31.600817],[35.319294,31.601464],[35.320414,31.602091],[35.319278,31.604754],[35.32289,31.614223],[35.323586,31.617926],[35.323484,31.61922],[35.321507,31.625549],[35.3212,31.628127],[35.321761,31.636647],[35.322023,31.637668],[35.323356,31.640282],[35.320985,31.643062],[35.318353,31.643349],[35.316246,31.643867],[35.31404,31.645242],[35.312871,31.646495],[35.3121,31.647672],[35.311652,31.648945],[35.311452,31.650592],[35.311529,31.654972],[35.312107,31.656898],[35.313837,31.659442],[35.317167,31.662463],[35.315077,31.664355],[35.314064,31.666006],[35.314353,31.666138],[35.313603,31.669502],[35.313861,31.670868],[35.315313,31.673841],[35.316798,31.675678],[35.318783,31.677101],[35.323378,31.678593],[35.326812,31.679498],[35.325163,31.681952],[35.324358,31.683479],[35.324151,31.684257],[35.324119,31.685441],[35.324584,31.688215],[35.321414,31.689997],[35.320364,31.690332],[35.31848,31.691498],[35.316895,31.692819],[35.315614,31.694382],[35.315082,31.695522],[35.314826,31.6965],[35.314776,31.697698],[35.314903,31.698792],[35.315284,31.700013],[35.315963,31.698741],[35.319276,31.695693],[35.322222,31.69527],[35.324064,31.695268],[35.325168,31.694639],[35.327254,31.692536],[35.32799,31.692116],[35.329954,31.692008],[35.331675,31.692847],[35.333273,31.694525],[35.33475,31.696624],[35.337335,31.701345],[35.339799,31.706804],[35.339803,31.709847],[35.339317,31.713103],[35.337728,31.719195],[35.336382,31.722554],[35.335157,31.724865],[35.33344,31.727179],[35.333689,31.729174],[35.335412,31.731796],[35.335045,31.732531],[35.333572,31.733582],[35.327314,31.739572],[35.325232,31.741763],[35.32129,31.746611],[35.317653,31.750387],[35.315998,31.753612],[35.314741,31.755528],[35.312923,31.757623],[35.307687,31.761494],[35.306458,31.76324],[35.309977,31.766793],[35.311665,31.768272],[35.313986,31.769686],[35.314829,31.770426],[35.315035,31.771016],[35.314852,31.771343],[35.314227,31.771732],[35.312146,31.772309],[35.311712,31.772748],[35.311735,31.773665],[35.312081,31.774791],[35.31318,31.775581],[35.316233,31.775795],[35.317068,31.776157],[35.318444,31.777858],[35.319131,31.779949],[35.319655,31.780587],[35.319994,31.781444],[35.320007,31.781983],[35.319764,31.782419],[35.320033,31.783008],[35.320736,31.783591],[35.32465,31.783054],[35.328758,31.783049],[35.329529,31.782434],[35.343054,31.781082],[35.343556,31.781047],[35.344502,31.781647],[35.344944,31.781732],[35.346915,31.781678],[35.346616,31.783224],[35.346678,31.784581],[35.34702,31.78501],[35.348288,31.785369],[35.347748,31.787654],[35.346927,31.789682],[35.34518,31.79104],[35.343641,31.791753],[35.34348,31.797886],[35.342861,31.798283],[35.340025,31.798333],[35.336998,31.804077],[35.343493,31.806548],[35.348142,31.808131],[35.354805,31.809579],[35.359996,31.810367],[35.363869,31.81089],[35.373707,31.811737],[35.377656,31.8116],[35.381606,31.811197],[35.383619,31.810799],[35.385011,31.809738],[35.390036,31.805299],[35.391585,31.805033],[35.393831,31.805227],[35.395377,31.803771],[35.397386,31.801386],[35.399395,31.799333],[35.400323,31.798736],[35.402956,31.798864],[35.405043,31.796811],[35.408525,31.795681],[35.414405,31.793358],[35.418271,31.790705],[35.422133,31.786202],[35.42336,31.781371],[35.424133,31.78071],[35.425294,31.780708],[35.428625,31.781231],[35.432499,31.782613],[35.439089,31.785907],[35.440095,31.785574],[35.447362,31.781196],[35.449141,31.780664],[35.450534,31.780463],[35.450762,31.778942],[35.450679,31.776427],[35.451372,31.775237],[35.457707,31.770198],[35.45793,31.766692],[35.459011,31.765368],[35.460247,31.764837],[35.461174,31.763973],[35.460857,31.761064],[35.459298,31.757363],[35.45836,31.753729],[35.458119,31.750753],[35.458501,31.748768],[35.460265,31.745296]]]},"properties":{"zone_name":"äá÷òä","name":"Firing zone äá÷òä","signed_date":"2007-09-10","mechanism":"closed_military_area","area_m2":409284371.0,"source_crs":"EPSG:32636","evidence_ref":["3f462f5035"]}},{"type":"Feature","geometry":{"type":"Polygon","coordinates":[[[35.043959,31.864704],[35.043977,31.864397],[35.044204,31.864224],[35.045651,31.86445],[35.045806,31.86442],[35.04589,31.864144],[35.043722,31.859845],[35.041931,31.858118],[35.041848,31.857873],[35.042183,31.857659],[35.043558,31.857681],[35.044229,31.856947],[35.044899,31.856622],[35.046059,31.856419],[35.047326,31.856523],[35.047984,31.856411],[35.04899,31.855494],[35.050126,31.855261],[35.050629,31.855006],[35.051913,31.853542],[35.052918,31.852939],[35.049331,31.850759],[35.045855,31.848134],[35.040134,31.84279],[35.032816,31.835633],[35.02858,31.832387],[35.026294,31.831145],[35.022334,31.829837],[35.015602,31.82854],[35.009517,31.829246],[34.994947,31.830541],[34.990668,31.830613],[34.986035,31.830939],[34.979168,31.831928],[34.978423,31.832212],[34.977957,31.832624],[34.977788,31.833164],[34.977783,31.835229],[34.977909,31.836817],[34.978169,31.837279],[34.98194,31.839747],[34.983407,31.840973],[34.988052,31.843601],[34.989575,31.844827],[34.991263,31.847038],[34.992975,31.850609],[34.994035,31.851863],[34.995329,31.853008],[35.003422,31.855398],[35.004782,31.855672],[35.017513,31.856526],[35.028248,31.855979],[35.030969,31.856182],[35.032541,31.856819],[35.033537,31.858],[35.03468,31.860687],[35.035166,31.862356],[35.035672,31.865006],[35.03865,31.86403],[35.041223,31.863562],[35.041881,31.863653],[35.042662,31.864079],[35.043724,31.865295],[35.043951,31.865305],[35.043959,31.864704]]]},"properties":{"name":"Firing zone (unnumbered)","signed_date":"1967-10-13","mechanism":"closed_military_area","area_m2":15477047.0,"source_crs":"EPSG:32636","evidence_ref":["078e3ee79d"]}},{"type":"Feature","geometry":{"type":"Polygon","coordinates":[[[35.227322,31.657472],[35.229944,31.657503],[35.231502,31.658169],[35.232651,31.658359],[35.233207,31.657439],[35.232826,31.655307],[35.232807,31.654778],[35.233038,31.654052],[35.235183,31.650759],[35.237006,31.648709],[35.237078,31.64828],[35.236959,31.648119],[35.236507,31.648004],[35.235835,31.648145],[35.234291,31.649015],[35.232336,31.649774],[35.228425,31.649629],[35.227353,31.649809],[35.225167,31.652452],[35.223132,31.653833],[35.222941,31.654133],[35.223292,31.654631],[35.224305,31.655257],[35.226456,31.656084],[35.226831,31.656975],[35.227322,31.657472]]]},"properties":{"zone_name":"ë\"â","name":"Firing zone ë\"â","signed_date":"1975-01-03","mechanism":"closed_military_area","area_m2":743046.3,"source_crs":"EPSG:32636","evidence_ref":["069f1b699a"]}},{"type":"Feature","geometry":{"type":"MultiPolygon","coordinates":[[[[35.188348,32.265299],[35.186889,32.265682],[35.186668,32.266068],[35.186889,32.266588],[35.187229,32.266647],[35.187235,32.266936],[35.186592,32.266973],[35.185987,32.267407],[35.185017,32.26656],[35.184385,32.266836],[35.183843,32.266807],[35.183812,32.266453],[35.182897,32.26584],[35.182267,32.265007],[35.182246,32.264231],[35.182589,32.263512],[35.181782,32.263522],[35.182092,32.261846],[35.182029,32.261374],[35.182603,32.260828],[35.184204,32.260432],[35.184948,32.259944],[35.18561,32.260078],[35.185982,32.260641],[35.187509,32.259916],[35.187373,32.259301],[35.186657,32.258378],[35.185594,32.258711],[35.184048,32.258687],[35.18276,32.259029],[35.181042,32.259025],[35.180641,32.259241],[35.179816,32.261383],[35.180191,32.262617],[35.179001,32.264026],[35.178945,32.264284],[35.18004,32.264257],[35.180863,32.265762],[35.180818,32.266162],[35.180292,32.266747],[35.180676,32.267228],[35.181653,32.267286],[35.182225,32.268139],[35.184617,32.268725],[35.187114,32.268682],[35.187619,32.268435],[35.187924,32.268024],[35.188201,32.267162],[35.18804,32.266614],[35.188493,32.265625],[35.188348,32.265299]]],[[[35.187529,32.260968],[35.187489,32.261005],[35.187498,32.261463],[35.187507,32.262114],[35.187576,32.262923],[35.187576,32.262896],[35.187576,32.262866],[35.187577,32.262853],[35.187577,32.262844],[35.187578,32.262837],[35.187578,32.262831],[35.187578,32.262824],[35.187578,32.262816],[35.187577,32.262809],[35.187575,32.26278],[35.187572,32.262691],[35.187561,32.26251],[35.187579,32.262445],[35.187577,32.262421],[35.187577,32.262421],[35.187575,32.262392],[35.18757,32.262332],[35.187565,32.26226],[35.187565,32.26226],[35.18756,32.262179],[35.18756,32.262177],[35.18756,32.262152],[35.187559,32.262151],[35.187559,32.262123],[35.187557,32.262069],[35.187557,32.262069],[35.187557,32.262067],[35.187556,32.262057],[35.187556,32.262048],[35.187555,32.262038],[35.187555,32.262028],[35.187554,32.261988],[35.187554,32.261969],[35.18755,32.261787],[35.187551,32.261784],[35.187548,32.261609],[35.187546,32.261436],[35.187545,32.26143],[35.187545,32.261429],[35.187542,32.261248],[35.187527,32.261067],[35.187529,32.260968]]]]},"properties":{"name":"Firing zone (unnumbered)","signed_date":"2005-09-20","mechanism":"closed_military_area","area_m2":399044.6,"source_crs":"EPSG:32636","evidence_ref":["d428bd23db"]}},{"type":"Feature","geometry":{"type":"Polygon","coordinates":[[[35.32971,32.241999],[35.33051,32.241836],[35.329418,32.241019],[35.329005,32.239667],[35.328425,32.239027],[35.328342,32.237598],[35.32882,32.236269],[35.328352,32.235258],[35.32787,32.233337],[35.327115,32.232904],[35.326809,32.232274],[35.326889,32.230898],[35.327618,32.229625],[35.327567,32.229496],[35.322476,32.232242],[35.319857,32.235245],[35.318093,32.236052],[35.318296,32.237075],[35.3188,32.238279],[35.319102,32.238571],[35.319767,32.238719],[35.319447,32.239416],[35.320155,32.240211],[35.320443,32.241411],[35.320811,32.241685],[35.321071,32.242338],[35.326891,32.241226],[35.328216,32.241458],[35.32971,32.241999]]]},"properties":{"name":"Firing zone (unnumbered)","signed_date":"2006-04-09","mechanism":"closed_military_area","area_m2":917660.3,"source_crs":"EPSG:32636","evidence_ref":["239d56b20a"]}},{"type":"Feature","geometry":{"type":"Polygon","coordinates":[[[35.228191,31.943595],[35.238844,31.947617],[35.239771,31.945989],[35.24121,31.942397],[35.241661,31.939977],[35.241767,31.938329],[35.241555,31.936566],[35.236527,31.936342],[35.238102,31.93881],[35.238417,31.939569],[35.238628,31.940476],[35.238634,31.941577],[35.238468,31.942153],[35.238088,31.942681],[35.233602,31.942528],[35.232456,31.943082],[35.231904,31.942545],[35.231484,31.942426],[35.228191,31.943595]]]},"properties":{"name":"Firing zone (unnumbered)","signed_date":"1994-05-19","mechanism":"closed_military_area","area_m2":611761.0,"source_crs":"EPSG:32636","evidence_ref":["c2961fb779"]}},{"type":"Feature","geometry":{"type":"Polygon","coordinates":[[[35.040628,31.481021],[35.041651,31.480422],[35.043504,31.478893],[35.043957,31.4788],[35.044831,31.479476],[35.044114,31.477463],[35.042318,31.476113],[35.040852,31.478703],[35.039108,31.478686],[35.038825,31.478831],[35.037572,31.480967],[35.038369,31.481583],[35.039275,31.48183],[35.039689,31.481375],[35.039764,31.480327],[35.040383,31.480266],[35.040502,31.481084],[35.040628,31.481021]]]},"properties":{"zone_name":"929","name":"Firing zone 929","signed_date":"2000-01-05","mechanism":"closed_military_area","area_m2":169552.6,"source_crs":"EPSG:32636","evidence_ref":["7c6dec7b1e"]}},{"type":"Feature","geometry":{"type":"Polygon","coordinates":[[[35.177527,32.421518],[35.174631,32.421861],[35.174489,32.422097],[35.171509,32.421912],[35.170702,32.421411],[35.17043,32.420384],[35.17048,32.419663],[35.170772,32.419184],[35.172454,32.418968],[35.172293,32.418252],[35.174218,32.418221],[35.174695,32.418595],[35.174776,32.41899],[35.175099,32.418806],[35.175583,32.418873],[35.177092,32.418575],[35.178126,32.418668],[35.178434,32.418819],[35.178546,32.419094],[35.178808,32.418767],[35.179989,32.418523],[35.180009,32.41814],[35.179837,32.41797],[35.17943,32.417809],[35.178132,32.417882],[35.176784,32.417608],[35.170137,32.417553],[35.168402,32.4189],[35.167408,32.420124],[35.167519,32.420517],[35.168029,32.421126],[35.170155,32.422654],[35.171269,32.422996],[35.173495,32.423155],[35.177892,32.422054],[35.182182,32.42215],[35.183606,32.422008],[35.18401,32.421687],[35.184474,32.42064],[35.18412,32.419642],[35.183596,32.418994],[35.183126,32.418739],[35.181879,32.418784],[35.178368,32.419481],[35.17815,32.419332],[35.178319,32.419197],[35.177775,32.419428],[35.178588,32.419986],[35.178842,32.419639],[35.179091,32.419581],[35.181226,32.419697],[35.181027,32.420576],[35.180866,32.420671],[35.181636,32.420903],[35.182275,32.420808],[35.182399,32.421098],[35.181884,32.421161],[35.18081,32.420813],[35.180555,32.421519],[35.17842,32.420892],[35.178364,32.421139],[35.177527,32.421518]]]},"properties":{"name":"Firing zone (unnumbered)","signed_date":"2005-07-24","mechanism":"closed_military_area","area_m2":423596.8,"source_crs":"EPSG:32636","evidence_ref":["5afd0a34dc"]}},{"type":"Feature","geometry":{"type":"Polygon","coordinates":[[[35.220165,31.937183],[35.220977,31.937496],[35.221788,31.93623],[35.220889,31.935873],[35.220165,31.937183]]]},"properties":{"name":"Firing zone (unnumbered)","signed_date":"1979-06-12","mechanism":"closed_military_area","area_m2":13994.2,"source_crs":"EPSG:32636","evidence_ref":["dabb4eb3b7"]}},{"type":"Feature","geometry":{"type":"Polygon","coordinates":[[[35.106769,31.523535],[35.10703,31.523894],[35.106837,31.524193],[35.107152,31.524325],[35.107413,31.523961],[35.107172,31.523889],[35.106952,31.523432],[35.106769,31.523535]]]},"properties":{"name":"Firing zone (unnumbered)","signed_date":"2002-10-02","mechanism":"closed_military_area","area_m2":2165.0,"source_crs":"EPSG:32636","evidence_ref":["f1aa764509"]}},{"type":"Feature","geometry":{"type":"MultiPolygon","coordinates":[[[[35.120104,31.546127],[35.120311,31.547079],[35.120656,31.546819],[35.122148,31.546451],[35.122267,31.54625],[35.123149,31.54602],[35.123406,31.546539],[35.124011,31.546427],[35.124156,31.546599],[35.124898,31.546094],[35.126264,31.545855],[35.126729,31.545424],[35.128618,31.545433],[35.130619,31.54456],[35.131453,31.544405],[35.13109,31.543941],[35.130941,31.543298],[35.130035,31.54367],[35.129621,31.543486],[35.129221,31.543565],[35.128022,31.543381],[35.12668,31.543937],[35.126323,31.543888],[35.125873,31.543545],[35.124159,31.544528],[35.122625,31.544491],[35.12044,31.545229],[35.120325,31.545907],[35.120104,31.546127]]],[[[35.118562,31.532073],[35.117839,31.532067],[35.117416,31.532396],[35.115864,31.532649],[35.115497,31.532957],[35.114424,31.533286],[35.11447,31.532021],[35.114142,31.531616],[35.113431,31.531548],[35.113251,31.532219],[35.113629,31.532506],[35.113775,31.532947],[35.114179,31.532978],[35.114732,31.533816],[35.115684,31.534062],[35.116892,31.533631],[35.117806,31.533493],[35.118387,31.533202],[35.118343,31.533422],[35.118472,31.533361],[35.118754,31.533617],[35.119354,31.533344],[35.119847,31.532541],[35.119844,31.532177],[35.120495,31.532102],[35.120528,31.531922],[35.121812,31.531612],[35.12216,31.531562],[35.122182,31.531948],[35.124174,31.532643],[35.124281,31.53239],[35.123257,31.531446],[35.122687,31.530388],[35.122009,31.530027],[35.120939,31.530112],[35.120495,31.531426],[35.120338,31.531481],[35.120431,31.531719],[35.118861,31.531529],[35.118525,31.531755],[35.118562,31.532073]]],[[[35.119254,31.539864],[35.119467,31.540191],[35.120929,31.540528],[35.121714,31.541207],[35.122156,31.541354],[35.122385,31.541275],[35.122278,31.540969],[35.122739,31.540001],[35.124042,31.540072],[35.124164,31.53985],[35.124095,31.539252],[35.123245,31.539163],[35.123128,31.539004],[35.122283,31.539012],[35.122149,31.538858],[35.121203,31.539621],[35.120246,31.539695],[35.119845,31.539932],[35.119254,31.539864]]],[[[35.124342,31.540027],[35.125211,31.540327],[35.125188,31.54108],[35.12538,31.541789],[35.125555,31.541805],[35.125797,31.54215],[35.126373,31.541793],[35.12628,31.540977],[35.12761,31.540042],[35.127642,31.539069],[35.12743,31.538879],[35.126223,31.538928],[35.125796,31.539395],[35.124342,31.540027]]],[[[35.124066,31.532027],[35.124358,31.532321],[35.124527,31.53219],[35.12421,31.5319],[35.12425,31.531598],[35.125617,31.531447],[35.125866,31.530986],[35.125948,31.530273],[35.125345,31.529408],[35.124508,31.52946],[35.123737,31.529955],[35.123087,31.530125],[35.12325,31.531079],[35.124066,31.532027]]],[[[35.116729,31.545063],[35.11696,31.546257],[35.117274,31.546695],[35.117615,31.546981],[35.118447,31.546744],[35.11819,31.546756],[35.118105,31.54623],[35.117434,31.54629],[35.117063,31.545648],[35.117021,31.545239],[35.117078,31.544634],[35.117393,31.543998],[35.11738,31.543295],[35.118358,31.542269],[35.118423,31.541425],[35.118795,31.540857],[35.118838,31.540539],[35.118631,31.540368],[35.118695,31.540467],[35.118352,31.540647],[35.117636,31.540885],[35.117532,31.542458],[35.117177,31.542578],[35.116729,31.545063]]],[[[35.118505,31.54674],[35.118606,31.546741],[35.118606,31.546741],[35.118615,31.546741],[35.118763,31.546757],[35.119277,31.546695],[35.119277,31.546695],[35.119278,31.546695],[35.119539,31.546667],[35.119533,31.546663],[35.118752,31.546727],[35.118718,31.546638],[35.118713,31.546638],[35.118503,31.546666],[35.118505,31.54674]]],[[[35.124355,31.532324],[35.124372,31.532323],[35.124356,31.532322],[35.124355,31.532324]]]]},"properties":{"name":"Firing zone (unnumbered)","signed_date":"2005-06-29","mechanism":"closed_military_area","area_m2":543033.9,"source_crs":"EPSG:32636","evidence_ref":["dcdfb0e13a"]}},{"type":"Feature","geometry":{"type":"Polygon","coordinates":[[[35.090414,31.841575],[35.089623,31.842721],[35.087773,31.846946],[35.086483,31.848959],[35.083165,31.852268],[35.080948,31.853509],[35.074498,31.855458],[35.067722,31.856283],[35.062959,31.856582],[35.061212,31.856875],[35.061599,31.858504],[35.063693,31.860782],[35.0663,31.862205],[35.067798,31.863352],[35.071938,31.867346],[35.073736,31.869662],[35.074993,31.871753],[35.075447,31.873335],[35.075412,31.875531],[35.075621,31.876977],[35.076412,31.878567],[35.077699,31.879049],[35.079145,31.879322],[35.082183,31.878878],[35.082831,31.87901],[35.084472,31.879752],[35.086542,31.880295],[35.087416,31.878355],[35.088197,31.875646],[35.088929,31.875006],[35.09114,31.874237],[35.09463,31.873363],[35.099084,31.871238],[35.10179,31.870211],[35.103333,31.868919],[35.104185,31.866439],[35.104423,31.864321],[35.103755,31.851224],[35.102772,31.845796],[35.102304,31.844215],[35.101476,31.842855],[35.099537,31.841966],[35.097731,31.841858],[35.09325,31.842087],[35.090414,31.841575]]]},"properties":{"zone_name":"208","name":"Firing zone 208","signed_date":"1983-07-29","mechanism":"closed_military_area","area_m2":9725436.8,"source_crs":"EPSG:32636","evidence_ref":["bbac059d60"]}},{"type":"Feature","geometry":{"type":"Polygon","coordinates":[[[35.109478,31.91226],[35.110366,31.910449],[35.112434,31.907584],[35.113978,31.906008],[35.116394,31.904552],[35.118122,31.904119],[35.129946,31.902978],[35.134121,31.902436],[35.138604,31.901552],[35.14199,31.901091],[35.145582,31.899278],[35.14908,31.896792],[35.154821,31.892314],[35.156514,31.890399],[35.157423,31.888698],[35.158089,31.8868],[35.15828,31.884842],[35.157987,31.882421],[35.156997,31.880618],[35.155701,31.879225],[35.154094,31.878039],[35.151697,31.876866],[35.14979,31.876359],[35.146935,31.875868],[35.144481,31.87564],[35.141094,31.876034],[35.133628,31.877643],[35.131424,31.877949],[35.128526,31.879009],[35.126117,31.880734],[35.125052,31.882504],[35.124451,31.883862],[35.123381,31.88543],[35.120664,31.887497],[35.119027,31.888468],[35.117011,31.890119],[35.115686,31.890883],[35.112998,31.890793],[35.110793,31.891099],[35.108619,31.892753],[35.104516,31.892955],[35.101526,31.893477],[35.096577,31.894704],[35.096191,31.895115],[35.095904,31.8964],[35.095452,31.897351],[35.094285,31.898179],[35.0923,31.898578],[35.089805,31.89817],[35.088309,31.898138],[35.085196,31.901496],[35.082759,31.902008],[35.0797,31.903002],[35.076961,31.904192],[35.074464,31.905581],[35.071902,31.907577],[35.069979,31.9099],[35.068221,31.912557],[35.067333,31.915268],[35.067751,31.916272],[35.069669,31.91807],[35.07378,31.916977],[35.074684,31.916159],[35.075051,31.915396],[35.075018,31.915074],[35.074252,31.914394],[35.073551,31.912703],[35.073545,31.912288],[35.074264,31.911704],[35.076032,31.910897],[35.077298,31.909016],[35.07823,31.908243],[35.079574,31.907948],[35.080681,31.90798],[35.083238,31.907622],[35.084456,31.907859],[35.08576,31.908438],[35.086315,31.908016],[35.086605,31.908309],[35.089118,31.90779],[35.09256,31.908033],[35.093396,31.907778],[35.094919,31.906916],[35.096594,31.906589],[35.097397,31.906974],[35.098132,31.907077],[35.099025,31.907885],[35.100164,31.908239],[35.100601,31.908554],[35.101158,31.909719],[35.103891,31.910163],[35.104912,31.909921],[35.104921,31.91258],[35.105165,31.912703],[35.106665,31.912298],[35.108019,31.91214],[35.109478,31.91226]]]},"properties":{"zone_name":"934","name":"Firing zone 934","signed_date":"2000-01-05","mechanism":"closed_military_area","area_m2":14744303.6,"source_crs":"EPSG:32636","evidence_ref":["7c6dec7b1e"]}},{"type":"Feature","geometry":{"type":"Polygon","coordinates":[[[35.409173,32.413369],[35.41381,32.417124],[35.415008,32.418301],[35.415587,32.418432],[35.416472,32.417513],[35.420053,32.415086],[35.42364,32.41336],[35.430583,32.409186],[35.437206,32.406405],[35.440362,32.405823],[35.443105,32.407179],[35.444276,32.408493],[35.445001,32.411468],[35.450621,32.41188],[35.453392,32.412916],[35.455792,32.408837],[35.457175,32.407067],[35.462474,32.398762],[35.463742,32.39706],[35.466202,32.394454],[35.467203,32.393667],[35.474292,32.384243],[35.474385,32.38394],[35.480226,32.377394],[35.484223,32.373312],[35.486761,32.371246],[35.488532,32.370425],[35.490611,32.369567],[35.497197,32.36746],[35.506053,32.364119],[35.50727,32.363374],[35.509985,32.361072],[35.510364,32.360001],[35.510545,32.358775],[35.510838,32.35408],[35.510871,32.352607],[35.510467,32.347078],[35.510453,32.342939],[35.509749,32.339637],[35.508346,32.335109],[35.507955,32.333212],[35.50787,32.330889],[35.507327,32.329746],[35.506321,32.328767],[35.50447,32.328247],[35.500732,32.327994],[35.497302,32.328132],[35.496147,32.328365],[35.490993,32.331337],[35.488413,32.332095],[35.485986,32.332265],[35.482748,32.331813],[35.480821,32.33172],[35.476312,32.331876],[35.474618,32.332076],[35.471959,32.332083],[35.469992,32.331463],[35.468101,32.330389],[35.46698,32.329541],[35.466094,32.329445],[35.465285,32.32961],[35.462552,32.330547],[35.461473,32.330681],[35.460394,32.330585],[35.458503,32.329803],[35.45665,32.328464],[35.455532,32.328042],[35.451522,32.327331],[35.447592,32.327355],[35.445319,32.327587],[35.444087,32.327949],[35.44274,32.328541],[35.438853,32.330773],[35.438006,32.330938],[35.434268,32.330864],[35.433419,32.330569],[35.43122,32.329363],[35.430372,32.329104],[35.428599,32.329107],[35.425481,32.330323],[35.42471,32.330356],[35.423979,32.330602],[35.422825,32.331522],[35.419089,32.332705],[35.417666,32.333625],[35.415435,32.33546],[35.412933,32.336935],[35.411818,32.337854],[35.409049,32.340377],[35.407244,32.342618],[35.407667,32.344147],[35.407025,32.346507],[35.406471,32.347022],[35.408108,32.347803],[35.408918,32.349673],[35.409792,32.349606],[35.410561,32.349939],[35.410577,32.350534],[35.410935,32.350824],[35.411457,32.350666],[35.412104,32.350852],[35.413118,32.351626],[35.411853,32.352394],[35.410596,32.35346],[35.409555,32.353877],[35.401991,32.355112],[35.40113,32.355724],[35.399083,32.355664],[35.398231,32.356232],[35.397447,32.358095],[35.397294,32.358818],[35.397565,32.359437],[35.398183,32.360221],[35.402279,32.364846],[35.40286,32.365892],[35.4041,32.368932],[35.406422,32.372741],[35.408203,32.376305],[35.408631,32.377807],[35.405049,32.37958],[35.402968,32.380303],[35.399733,32.381798],[35.394535,32.385337],[35.387643,32.390484],[35.385988,32.391911],[35.385758,32.3924],[35.387186,32.393412],[35.388269,32.394884],[35.393214,32.39936],[35.396575,32.402119],[35.404303,32.409271],[35.409173,32.413369]]]},"properties":{"zone_name":"900","name":"Firing zone 900","signed_date":"1999-05-05","mechanism":"closed_military_area","area_m2":73074160.1,"source_crs":"EPSG:32636","evidence_ref":["d7074c7965"]}},{"type":"Feature","geometry":{"type":"Polygon","coordinates":[[[35.09727,31.609247],[35.097942,31.607809],[35.098309,31.607525],[35.099196,31.607248],[35.099486,31.607336],[35.099544,31.608401],[35.101155,31.608329],[35.101249,31.608534],[35.102408,31.608557],[35.103677,31.609003],[35.104179,31.609623],[35.103965,31.610483],[35.104016,31.611213],[35.103887,31.611548],[35.103239,31.611708],[35.102532,31.611423],[35.102345,31.610905],[35.102013,31.610876],[35.102039,31.610737],[35.101851,31.610657],[35.101561,31.610992],[35.100888,31.610678],[35.100334,31.610809],[35.100974,31.610007],[35.100591,31.609773],[35.098248,31.609202],[35.097626,31.609643],[35.098009,31.610901],[35.098868,31.611593],[35.098976,31.612102],[35.099338,31.6123],[35.099375,31.612572],[35.101553,31.613279],[35.101856,31.613132],[35.102814,31.613365],[35.10429,31.613007],[35.105034,31.612355],[35.105525,31.611472],[35.10561,31.610178],[35.104864,31.607976],[35.10317,31.606625],[35.10029,31.606286],[35.100168,31.606618],[35.099964,31.606709],[35.099844,31.606488],[35.099931,31.605945],[35.098853,31.605699],[35.096856,31.606347],[35.096048,31.605809],[35.095687,31.605791],[35.095415,31.606083],[35.095421,31.606328],[35.096363,31.606924],[35.096755,31.607533],[35.096706,31.608204],[35.096292,31.609],[35.09727,31.609247]]]},"properties":{"name":"Firing zone (unnumbered)","signed_date":"2005-03-31","mechanism":"closed_military_area","area_m2":393086.8,"source_crs":"EPSG:32636","evidence_ref":["32f45f7ee5"]}},{"type":"Feature","geometry":{"type":"MultiPolygon","coordinates":[[[[35.017153,31.554882],[35.018727,31.555376],[35.018312,31.55506],[35.01869,31.554831],[35.02003,31.553301],[35.020365,31.552707],[35.018143,31.553452],[35.017394,31.553086],[35.016629,31.553012],[35.016536,31.552413],[35.016132,31.552442],[35.015778,31.552683],[35.016008,31.553418],[35.017235,31.55472],[35.017153,31.554882]]],[[[35.013477,31.552691],[35.014831,31.553309],[35.015648,31.553081],[35.015057,31.551724],[35.015422,31.551073],[35.01478,31.550245],[35.015066,31.549744],[35.015579,31.549534],[35.016056,31.549824],[35.017257,31.551212],[35.018478,31.551981],[35.020462,31.552339],[35.021946,31.552373],[35.021316,31.552146],[35.019783,31.552074],[35.01828,31.551643],[35.01756,31.551155],[35.015955,31.549482],[35.015512,31.549351],[35.014917,31.549601],[35.014558,31.549972],[35.013827,31.552263],[35.013477,31.552691]]],[[[35.020838,31.553763],[35.022209,31.553826],[35.022839,31.553572],[35.023017,31.552816],[35.022559,31.552799],[35.022101,31.553341],[35.020838,31.553763]]],[[[35.012037,31.554067],[35.012202,31.554224],[35.012787,31.554178],[35.012828,31.553055],[35.012073,31.55372],[35.012037,31.554067]]],[[[35.013204,31.554145],[35.014649,31.554194],[35.014657,31.554088],[35.013204,31.554145]]],[[[35.019924,31.554795],[35.01993,31.554822],[35.019949,31.554795],[35.019983,31.554733],[35.020312,31.554131],[35.020477,31.553938],[35.020361,31.554014],[35.02011,31.554501],[35.019924,31.554795]]]]},"properties":{"name":"Firing zone (unnumbered)","signed_date":"2005-05-30","mechanism":"closed_military_area","area_m2":133942.0,"source_crs":"EPSG:32636","evidence_ref":["9785d0d8b2"]}},{"type":"Feature","geometry":{"type":"Polygon","coordinates":[[[35.031837,31.561508],[35.033327,31.561471],[35.033305,31.561832],[35.033464,31.561255],[35.03235,31.560821],[35.031839,31.561185],[35.031837,31.561508]]]},"properties":{"name":"Firing zone (unnumbered)","signed_date":"2006-03-23","mechanism":"closed_military_area","area_m2":8741.4,"source_crs":"EPSG:32636","evidence_ref":["334abc3554"]}},{"type":"Feature","geometry":{"type":"Polygon","coordinates":[[[35.125393,31.644035],[35.129986,31.644164],[35.131008,31.643966],[35.131231,31.643241],[35.131249,31.642058],[35.131007,31.641066],[35.130869,31.640861],[35.129152,31.640704],[35.126092,31.640929],[35.125725,31.64165],[35.125931,31.64214],[35.125452,31.643356],[35.125393,31.644035]]]},"properties":{"name":"Firing zone (unnumbered)","signed_date":"1983-06-10","mechanism":"closed_military_area","area_m2":186552.4,"source_crs":"EPSG:32636","evidence_ref":["83df29f4cd"]}},{"type":"Feature","geometry":{"type":"Polygon","coordinates":[[[35.135923,31.974977],[35.136668,31.976164],[35.136978,31.976367],[35.13885,31.976343],[35.140814,31.97674],[35.141885,31.976571],[35.142765,31.976046],[35.143501,31.975049],[35.144141,31.973657],[35.144236,31.97267],[35.143914,31.972148],[35.143244,31.971776],[35.14133,31.971451],[35.140056,31.971652],[35.137807,31.973155],[35.137364,31.974236],[35.137645,31.973494],[35.138509,31.973124],[35.138628,31.972871],[35.138889,31.972789],[35.13938,31.97279],[35.139505,31.972934],[35.139306,31.973204],[35.139748,31.973266],[35.142785,31.972963],[35.14291,31.973103],[35.142829,31.973559],[35.141879,31.975165],[35.141503,31.975322],[35.138411,31.975503],[35.137169,31.975948],[35.137055,31.97587],[35.137157,31.975181],[35.135975,31.974867],[35.135923,31.974977]]]},"properties":{"name":"Firing zone (unnumbered)","signed_date":"2005-10-06","mechanism":"closed_military_area","area_m2":187317.1,"source_crs":"EPSG:32636","evidence_ref":["e4f574c604"]}},{"type":"Feature","geometry":{"type":"Polygon","coordinates":[[[35.442534,31.935703],[35.442404,31.934959],[35.44116,31.933372],[35.44131,31.932819],[35.440507,31.930691],[35.440206,31.928478],[35.439371,31.927479],[35.437982,31.925331],[35.436419,31.922564],[35.436168,31.918737],[35.436576,31.917041],[35.437406,31.91551],[35.438585,31.913926],[35.440258,31.910727],[35.440322,31.909795],[35.439623,31.90661],[35.43956,31.905177],[35.440402,31.902738],[35.440652,31.901371],[35.441454,31.89996],[35.442173,31.899408],[35.442495,31.898851],[35.442353,31.896746],[35.442508,31.895615],[35.443368,31.89365],[35.44225,31.893541],[35.439207,31.893742],[35.430405,31.899147],[35.428963,31.901619],[35.428413,31.904328],[35.426588,31.909936],[35.42559,31.911649],[35.423764,31.916592],[35.421377,31.919872],[35.42071,31.920539],[35.420656,31.921584],[35.421215,31.9222],[35.425229,31.923715],[35.426901,31.924567],[35.430469,31.925842],[35.432423,31.927881],[35.435387,31.932293],[35.437283,31.933431],[35.442534,31.935703]]]},"properties":{"zone_name":"911","name":"Firing zone 911","signed_date":"1999-05-05","mechanism":"closed_military_area","area_m2":4632766.5,"source_crs":"EPSG:32636","evidence_ref":["d7074c7965"]}},{"type":"Feature","geometry":{"type":"Polygon","coordinates":[[[35.458058,31.912253],[35.457935,31.908263],[35.457362,31.902231],[35.456799,31.899954],[35.455566,31.896724],[35.454783,31.895824],[35.453613,31.895448],[35.452332,31.895353],[35.448694,31.894365],[35.447541,31.898436],[35.447014,31.902651],[35.446736,31.903427],[35.444943,31.905281],[35.444687,31.906813],[35.443777,31.909675],[35.44373,31.911014],[35.444016,31.91143],[35.443447,31.912185],[35.443691,31.912987],[35.444093,31.913519],[35.44407,31.914395],[35.442487,31.916831],[35.441652,31.918564],[35.441499,31.92068],[35.441672,31.923308],[35.442633,31.925896],[35.446706,31.932927],[35.446761,31.933898],[35.446072,31.935687],[35.445929,31.937366],[35.453121,31.940573],[35.455407,31.941282],[35.458304,31.941275],[35.459417,31.94094],[35.460585,31.940415],[35.462196,31.938893],[35.462303,31.93723],[35.462186,31.935282],[35.461506,31.931104],[35.461106,31.927448],[35.461212,31.925261],[35.461098,31.924217],[35.460035,31.922748],[35.458915,31.920326],[35.458119,31.914344],[35.458058,31.912253]]]},"properties":{"zone_name":"911","name":"Firing zone 911","signed_date":"1999-05-05","mechanism":"closed_military_area","area_m2":6819143.0,"source_crs":"EPSG:32636","evidence_ref":["d7074c7965"]}},{"type":"Feature","geometry":{"type":"Polygon","coordinates":[[[35.540893,32.30417],[35.540775,32.30211],[35.54147,32.296349],[35.541357,32.295319],[35.542067,32.293677],[35.544975,32.289973],[35.545686,32.288473],[35.546286,32.286879],[35.547039,32.281773],[35.548237,32.277838],[35.549002,32.276125],[35.549547,32.274391],[35.549762,32.273082],[35.549482,32.271816],[35.548761,32.270694],[35.545332,32.267519],[35.543726,32.265372],[35.542059,32.26142],[35.541552,32.258517],[35.541657,32.25716],[35.542037,32.255613],[35.54329,32.251816],[35.544058,32.250552],[35.545923,32.248298],[35.546849,32.245651],[35.548547,32.243071],[35.548764,32.242086],[35.54854,32.241198],[35.546714,32.238816],[35.540066,32.228836],[35.539566,32.227713],[35.539452,32.226543],[35.540705,32.222701],[35.545958,32.21358],[35.546669,32.21208],[35.546662,32.210114],[35.546156,32.207351],[35.544714,32.204547],[35.543331,32.202935],[35.534877,32.195091],[35.530736,32.191871],[35.525378,32.186992],[35.52372,32.185309],[35.522614,32.183909],[35.521231,32.181946],[35.518906,32.178065],[35.516854,32.173644],[35.514418,32.169765],[35.509433,32.160319],[35.508711,32.158659],[35.508487,32.157209],[35.50864,32.153601],[35.509403,32.151259],[35.509672,32.149432],[35.511737,32.141632],[35.511678,32.140273],[35.508905,32.13363],[35.507752,32.134571],[35.506986,32.136117],[35.505396,32.137668],[35.504903,32.138509],[35.503367,32.139872],[35.50238,32.141044],[35.501668,32.142077],[35.501285,32.142968],[35.500962,32.144981],[35.500469,32.145825],[35.49948,32.146435],[35.498216,32.146954],[35.497173,32.147752],[35.496023,32.149394],[35.494052,32.152769],[35.490551,32.159707],[35.489728,32.160646],[35.487915,32.161797],[35.485112,32.162973],[35.484122,32.163538],[35.483135,32.164477],[35.482698,32.165789],[35.482151,32.166821],[35.478141,32.169639],[35.476381,32.17053],[35.469014,32.173659],[35.466432,32.175725],[35.46583,32.176992],[35.46545,32.178537],[35.464077,32.179944],[35.462051,32.183834],[35.460576,32.187981],[35.459864,32.189481],[35.458337,32.194962],[35.456913,32.197492],[35.45384,32.201596],[35.452965,32.203611],[35.453078,32.205062],[35.452925,32.209511],[35.453375,32.212999],[35.452884,32.21492],[35.4529,32.220586],[35.452517,32.221522],[35.45225,32.224379],[35.449617,32.228526],[35.448462,32.229701],[35.447694,32.230778],[35.447147,32.232044],[35.446379,32.233123],[35.446216,32.234199],[35.446989,32.234946],[35.452225,32.235873],[35.461213,32.238899],[35.465072,32.239897],[35.467442,32.240081],[35.470802,32.239979],[35.475644,32.237957],[35.478671,32.237061],[35.479991,32.236262],[35.483342,32.232976],[35.485485,32.231403],[35.496865,32.224308],[35.500165,32.22266],[35.501485,32.222097],[35.502256,32.222001],[35.501821,32.223686],[35.500957,32.228981],[35.50081,32.234787],[35.500979,32.236098],[35.501809,32.237031],[35.503024,32.238012],[35.503524,32.239274],[35.503584,32.240726],[35.503367,32.241804],[35.502709,32.242836],[35.502381,32.243679],[35.50233,32.24471],[35.505044,32.249501],[35.505601,32.250998],[35.506265,32.252026],[35.507204,32.25268],[35.508086,32.252773],[35.51051,32.252625],[35.512108,32.252905],[35.512441,32.253371],[35.512337,32.255432],[35.512671,32.256412],[35.513389,32.256926],[35.513939,32.256597],[35.514487,32.255707],[35.516787,32.251486],[35.517059,32.25041],[35.517607,32.249564],[35.51854,32.248626],[35.51997,32.247687],[35.520575,32.247404],[35.521456,32.247355],[35.524047,32.247608],[35.525092,32.24737],[35.526082,32.246852],[35.52812,32.246379],[35.529277,32.24647],[35.530214,32.246747],[35.530932,32.24726],[35.531655,32.248898],[35.532104,32.251425],[35.531832,32.252454],[35.531229,32.253253],[35.530185,32.254004],[35.526275,32.254624],[35.525228,32.254579],[35.524455,32.254112],[35.523626,32.253272],[35.521634,32.250936],[35.520258,32.251455],[35.519106,32.252722],[35.518384,32.253916],[35.516974,32.255035],[35.516238,32.256265],[35.515675,32.258754],[35.51534,32.259155],[35.514667,32.259328],[35.510864,32.259194],[35.506764,32.260606],[35.506193,32.26098],[35.505925,32.261524],[35.506365,32.262393],[35.506838,32.262823],[35.510007,32.264615],[35.513751,32.267036],[35.515304,32.268376],[35.515608,32.26892],[35.516495,32.272306],[35.517147,32.276049],[35.517794,32.278392],[35.518247,32.283009],[35.518626,32.285326],[35.519,32.286439],[35.520219,32.288795],[35.521614,32.292852],[35.52314,32.296251],[35.525002,32.299205],[35.527065,32.301887],[35.528181,32.303172],[35.530444,32.305167],[35.532839,32.306548],[35.534187,32.306774],[35.537352,32.306823],[35.538562,32.306476],[35.539672,32.306014],[35.540376,32.305441],[35.540812,32.304726],[35.540893,32.30417]]]},"properties":{"zone_name":"903","name":"Firing zone 903","signed_date":"1999-07-02","mechanism":"closed_military_area","area_m2":80305722.1,"source_crs":"EPSG:32636","evidence_ref":["0a5088687d"]}},{"type":"Feature","geometry":{"type":"Polygon","coordinates":[[[35.129032,31.527288],[35.130105,31.526975],[35.131758,31.525922],[35.132701,31.525102],[35.133285,31.523995],[35.131902,31.522777],[35.131494,31.522648],[35.130966,31.52274],[35.127004,31.52579],[35.127571,31.526219],[35.127675,31.526765],[35.129032,31.527288]]]},"properties":{"zone_name":"930","name":"Firing zone 930","signed_date":"1971-10-02","mechanism":"closed_military_area","area_m2":167578.8,"source_crs":"EPSG:32636","evidence_ref":["c252dd7ce7"]}},{"type":"Feature","geometry":{"type":"Polygon","coordinates":[[[35.108141,31.52391],[35.108306,31.523777],[35.108536,31.523882],[35.108642,31.523614],[35.108478,31.523763],[35.107991,31.523638],[35.107991,31.523894],[35.108141,31.52391]]]},"properties":{"name":"Firing zone (unnumbered)","signed_date":"2003-03-05","mechanism":"closed_military_area","area_m2":1057.3,"source_crs":"EPSG:32636","evidence_ref":["36e61cc61d"]}},{"type":"Feature","geometry":{"type":"MultiPolygon","coordinates":[[[[35.166184,31.488377],[35.165657,31.48849],[35.164641,31.489067],[35.164872,31.489778],[35.164972,31.490947],[35.165203,31.49126],[35.166416,31.490333],[35.167484,31.489119],[35.169208,31.487793],[35.169518,31.487121],[35.169608,31.486262],[35.170121,31.485449],[35.170165,31.484936],[35.169734,31.484371],[35.168235,31.484034],[35.167417,31.483312],[35.166168,31.483164],[35.166017,31.482428],[35.166285,31.481341],[35.166217,31.480739],[35.165677,31.480427],[35.164824,31.480414],[35.16449,31.480759],[35.164824,31.481713],[35.164796,31.482179],[35.163744,31.483617],[35.163243,31.48477],[35.163265,31.485199],[35.163699,31.486308],[35.163402,31.488035],[35.163788,31.486156],[35.163276,31.484743],[35.163367,31.484571],[35.16399,31.484364],[35.164905,31.482677],[35.16816,31.484762],[35.16818,31.485356],[35.167949,31.485787],[35.166934,31.485605],[35.166833,31.48638],[35.166632,31.486742],[35.166923,31.488034],[35.166184,31.488377]]],[[[35.163664,31.491031],[35.163037,31.491804],[35.163355,31.49216],[35.163965,31.491022],[35.164246,31.490994],[35.164235,31.490417],[35.163664,31.491031]]]]},"properties":{"name":"Firing zone (unnumbered)","signed_date":"2005-07-31","mechanism":"closed_military_area","area_m2":234220.2,"source_crs":"EPSG:32636","evidence_ref":["9b75cb91d4"]}},{"type":"Feature","geometry":{"type":"Polygon","coordinates":[[[35.173689,32.003922],[35.173912,32.004018],[35.174138,32.003737],[35.17444,32.002736],[35.174601,32.00126],[35.174404,32.000892],[35.174547,32.000614],[35.175766,31.999881],[35.176944,31.998429],[35.178653,31.996937],[35.179771,31.996555],[35.179989,31.996739],[35.179985,31.99721],[35.180934,31.997126],[35.18109,31.997772],[35.180864,31.999034],[35.180475,31.999085],[35.179578,31.998798],[35.178809,31.999252],[35.177991,32.000127],[35.176948,32.002036],[35.176994,32.00265],[35.176767,32.003249],[35.176338,32.003486],[35.176105,32.003971],[35.174825,32.005072],[35.174228,32.00505],[35.173967,32.00488],[35.173866,32.005719],[35.174688,32.007129],[35.175368,32.007191],[35.175789,32.007059],[35.176332,32.006532],[35.177877,32.004084],[35.179054,32.000904],[35.181315,32.000582],[35.182562,31.999943],[35.182669,31.999548],[35.182423,31.998789],[35.182478,31.998261],[35.18301,31.997196],[35.183102,31.996552],[35.183423,31.995986],[35.183352,31.995741],[35.183048,31.995654],[35.182422,31.995848],[35.18051,31.995932],[35.178739,31.996355],[35.178149,31.996652],[35.176504,31.9983],[35.175638,31.999404],[35.174945,31.999779],[35.173644,32.000896],[35.173473,32.001301],[35.173355,32.003009],[35.173556,32.003904],[35.173689,32.003922]],[[35.176559,32.005157],[35.176806,32.004728],[35.177021,32.004664],[35.176795,32.005249],[35.176559,32.005157]]]},"properties":{"name":"Firing zone (unnumbered)","signed_date":"2005-11-01","mechanism":"closed_military_area","area_m2":345674.7,"source_crs":"EPSG:32636","evidence_ref":["5a9e82ef0a"]}},{"type":"Feature","geometry":{"type":"Polygon","coordinates":[[[35.231608,31.650093],[35.231985,31.649161],[35.232976,31.647751],[35.233014,31.647166],[35.232827,31.646471],[35.232415,31.645977],[35.231927,31.645687],[35.231162,31.645562],[35.229726,31.645971],[35.229242,31.646567],[35.228933,31.648121],[35.228409,31.648383],[35.228901,31.65019],[35.231608,31.650093]]]},"properties":{"zone_name":"597","name":"Firing zone 597","signed_date":"1975-06-22","mechanism":"closed_military_area","area_m2":163818.0,"source_crs":"EPSG:32636","evidence_ref":["d78fbf19b0"]}},{"type":"Feature","geometry":{"type":"Polygon","coordinates":[[[35.110196,31.68901],[35.111342,31.690251],[35.111618,31.690977],[35.113956,31.689868],[35.115064,31.689662],[35.115497,31.690269],[35.115531,31.690565],[35.117798,31.691795],[35.118524,31.692403],[35.119909,31.693173],[35.121016,31.693544],[35.122246,31.693338],[35.122679,31.693442],[35.124738,31.694805],[35.125084,31.694894],[35.125523,31.694523],[35.123376,31.693335],[35.122678,31.692644],[35.120967,31.692611],[35.118845,31.691789],[35.117508,31.690821],[35.116153,31.690278],[35.115737,31.689525],[35.115343,31.689169],[35.114832,31.689198],[35.114312,31.689607],[35.11322,31.689879],[35.111004,31.689463],[35.110196,31.68901]]]},"properties":{"name":"Firing zone (unnumbered)","signed_date":"2003-04-01","mechanism":"closed_military_area","area_m2":113261.1,"source_crs":"EPSG:32636","evidence_ref":["f2dd6cf2f5"]}},{"type":"Feature","geometry":{"type":"Polygon","coordinates":[[[35.495094,32.10769],[35.493642,32.112516],[35.492679,32.116682],[35.491757,32.119254],[35.49071,32.121099],[35.487979,32.125144],[35.485359,32.129652],[35.482946,32.134329],[35.486352,32.139536],[35.489346,32.143087],[35.490172,32.143759],[35.491752,32.144677],[35.49409,32.145771],[35.495087,32.144395],[35.496684,32.143637],[35.497186,32.143024],[35.497621,32.142121],[35.498114,32.140348],[35.498467,32.13973],[35.499795,32.138458],[35.500315,32.13773],[35.500661,32.136733],[35.502298,32.135448],[35.503271,32.135093],[35.504976,32.134064],[35.506211,32.13249],[35.50777,32.131685],[35.508085,32.131306],[35.50836,32.12824],[35.50905,32.127071],[35.509973,32.126358],[35.508367,32.124613],[35.506733,32.123958],[35.505265,32.122953],[35.503039,32.120715],[35.499669,32.11559],[35.495094,32.10769]]]},"properties":{"name":"Firing zone (unnumbered)","signed_date":"1993-11-29","mechanism":"closed_military_area","area_m2":5072291.1,"source_crs":"EPSG:32636","evidence_ref":["4e5b618715"]}},{"type":"Feature","geometry":{"type":"Polygon","coordinates":[[[35.016319,32.022757],[35.034311,32.009037],[35.034794,32.007515],[35.035117,32.005162],[35.034844,32.003882],[35.033853,32.001437],[35.033056,32.00041],[35.031926,31.999949],[35.03053,31.999787],[35.026482,31.99982],[35.024548,31.998793],[35.019499,31.995493],[35.017107,31.994742],[35.015385,31.994499],[35.014776,31.994499],[35.013544,31.995594],[35.008197,31.997955],[35.007397,31.997828],[35.005284,31.996559],[35.004799,31.995682],[35.000757,31.990398],[35.000497,31.988979],[35.000012,31.988044],[34.998915,31.988044],[34.997549,31.9893],[34.998834,31.991458],[34.999533,31.99448],[34.999644,31.995864],[34.998758,31.999969],[34.998835,32.011132],[34.998711,32.014419],[34.998892,32.015965],[34.999437,32.01743],[35.000341,32.018272],[35.001532,32.01825],[35.003545,32.019047],[35.005052,32.020512],[35.005442,32.0214],[35.005503,32.021988],[35.004928,32.024894],[35.011621,32.025186],[35.014142,32.024184],[35.016319,32.022757]]]},"properties":{"zone_name":"203","name":"Firing zone 203","signed_date":"1993-11-04","mechanism":"closed_military_area","area_m2":8416026.4,"source_crs":"EPSG:32636","evidence_ref":["345a9c9bc6"]}},{"type":"Feature","geometry":{"type":"Polygon","coordinates":[[[35.473476,32.139333],[35.473762,32.127929],[35.474314,32.125758],[35.475959,32.115642],[35.476435,32.114963],[35.480808,32.11061],[35.480698,32.100431],[35.481249,32.098053],[35.489108,32.087043],[35.490138,32.084937],[35.490607,32.082221],[35.490683,32.080862],[35.489645,32.080186],[35.485974,32.078632],[35.477033,32.074378],[35.466335,32.068089],[35.462663,32.065653],[35.457867,32.060845],[35.455467,32.057183],[35.453944,32.053998],[35.447888,32.053806],[35.43984,32.054024],[35.43149,32.0613],[35.42282,32.066741],[35.419988,32.06905],[35.419406,32.070307],[35.419798,32.071162],[35.421315,32.072177],[35.424187,32.073529],[35.424509,32.074682],[35.422997,32.075975],[35.419654,32.077744],[35.416229,32.078767],[35.409455,32.07939],[35.407702,32.079935],[35.40635,32.08109],[35.405876,32.082993],[35.406212,32.090864],[35.406456,32.09317],[35.407257,32.094934],[35.408933,32.095815],[35.409491,32.095814],[35.414041,32.098182],[35.416675,32.099737],[35.420748,32.102581],[35.423544,32.105089],[35.423868,32.106715],[35.422755,32.108278],[35.422361,32.110382],[35.421804,32.11113],[35.419654,32.112152],[35.415832,32.114534],[35.414399,32.115758],[35.413368,32.117931],[35.412736,32.120511],[35.41228,32.130692],[35.412286,32.133203],[35.413018,32.139716],[35.415261,32.143986],[35.418141,32.147579],[35.421579,32.150899],[35.424375,32.152794],[35.425891,32.152997],[35.427566,32.152721],[35.430592,32.150817],[35.436648,32.147954],[35.440236,32.147337],[35.445993,32.152551],[35.454227,32.158916],[35.455985,32.160066],[35.456944,32.160471],[35.458782,32.161756],[35.460938,32.162634],[35.462135,32.162701],[35.463888,32.16195],[35.464684,32.160931],[35.466575,32.152647],[35.466648,32.150543],[35.470069,32.147144],[35.472931,32.14388],[35.473476,32.139333]]]},"properties":{"zone_name":"904","name":"Firing zone 904","signed_date":"1999-07-02","mechanism":"closed_military_area","area_m2":60778771.3,"source_crs":"EPSG:32636","evidence_ref":["0a5088687d"]}},{"type":"Feature","geometry":{"type":"Polygon","coordinates":[[[35.375485,31.916521],[35.373007,31.916457],[35.369627,31.916798],[35.368135,31.917103],[35.361662,31.918836],[35.358308,31.920233],[35.354663,31.922969],[35.351674,31.925915],[35.348741,31.928471],[35.347408,31.929885],[35.346713,31.930732],[35.344663,31.934717],[35.343721,31.936124],[35.343117,31.938025],[35.343171,31.940137],[35.343642,31.943297],[35.344598,31.945002],[35.345543,31.946264],[35.351694,31.952265],[35.352759,31.953134],[35.354168,31.954665],[35.356755,31.958953],[35.357597,31.961272],[35.357427,31.962276],[35.355311,31.966262],[35.352796,31.969922],[35.35011,31.974531],[35.347818,31.979298],[35.347746,31.981579],[35.347961,31.982353],[35.359784,31.988138],[35.36551,31.990143],[35.366831,31.990786],[35.367776,31.991991],[35.368468,31.993535],[35.370375,31.999225],[35.3712,32.003379],[35.371334,32.006045],[35.371565,32.00743],[35.371674,32.011653],[35.371441,32.015271],[35.371255,32.015663],[35.37028,32.015793],[35.365972,32.015706],[35.365397,32.016217],[35.364981,32.020339],[35.364943,32.021396],[35.367874,32.023731],[35.369148,32.025042],[35.369245,32.02882],[35.369089,32.032881],[35.368617,32.034836],[35.368651,32.036169],[35.369137,32.037272],[35.370992,32.038349],[35.375326,32.03938],[35.383184,32.040399],[35.416803,32.043209],[35.429916,32.043014],[35.430165,32.037617],[35.430756,32.032825],[35.43104,32.028762],[35.431395,32.027365],[35.431958,32.021517],[35.432033,32.016958],[35.431446,32.004628],[35.432295,31.994773],[35.432299,31.992438],[35.432459,31.9911],[35.43373,31.987352],[35.4365,31.981128],[35.438734,31.976805],[35.442801,31.970334],[35.445974,31.964547],[35.447725,31.961734],[35.449301,31.959702],[35.453857,31.9545],[35.451201,31.950215],[35.449763,31.950076],[35.44667,31.949024],[35.444881,31.947947],[35.443284,31.946699],[35.441738,31.94495],[35.430977,31.944823],[35.429759,31.94807],[35.428452,31.95043],[35.426932,31.952127],[35.421938,31.955613],[35.418344,31.957794],[35.417175,31.957983],[35.415528,31.957347],[35.412639,31.956569],[35.407871,31.95627],[35.404336,31.958227],[35.400982,31.959625],[35.399549,31.959707],[35.39678,31.958537],[35.395386,31.957563],[35.394039,31.95592],[35.392045,31.951955],[35.391274,31.949857],[35.390837,31.948087],[35.390675,31.946867],[35.39117,31.945857],[35.393899,31.94297],[35.395469,31.940661],[35.396692,31.940082],[35.406065,31.937014],[35.415388,31.934558],[35.417529,31.934184],[35.419206,31.933485],[35.418912,31.932212],[35.415537,31.922826],[35.409957,31.923766],[35.40754,31.923589],[35.398756,31.921643],[35.393731,31.921404],[35.389875,31.921032],[35.38643,31.918873],[35.384192,31.918026],[35.379735,31.917053],[35.375485,31.916521]]]},"properties":{"zone_name":"906","name":"Firing zone 906","signed_date":"1999-05-05","mechanism":"closed_military_area","area_m2":88253926.8,"source_crs":"EPSG:32636","evidence_ref":["d7074c7965"]}},{"type":"Feature","geometry":{"type":"Polygon","coordinates":[[[35.297548,32.183464],[35.298935,32.180435],[35.299429,32.178051],[35.299504,32.176277],[35.29908,32.17392],[35.298671,32.172693],[35.297438,32.169939],[35.296078,32.167782],[35.29089,32.170725],[35.284206,32.174949],[35.286864,32.175155],[35.287237,32.175654],[35.288318,32.176129],[35.291505,32.176374],[35.293345,32.176701],[35.293441,32.177465],[35.29108,32.179036],[35.290454,32.179984],[35.290213,32.180958],[35.297548,32.183464]]]},"properties":{"name":"Firing zone (unnumbered)","signed_date":"1994-04-04","mechanism":"closed_military_area","area_m2":1251324.0,"source_crs":"EPSG:32636","evidence_ref":["056c18ed71"]}},{"type":"Feature","geometry":{"type":"Polygon","coordinates":[[[35.244281,31.715021],[35.244667,31.715174],[35.244622,31.714871],[35.244909,31.714038],[35.244281,31.715021]]]},"properties":{"name":"Firing zone (unnumbered)","signed_date":"2007-08-15","mechanism":"closed_military_area","area_m2":2706.6,"source_crs":"EPSG:32636","evidence_ref":["27027d0950"]}},{"type":"Feature","geometry":{"type":"Polygon","coordinates":[[[35.239,32.051791],[35.237837,32.051921],[35.236955,32.052592],[35.235181,32.054731],[35.235026,32.05537],[35.235159,32.055941],[35.235614,32.05641],[35.236619,32.057024],[35.237709,32.05685],[35.238714,32.057152],[35.239708,32.057029],[35.240168,32.057252],[35.241164,32.058179],[35.242207,32.058579],[35.242647,32.058522],[35.244133,32.05695],[35.244532,32.05593],[35.244417,32.054843],[35.243269,32.053203],[35.243378,32.052809],[35.243133,32.052678],[35.241744,32.052688],[35.241509,32.052508],[35.241291,32.051898],[35.240824,32.051674],[35.239,32.051791]],[[35.242864,32.053572],[35.243331,32.054291],[35.243391,32.054832],[35.243023,32.055162],[35.24285,32.056193],[35.243113,32.056815],[35.242801,32.057301],[35.242379,32.057508],[35.24158,32.057525],[35.240095,32.056592],[35.23795,32.055928],[35.237205,32.055383],[35.237225,32.05455],[35.237671,32.053688],[35.238743,32.052846],[35.239488,32.052466],[35.240307,32.05244],[35.241067,32.052905],[35.240989,32.053008],[35.241499,32.053404],[35.242377,32.053365],[35.242864,32.053572]]]},"properties":{"name":"Firing zone (unnumbered)","signed_date":"2007-03-14","mechanism":"closed_military_area","area_m2":238818.4,"source_crs":"EPSG:32636","evidence_ref":["cbbc094f45"]}},{"type":"Feature","geometry":{"type":"Polygon","coordinates":[[[35.204205,31.399836],[35.20371,31.396185],[35.203165,31.394654],[35.20069,31.392658],[35.199501,31.392742],[35.199006,31.392955],[35.198411,31.392911],[35.198213,31.392572],[35.199055,31.389556],[35.201432,31.384841],[35.202522,31.381952],[35.203364,31.378767],[35.203661,31.376388],[35.203661,31.374264],[35.203315,31.372946],[35.202226,31.372904],[35.201582,31.373372],[35.201235,31.374053],[35.200196,31.374688],[35.197819,31.374858],[35.196928,31.374645],[35.196086,31.373498],[35.195294,31.371205],[35.193512,31.368699],[35.189452,31.368739],[35.187521,31.368316],[35.185343,31.367039],[35.183066,31.365341],[35.171772,31.364243],[35.168016,31.364954],[35.16749,31.363828],[35.159742,31.363085],[35.145468,31.359425],[35.139306,31.358484],[35.137326,31.3584],[35.136187,31.358101],[35.135049,31.357338],[35.133616,31.355425],[35.132575,31.356443],[35.124352,31.363193],[35.127862,31.368759],[35.131027,31.373223],[35.133648,31.377556],[35.135081,31.380191],[35.140174,31.391748],[35.1422,31.398504],[35.142245,31.404664],[35.141451,31.406745],[35.141252,31.407848],[35.146007,31.407724],[35.156854,31.408026],[35.16146,31.408411],[35.170177,31.409901],[35.176962,31.411515],[35.179835,31.411942],[35.187413,31.414068],[35.193159,31.4153],[35.194149,31.415258],[35.195239,31.414662],[35.196626,31.413261],[35.198063,31.411094],[35.199499,31.410968],[35.199945,31.411434],[35.200787,31.413643],[35.201778,31.415129],[35.202322,31.415427],[35.203016,31.415426],[35.20361,31.414408],[35.203957,31.412539],[35.203462,31.410074],[35.204304,31.402429],[35.204205,31.399836]]]},"properties":{"zone_name":"918","name":"Firing zone 918","signed_date":"1999-05-05","mechanism":"closed_military_area","area_m2":32711940.7,"source_crs":"EPSG:32636","evidence_ref":["d7074c7965"]}}],"metadata":{"mechanism":"closed_military_area","count":58,"total_km2":1024.3,"note":"Israeli firing zones (closed military areas). Each polygon carries the date its closure order was signed."}}