{"type":"FeatureCollection","features":[{"type":"Feature","geometry":{"type":"Polygon","coordinates":[[[34.263151,31.253174],[34.267459,31.257011],[34.270305,31.259938],[34.272392,31.261799],[34.273605,31.262797],[34.278414,31.265983],[34.281278,31.267323],[34.297443,31.273783],[34.30115,31.266284],[34.301478,31.266445],[34.303485,31.263402],[34.305196,31.264077],[34.3067,31.259157],[34.298845,31.256746],[34.300792,31.252881],[34.295194,31.251719],[34.293093,31.251487],[34.292367,31.250972],[34.291305,31.252592],[34.28575,31.250255],[34.282601,31.253934],[34.281032,31.24792],[34.278889,31.252111],[34.279982,31.255624],[34.278761,31.257048],[34.27875,31.257988],[34.276843,31.258426],[34.276287,31.257615],[34.274403,31.256904],[34.268435,31.237877],[34.266263,31.241577],[34.261966,31.247873],[34.266308,31.249984],[34.263151,31.253174]]]},"properties":{"name":"Shokat as Sufi","named":true,"region":"gaza","currency_note":"Administrative geography as at 2019-07-18. Predates October 2023 and describes how Gaza was defined, not what still stands.","source_crs":"EPSG:4326","evidence_ref":["74212b0207"]}},{"type":"Feature","geometry":{"type":"Polygon","coordinates":[[[34.315128,31.295017],[34.314215,31.290854],[34.312954,31.287179],[34.310928,31.28324],[34.309712,31.281554],[34.307991,31.27984],[34.305003,31.277645],[34.302961,31.276535],[34.298776,31.274845],[34.296246,31.279056],[34.295472,31.279884],[34.292898,31.281296],[34.292263,31.280607],[34.290963,31.281617],[34.288641,31.283954],[34.288081,31.283215],[34.287168,31.282481],[34.285552,31.281524],[34.284289,31.283103],[34.282956,31.286642],[34.281801,31.288491],[34.282919,31.289584],[34.284081,31.29112],[34.285695,31.294486],[34.28634,31.296598],[34.28629,31.298734],[34.28642,31.299176],[34.294171,31.294335],[34.295265,31.293847],[34.296659,31.293471],[34.305515,31.293161],[34.306794,31.293282],[34.315128,31.295017]]]},"properties":{"name":"An Naser","named":true,"region":"gaza","currency_note":"Administrative geography as at 2019-07-18. Predates October 2023 and describes how Gaza was defined, not what still stands.","source_crs":"EPSG:4326","evidence_ref":["74212b0207"]}},{"type":"Feature","geometry":{"type":"Polygon","coordinates":[[[34.32511,31.303384],[34.327622,31.30051],[34.328698,31.301163],[34.329532,31.299532],[34.332138,31.300792],[34.33355,31.30179],[34.339047,31.295998],[34.342261,31.291632],[34.343956,31.289639],[34.340211,31.288149],[34.336263,31.28613],[34.331498,31.284598],[34.325893,31.282414],[34.316939,31.279348],[34.315574,31.286498],[34.314644,31.287497],[34.313759,31.287837],[34.314891,31.291244],[34.315726,31.295142],[34.31605,31.298793],[34.316786,31.303435],[34.318258,31.304078],[34.320254,31.305267],[34.322792,31.302045],[34.32511,31.303384]]]},"properties":{"name":"Al Fukhkhari","named":true,"region":"gaza","currency_note":"Administrative geography as at 2019-07-18. Predates October 2023 and describes how Gaza was defined, not what still stands.","source_crs":"EPSG:4326","evidence_ref":["74212b0207"]}},{"type":"Feature","geometry":{"type":"Polygon","coordinates":[[[34.365773,31.318322],[34.367922,31.316464],[34.370292,31.314089],[34.36814,31.312421],[34.370553,31.309739],[34.369641,31.309172],[34.371829,31.306922],[34.36922,31.305152],[34.370054,31.304401],[34.359825,31.297435],[34.357887,31.295717],[34.355601,31.294323],[34.354287,31.295365],[34.3507,31.297524],[34.349327,31.298623],[34.35521,31.302255],[34.357427,31.303885],[34.354664,31.308417],[34.357819,31.310518],[34.357349,31.311037],[34.361154,31.314115],[34.365773,31.318322]]]},"properties":{"name":"Khuza'a","named":true,"region":"gaza","currency_note":"Administrative geography as at 2019-07-18. Predates October 2023 and describes how Gaza was defined, not what still stands.","source_crs":"EPSG:4326","evidence_ref":["74212b0207"]}},{"type":"Feature","geometry":{"type":"Polygon","coordinates":[[[34.332613,31.326696],[34.334322,31.324684],[34.333015,31.323766],[34.334158,31.322371],[34.333021,31.321817],[34.333498,31.320189],[34.334171,31.318754],[34.33506,31.31924],[34.337564,31.321193],[34.341042,31.317705],[34.343441,31.315592],[34.340362,31.313508],[34.340585,31.313253],[34.336898,31.310257],[34.335225,31.307754],[34.331565,31.304282],[34.329771,31.30711],[34.334409,31.312199],[34.331228,31.315052],[34.32743,31.318119],[34.322153,31.323246],[34.32445,31.325024],[34.32743,31.328576],[34.328042,31.326222],[34.328255,31.324703],[34.332613,31.326696]]]},"properties":{"name":"Unnamed municipality","named":false,"region":"gaza","currency_note":"Administrative geography as at 2019-07-18. Predates October 2023 and describes how Gaza was defined, not what still stands.","source_crs":"EPSG:4326","evidence_ref":["74212b0207"]}},{"type":"Feature","geometry":{"type":"Polygon","coordinates":[[[34.355414,31.335266],[34.354676,31.333799],[34.361086,31.333508],[34.360818,31.332564],[34.362459,31.332076],[34.361462,31.33104],[34.365883,31.328836],[34.363311,31.32637],[34.361264,31.32812],[34.35697,31.325106],[34.357813,31.324851],[34.362197,31.322268],[34.360204,31.320207],[34.356939,31.317518],[34.359213,31.315499],[34.357458,31.314017],[34.353599,31.31705],[34.35234,31.317859],[34.349262,31.315306],[34.349602,31.31499],[34.349359,31.314763],[34.350375,31.313786],[34.348323,31.312082],[34.349091,31.311347],[34.345659,31.308752],[34.346567,31.307917],[34.343867,31.305957],[34.3451,31.304662],[34.341383,31.301346],[34.339877,31.302646],[34.33821,31.303792],[34.334093,31.301248],[34.33355,31.30179],[34.332138,31.300792],[34.329532,31.299532],[34.328698,31.301163],[34.327622,31.30051],[34.32511,31.303384],[34.330057,31.306633],[34.331565,31.304282],[34.335225,31.307754],[34.336898,31.310257],[34.340585,31.313253],[34.340362,31.313508],[34.343441,31.315592],[34.341042,31.317705],[34.337564,31.321193],[34.33506,31.31924],[34.334171,31.318754],[34.333498,31.320189],[34.333021,31.321817],[34.334158,31.322371],[34.333015,31.323766],[34.334322,31.324684],[34.332772,31.32652],[34.335246,31.328642],[34.33042,31.331533],[34.336117,31.336874],[34.338005,31.335424],[34.339852,31.33434],[34.340838,31.335938],[34.341327,31.335841],[34.341467,31.336026],[34.342516,31.335586],[34.347786,31.334685],[34.347867,31.335063],[34.347715,31.335294],[34.346277,31.336326],[34.347161,31.337419],[34.347872,31.337069],[34.348188,31.337503],[34.349105,31.336994],[34.349526,31.337524],[34.351728,31.336528],[34.355414,31.335266]]]},"properties":{"name":"Unnamed municipality","named":false,"region":"gaza","currency_note":"Administrative geography as at 2019-07-18. Predates October 2023 and describes how Gaza was defined, not what still stands.","source_crs":"EPSG:4326","evidence_ref":["74212b0207"]}},{"type":"Feature","geometry":{"type":"Polygon","coordinates":[[[34.280935,31.309019],[34.272484,31.314553],[34.271254,31.314947],[34.268526,31.31206],[34.26203,31.311182],[34.254748,31.309585],[34.251475,31.314255],[34.248347,31.319545],[34.246905,31.321514],[34.245857,31.323476],[34.24465,31.325289],[34.241027,31.329448],[34.240234,31.330577],[34.241614,31.332725],[34.245716,31.335656],[34.247347,31.336505],[34.248562,31.337594],[34.246715,31.340259],[34.274891,31.325137],[34.276319,31.324631],[34.281835,31.318585],[34.284964,31.31726],[34.284259,31.31459],[34.282429,31.31053],[34.280935,31.309019]]]},"properties":{"name":"Unnamed municipality","named":false,"region":"gaza","currency_note":"Administrative geography as at 2019-07-18. Predates October 2023 and describes how Gaza was defined, not what still stands.","source_crs":"EPSG:4326","evidence_ref":["74212b0207"]}},{"type":"Feature","geometry":{"type":"Polygon","coordinates":[[[34.333367,31.263934],[34.331331,31.261713],[34.327466,31.258523],[34.319618,31.252917],[34.316952,31.251622],[34.311851,31.249624],[34.30969,31.249034],[34.308163,31.248413],[34.304539,31.246301],[34.293322,31.241432],[34.291368,31.239916],[34.285246,31.233326],[34.281795,31.230456],[34.280579,31.2292],[34.275849,31.227408],[34.271054,31.226092],[34.266047,31.224372],[34.257437,31.248078],[34.263151,31.253174],[34.266308,31.249984],[34.261966,31.247873],[34.266263,31.241577],[34.268435,31.237877],[34.274403,31.256904],[34.276287,31.257615],[34.276843,31.258426],[34.27875,31.257988],[34.278761,31.257048],[34.279982,31.255624],[34.278889,31.252111],[34.281032,31.24792],[34.282601,31.253934],[34.28575,31.250255],[34.291305,31.252592],[34.292367,31.250972],[34.293093,31.251487],[34.295194,31.251719],[34.300792,31.252881],[34.298845,31.256746],[34.3067,31.259157],[34.305196,31.264077],[34.303485,31.263402],[34.301478,31.266445],[34.30115,31.266284],[34.297443,31.273783],[34.299027,31.274414],[34.298776,31.274845],[34.302961,31.276535],[34.305003,31.277645],[34.307991,31.27984],[34.309712,31.281554],[34.310928,31.28324],[34.312954,31.287179],[34.314215,31.290854],[34.315128,31.295017],[34.315726,31.295142],[34.314891,31.291244],[34.313759,31.287837],[34.314644,31.287497],[34.315574,31.286498],[34.316939,31.279348],[34.325893,31.282414],[34.331498,31.284598],[34.336263,31.28613],[34.340211,31.288149],[34.343956,31.289639],[34.342261,31.291632],[34.339047,31.295998],[34.334093,31.301248],[34.33821,31.303792],[34.339877,31.302646],[34.341383,31.301346],[34.3451,31.304662],[34.343867,31.305957],[34.346567,31.307917],[34.345659,31.308752],[34.349091,31.311347],[34.348323,31.312082],[34.350375,31.313786],[34.349359,31.314763],[34.349602,31.31499],[34.349262,31.315306],[34.35234,31.317859],[34.353599,31.31705],[34.357458,31.314017],[34.359213,31.315499],[34.356939,31.317518],[34.360204,31.320207],[34.362197,31.322268],[34.357813,31.324851],[34.35697,31.325106],[34.361264,31.32812],[34.363311,31.32637],[34.365883,31.328836],[34.361462,31.33104],[34.362459,31.332076],[34.360818,31.332564],[34.361086,31.333508],[34.354676,31.333799],[34.356576,31.337526],[34.362104,31.336856],[34.361875,31.336059],[34.365412,31.33552],[34.364449,31.333091],[34.369607,31.330638],[34.369515,31.33183],[34.368283,31.338642],[34.368696,31.339103],[34.371033,31.325868],[34.371517,31.321737],[34.372161,31.319052],[34.373081,31.311915],[34.373846,31.307277],[34.373929,31.305812],[34.373285,31.303776],[34.372097,31.301157],[34.37193,31.300444],[34.371216,31.299254],[34.370313,31.296356],[34.368924,31.293264],[34.366725,31.289997],[34.364884,31.289087],[34.362313,31.288096],[34.359403,31.286434],[34.343046,31.278416],[34.341829,31.275631],[34.339199,31.271725],[34.336696,31.267637],[34.333367,31.263934]],[[34.365773,31.318322],[34.361154,31.314115],[34.357349,31.311037],[34.357819,31.310518],[34.354664,31.308417],[34.357427,31.303885],[34.35521,31.302255],[34.349327,31.298623],[34.3507,31.297524],[34.354287,31.295365],[34.355601,31.294323],[34.357887,31.295717],[34.359825,31.297435],[34.370054,31.304401],[34.36922,31.305152],[34.371829,31.306922],[34.369641,31.309172],[34.370553,31.309739],[34.36814,31.312421],[34.370292,31.314089],[34.367922,31.316464],[34.365773,31.318322]]]},"properties":{"name":"Unnamed municipality","named":false,"region":"gaza","currency_note":"Administrative geography as at 2019-07-18. Predates October 2023 and describes how Gaza was defined, not what still stands.","source_crs":"EPSG:4326","evidence_ref":["74212b0207"]}},{"type":"Feature","geometry":{"type":"Polygon","coordinates":[[[34.368696,31.339103],[34.368653,31.339344],[34.368795,31.339213],[34.368696,31.339103]]]},"properties":{"name":"Unnamed municipality","named":false,"region":"gaza","currency_note":"Administrative geography as at 2019-07-18. Predates October 2023 and describes how Gaza was defined, not what still stands.","source_crs":"EPSG:4326","evidence_ref":["74212b0207"]}},{"type":"Feature","geometry":{"type":"Polygon","coordinates":[[[34.246715,31.340259],[34.248562,31.337594],[34.247347,31.336505],[34.245716,31.335656],[34.241614,31.332725],[34.240234,31.330577],[34.241027,31.329448],[34.24465,31.325289],[34.245857,31.323476],[34.246905,31.321514],[34.248347,31.319545],[34.251475,31.314255],[34.254748,31.309585],[34.26203,31.311182],[34.268526,31.31206],[34.271254,31.314947],[34.272484,31.314553],[34.280935,31.309019],[34.280243,31.308439],[34.277308,31.304069],[34.279021,31.302598],[34.279314,31.302798],[34.281144,31.300792],[34.285632,31.294473],[34.284081,31.29112],[34.282919,31.289584],[34.281801,31.288491],[34.282956,31.286642],[34.284261,31.283156],[34.285552,31.281524],[34.287168,31.282481],[34.288081,31.283215],[34.288641,31.283954],[34.290963,31.281617],[34.292263,31.280607],[34.292898,31.281296],[34.294908,31.280288],[34.296246,31.279056],[34.299027,31.274414],[34.281278,31.267323],[34.278414,31.265983],[34.273605,31.262797],[34.27122,31.260808],[34.267459,31.257011],[34.257437,31.248078],[34.255205,31.253883],[34.24718,31.276808],[34.247005,31.277661],[34.241214,31.292747],[34.240188,31.295822],[34.239742,31.296246],[34.239409,31.296338],[34.235924,31.296596],[34.235535,31.296878],[34.22945,31.307346],[34.22681,31.311405],[34.223996,31.316221],[34.218739,31.323741],[34.219994,31.324578],[34.225407,31.328989],[34.226135,31.329387],[34.227101,31.330336],[34.229795,31.332319],[34.230639,31.333242],[34.233494,31.335738],[34.235702,31.337586],[34.237034,31.338486],[34.243213,31.343876],[34.246715,31.340259]]]},"properties":{"name":"Rafah","named":true,"region":"gaza","currency_note":"Administrative geography as at 2019-07-18. Predates October 2023 and describes how Gaza was defined, not what still stands.","source_crs":"EPSG:4326","evidence_ref":["74212b0207"]}},{"type":"Feature","geometry":{"type":"Polygon","coordinates":[[[34.368653,31.339344],[34.368696,31.339103],[34.368283,31.338642],[34.369515,31.33183],[34.369607,31.330638],[34.364449,31.333091],[34.365412,31.33552],[34.361875,31.336059],[34.362104,31.336856],[34.356576,31.337526],[34.355414,31.335266],[34.351728,31.336528],[34.349526,31.337524],[34.349105,31.336994],[34.348188,31.337503],[34.347872,31.337069],[34.347161,31.337419],[34.346277,31.336326],[34.347715,31.335294],[34.347867,31.335063],[34.347786,31.334685],[34.342516,31.335586],[34.341467,31.336026],[34.341327,31.335841],[34.340838,31.335938],[34.339852,31.33434],[34.338005,31.335424],[34.336117,31.336874],[34.339736,31.340931],[34.34191,31.344855],[34.344471,31.347531],[34.34478,31.348036],[34.346993,31.348267],[34.351884,31.348533],[34.355782,31.348339],[34.359461,31.348361],[34.358855,31.347945],[34.368653,31.339344]]]},"properties":{"name":"Unnamed municipality","named":false,"region":"gaza","currency_note":"Administrative geography as at 2019-07-18. Predates October 2023 and describes how Gaza was defined, not what still stands.","source_crs":"EPSG:4326","evidence_ref":["74212b0207"]}},{"type":"Feature","geometry":{"type":"Polygon","coordinates":[[[34.34478,31.348036],[34.344471,31.347531],[34.34191,31.344855],[34.339736,31.340931],[34.337422,31.338243],[34.33335,31.334186],[34.33042,31.331533],[34.335246,31.328642],[34.332772,31.32652],[34.332613,31.326696],[34.328255,31.324703],[34.328042,31.326222],[34.32743,31.328576],[34.32445,31.325024],[34.322153,31.323246],[34.321223,31.324244],[34.321647,31.327202],[34.32242,31.330799],[34.322581,31.333647],[34.319495,31.33552],[34.319717,31.335739],[34.317623,31.337083],[34.318693,31.338188],[34.318061,31.338537],[34.318648,31.339458],[34.317875,31.341256],[34.31787,31.342124],[34.314513,31.34395],[34.315229,31.346243],[34.315666,31.346992],[34.318511,31.349443],[34.323046,31.352677],[34.325006,31.350932],[34.325444,31.352272],[34.326031,31.353262],[34.329439,31.353998],[34.329865,31.354007],[34.332909,31.351026],[34.333155,31.351222],[34.335866,31.348734],[34.337362,31.349703],[34.339896,31.350974],[34.34013,31.349852],[34.340775,31.349058],[34.340895,31.348478],[34.342265,31.348165],[34.342494,31.347594],[34.34478,31.348036]]]},"properties":{"name":"Unnamed municipality","named":false,"region":"gaza","currency_note":"Administrative geography as at 2019-07-18. Predates October 2023 and describes how Gaza was defined, not what still stands.","source_crs":"EPSG:4326","evidence_ref":["74212b0207"]}},{"type":"Feature","geometry":{"type":"Polygon","coordinates":[[[34.362413,31.374414],[34.359513,31.368526],[34.358603,31.365453],[34.356935,31.362394],[34.351453,31.356708],[34.350196,31.355605],[34.34948,31.35521],[34.347978,31.354616],[34.345432,31.354216],[34.344438,31.354199],[34.342061,31.354555],[34.338878,31.354578],[34.33468,31.353242],[34.329582,31.357679],[34.331061,31.36191],[34.332677,31.365854],[34.333075,31.370075],[34.332576,31.370206],[34.332217,31.369638],[34.331751,31.369634],[34.330122,31.372098],[34.329648,31.371666],[34.32855,31.37271],[34.328692,31.372833],[34.325841,31.375087],[34.326113,31.375393],[34.326266,31.376344],[34.326851,31.376842],[34.326951,31.377884],[34.327302,31.378436],[34.327863,31.378767],[34.330075,31.379448],[34.330998,31.37996],[34.331539,31.380483],[34.331653,31.380997],[34.33115,31.381983],[34.3312,31.384068],[34.331839,31.385303],[34.333532,31.386013],[34.333973,31.386416],[34.334174,31.386981],[34.334472,31.389306],[34.335477,31.388691],[34.342343,31.383193],[34.344423,31.385551],[34.347048,31.389424],[34.349378,31.388277],[34.350352,31.38768],[34.35148,31.386693],[34.352992,31.384859],[34.357184,31.378666],[34.358195,31.377488],[34.359621,31.376323],[34.362413,31.374414]]]},"properties":{"name":"Al Qarara","named":true,"region":"gaza","currency_note":"Administrative geography as at 2019-07-18. Predates October 2023 and describes how Gaza was defined, not what still stands.","source_crs":"EPSG:4326","evidence_ref":["74212b0207"]}},{"type":"Feature","geometry":{"type":"Polygon","coordinates":[[[34.334472,31.389306],[34.334174,31.386981],[34.333973,31.386416],[34.333385,31.385939],[34.332135,31.385501],[34.331515,31.38487],[34.331157,31.383887],[34.331166,31.381896],[34.324581,31.389107],[34.332117,31.389892],[34.33337,31.3897],[34.334472,31.389306]]]},"properties":{"name":"Unnamed municipality","named":false,"region":"gaza","currency_note":"Administrative geography as at 2019-07-18. Predates October 2023 and describes how Gaza was defined, not what still stands.","source_crs":"EPSG:4326","evidence_ref":["74212b0207"]}},{"type":"Feature","geometry":{"type":"Polygon","coordinates":[[[34.362413,31.374414],[34.35889,31.376878],[34.357623,31.378108],[34.352992,31.384859],[34.35148,31.386693],[34.34995,31.387945],[34.347048,31.389424],[34.353152,31.398423],[34.35373,31.399766],[34.355972,31.398946],[34.357004,31.398857],[34.357892,31.398877],[34.358564,31.399164],[34.359325,31.399096],[34.359617,31.399299],[34.360651,31.399132],[34.361252,31.399228],[34.36198,31.399912],[34.363939,31.399343],[34.364342,31.399693],[34.36529,31.3998],[34.365672,31.4007],[34.366384,31.400828],[34.368378,31.400271],[34.369221,31.399709],[34.370087,31.399411],[34.371083,31.398535],[34.371794,31.398158],[34.371729,31.397376],[34.371412,31.39678],[34.370028,31.394602],[34.369106,31.393489],[34.372026,31.390998],[34.37361,31.390051],[34.372283,31.388508],[34.368788,31.383281],[34.366709,31.381051],[34.365788,31.378627],[34.364744,31.377455],[34.363028,31.376184],[34.362413,31.374414]]]},"properties":{"name":"Wadi as Salqa","named":true,"region":"gaza","currency_note":"Administrative geography as at 2019-07-18. Predates October 2023 and describes how Gaza was defined, not what still stands.","source_crs":"EPSG:4326","evidence_ref":["74212b0207"]}},{"type":"Feature","geometry":{"type":"Polygon","coordinates":[[[34.324581,31.389107],[34.331166,31.381896],[34.331653,31.380997],[34.331539,31.380483],[34.330998,31.37996],[34.330075,31.379448],[34.327814,31.378749],[34.327267,31.378402],[34.326939,31.37784],[34.326851,31.376842],[34.326266,31.376344],[34.326113,31.375393],[34.325841,31.375087],[34.328692,31.372833],[34.32855,31.37271],[34.329648,31.371666],[34.330122,31.372098],[34.331751,31.369634],[34.332217,31.369638],[34.332576,31.370206],[34.333075,31.370075],[34.332677,31.365854],[34.331061,31.36191],[34.329582,31.357679],[34.33317,31.354614],[34.331186,31.353963],[34.32883,31.35394],[34.326159,31.353334],[34.325829,31.353067],[34.325444,31.352272],[34.325006,31.350932],[34.323046,31.352677],[34.318511,31.349443],[34.315666,31.346992],[34.315229,31.346243],[34.314513,31.34395],[34.31787,31.342124],[34.317875,31.341256],[34.318648,31.339458],[34.318061,31.338537],[34.318693,31.338188],[34.317623,31.337083],[34.319717,31.335739],[34.319495,31.33552],[34.322581,31.333647],[34.32242,31.330799],[34.321647,31.327202],[34.321223,31.324244],[34.32743,31.318119],[34.331228,31.315052],[34.334409,31.312199],[34.329771,31.30711],[34.330057,31.306633],[34.325985,31.303933],[34.322792,31.302045],[34.320254,31.305267],[34.318258,31.304078],[34.316786,31.303435],[34.31605,31.298793],[34.315726,31.295142],[34.306794,31.293282],[34.305515,31.293161],[34.296659,31.293471],[34.295265,31.293847],[34.294171,31.294335],[34.28642,31.299176],[34.28629,31.298734],[34.28634,31.296598],[34.286143,31.295619],[34.285632,31.294473],[34.281144,31.300792],[34.279314,31.302798],[34.279021,31.302598],[34.277308,31.304069],[34.280243,31.308439],[34.282429,31.31053],[34.284259,31.31459],[34.284964,31.31726],[34.281835,31.318585],[34.276319,31.324631],[34.274891,31.325137],[34.246715,31.340259],[34.243213,31.343876],[34.247556,31.347645],[34.249283,31.348809],[34.254131,31.35297],[34.256215,31.355053],[34.260178,31.358326],[34.264168,31.362098],[34.267692,31.364591],[34.270202,31.366912],[34.276921,31.372403],[34.279164,31.375137],[34.282398,31.378326],[34.286322,31.382724],[34.290577,31.385779],[34.29493,31.390023],[34.298169,31.392741],[34.299589,31.394295],[34.303591,31.397044],[34.306914,31.399046],[34.310759,31.402397],[34.321462,31.395544],[34.322596,31.39428],[34.321921,31.392049],[34.324581,31.389107]]]},"properties":{"name":"Khan Yunis","named":true,"region":"gaza","currency_note":"Administrative geography as at 2019-07-18. Predates October 2023 and describes how Gaza was defined, not what still stands.","source_crs":"EPSG:4326","evidence_ref":["74212b0207"]}},{"type":"Feature","geometry":{"type":"Polygon","coordinates":[[[34.402816,31.415015],[34.402974,31.414376],[34.403582,31.414189],[34.403423,31.413553],[34.402633,31.413784],[34.402027,31.413778],[34.401956,31.412854],[34.399987,31.412664],[34.400138,31.411381],[34.399352,31.409471],[34.398244,31.408846],[34.397481,31.408189],[34.398193,31.407893],[34.397452,31.406514],[34.396029,31.407184],[34.395085,31.406422],[34.393412,31.406992],[34.390071,31.407659],[34.390251,31.406289],[34.389445,31.40609],[34.38831,31.404548],[34.387185,31.403383],[34.384642,31.401625],[34.379903,31.405146],[34.372245,31.409125],[34.367876,31.411017],[34.365669,31.412231],[34.368192,31.414527],[34.371078,31.417452],[34.374145,31.421078],[34.376267,31.423206],[34.377325,31.422457],[34.37796,31.422687],[34.379551,31.421831],[34.380021,31.42094],[34.380135,31.420236],[34.38172,31.419355],[34.382685,31.418293],[34.384014,31.418134],[34.384579,31.41777],[34.385031,31.418034],[34.386605,31.417567],[34.387653,31.416924],[34.387397,31.41651],[34.387546,31.416298],[34.388527,31.416522],[34.389896,31.416375],[34.390236,31.415937],[34.390158,31.415737],[34.39037,31.415287],[34.391179,31.414743],[34.393721,31.417627],[34.395079,31.41694],[34.395859,31.417046],[34.396872,31.41672],[34.400482,31.415071],[34.401216,31.41487],[34.402816,31.415015]]]},"properties":{"name":"Al Musaddar","named":true,"region":"gaza","currency_note":"Administrative geography as at 2019-07-18. Predates October 2023 and describes how Gaza was defined, not what still stands.","source_crs":"EPSG:4326","evidence_ref":["74212b0207"]}},{"type":"Feature","geometry":{"type":"Polygon","coordinates":[[[34.367767,31.414834],[34.365231,31.41253],[34.367876,31.411017],[34.372245,31.409125],[34.379903,31.405146],[34.384642,31.401625],[34.383059,31.400259],[34.379212,31.398037],[34.374386,31.396166],[34.373533,31.397813],[34.372757,31.398174],[34.371554,31.398403],[34.370303,31.399531],[34.369428,31.399796],[34.368672,31.40036],[34.366728,31.400944],[34.365914,31.401001],[34.365572,31.40085],[34.365193,31.399928],[34.36415,31.399824],[34.364016,31.39947],[34.361821,31.400082],[34.361287,31.399387],[34.360234,31.399299],[34.359485,31.399505],[34.35933,31.39921],[34.358213,31.39926],[34.357892,31.398877],[34.355972,31.398946],[34.35373,31.399766],[34.353152,31.398423],[34.344903,31.386221],[34.343872,31.384836],[34.342343,31.383193],[34.335477,31.388691],[34.333861,31.389554],[34.332117,31.389892],[34.324581,31.389107],[34.321921,31.392049],[34.322596,31.39428],[34.321462,31.395544],[34.310759,31.402397],[34.316416,31.407695],[34.317748,31.408803],[34.320053,31.410363],[34.328816,31.41787],[34.330908,31.419376],[34.343293,31.43101],[34.344861,31.429961],[34.347525,31.43069],[34.34939,31.430377],[34.350714,31.429006],[34.351334,31.428647],[34.351765,31.428113],[34.351474,31.428006],[34.356617,31.42419],[34.358966,31.426928],[34.360706,31.42546],[34.359334,31.423975],[34.36151,31.422294],[34.362192,31.422616],[34.364491,31.420978],[34.362248,31.418831],[34.367767,31.414834]]]},"properties":{"name":"Deir al Balah","named":true,"region":"gaza","currency_note":"Administrative geography as at 2019-07-18. Predates October 2023 and describes how Gaza was defined, not what still stands.","source_crs":"EPSG:4326","evidence_ref":["74212b0207"]}},{"type":"Feature","geometry":{"type":"Polygon","coordinates":[[[34.407214,31.416825],[34.406478,31.415946],[34.405176,31.415457],[34.403888,31.414405],[34.402901,31.415023],[34.401216,31.41487],[34.400482,31.415071],[34.396872,31.41672],[34.395859,31.417046],[34.395079,31.41694],[34.393721,31.417627],[34.391179,31.414743],[34.39037,31.415287],[34.390158,31.415737],[34.390236,31.415937],[34.389896,31.416375],[34.388527,31.416522],[34.387546,31.416298],[34.387397,31.41651],[34.387653,31.416924],[34.386605,31.417567],[34.385031,31.418034],[34.384579,31.41777],[34.384014,31.418134],[34.382685,31.418293],[34.38172,31.419355],[34.380135,31.420236],[34.380021,31.42094],[34.379551,31.421831],[34.37796,31.422687],[34.377325,31.422457],[34.376267,31.423206],[34.386699,31.433458],[34.390968,31.430429],[34.393735,31.428106],[34.396108,31.427523],[34.396827,31.427173],[34.396863,31.427019],[34.399785,31.424917],[34.398104,31.42254],[34.407214,31.416825]]]},"properties":{"name":"Al Maghazi Camp","named":true,"region":"gaza","currency_note":"Administrative geography as at 2019-07-18. Predates October 2023 and describes how Gaza was defined, not what still stands.","source_crs":"EPSG:4326","evidence_ref":["74212b0207"]}},{"type":"Feature","geometry":{"type":"Polygon","coordinates":[[[34.386219,31.433736],[34.373996,31.421688],[34.370889,31.418021],[34.367767,31.414834],[34.362248,31.418831],[34.364491,31.420978],[34.362192,31.422616],[34.36151,31.422294],[34.359334,31.423975],[34.360706,31.42546],[34.358966,31.426928],[34.356617,31.42419],[34.351474,31.428006],[34.351765,31.428113],[34.351334,31.428647],[34.350714,31.429006],[34.34939,31.430377],[34.347525,31.43069],[34.344861,31.429961],[34.343293,31.43101],[34.350195,31.438104],[34.352012,31.439738],[34.352282,31.440264],[34.353748,31.441864],[34.360375,31.44863],[34.364557,31.445926],[34.367725,31.445041],[34.367893,31.445208],[34.370549,31.443923],[34.371375,31.443343],[34.371011,31.442923],[34.372412,31.441596],[34.377921,31.438359],[34.378652,31.438643],[34.379482,31.438655],[34.381088,31.439233],[34.383024,31.43763],[34.382055,31.436591],[34.386219,31.433736]]]},"properties":{"name":"Az Zawayda","named":true,"region":"gaza","currency_note":"Administrative geography as at 2019-07-18. Predates October 2023 and describes how Gaza was defined, not what still stands.","source_crs":"EPSG:4326","evidence_ref":["74212b0207"]}},{"type":"Feature","geometry":{"type":"Polygon","coordinates":[[[34.413366,31.444445],[34.41494,31.442439],[34.415722,31.441143],[34.415113,31.439129],[34.415883,31.438366],[34.414082,31.43288],[34.412437,31.430742],[34.411706,31.428981],[34.409379,31.425824],[34.407388,31.422688],[34.406923,31.422208],[34.410166,31.42001],[34.407214,31.416825],[34.398104,31.42254],[34.399785,31.424917],[34.396863,31.427019],[34.396827,31.427173],[34.396108,31.427523],[34.393735,31.428106],[34.390968,31.430429],[34.386699,31.433458],[34.394508,31.43951],[34.397341,31.442171],[34.400186,31.444551],[34.405206,31.44787],[34.407447,31.449618],[34.411119,31.446657],[34.413366,31.444445]]]},"properties":{"name":"Al Bureij Camp","named":true,"region":"gaza","currency_note":"Administrative geography as at 2019-07-18. Predates October 2023 and describes how Gaza was defined, not what still stands.","source_crs":"EPSG:4326","evidence_ref":["74212b0207"]}},{"type":"Feature","geometry":{"type":"Polygon","coordinates":[[[34.386219,31.433736],[34.382055,31.436591],[34.383024,31.43763],[34.381088,31.439233],[34.379482,31.438655],[34.378652,31.438643],[34.377921,31.438359],[34.372412,31.441596],[34.371011,31.442923],[34.371375,31.443343],[34.370549,31.443923],[34.367893,31.445208],[34.367725,31.445041],[34.364557,31.445926],[34.360375,31.44863],[34.362948,31.451005],[34.363188,31.451451],[34.370912,31.459817],[34.372485,31.461007],[34.373064,31.46078],[34.375034,31.461074],[34.376063,31.461525],[34.377376,31.461574],[34.37857,31.461959],[34.383657,31.464708],[34.386488,31.465391],[34.389543,31.465124],[34.391398,31.465213],[34.39239,31.465],[34.393686,31.465291],[34.395317,31.465396],[34.396868,31.464916],[34.397261,31.465042],[34.398032,31.464584],[34.398861,31.462038],[34.398464,31.461809],[34.398701,31.461646],[34.398602,31.461058],[34.400285,31.459077],[34.402288,31.457863],[34.404894,31.457999],[34.406907,31.457677],[34.408603,31.457653],[34.411636,31.456746],[34.413166,31.455903],[34.413777,31.455315],[34.412767,31.454163],[34.410804,31.452956],[34.404686,31.448126],[34.399825,31.444917],[34.397256,31.442778],[34.394111,31.439846],[34.386219,31.433736]]]},"properties":{"name":"An Nuseirat Camp","named":true,"region":"gaza","currency_note":"Administrative geography as at 2019-07-18. Predates October 2023 and describes how Gaza was defined, not what still stands.","source_crs":"EPSG:4326","evidence_ref":["74212b0207"]}},{"type":"Feature","geometry":{"type":"Polygon","coordinates":[[[34.418323,31.442208],[34.4175,31.44299],[34.417439,31.443547],[34.417006,31.444124],[34.416234,31.444457],[34.415868,31.445031],[34.416027,31.446384],[34.41508,31.44697],[34.415468,31.448522],[34.415924,31.449313],[34.417175,31.452466],[34.417765,31.452084],[34.418098,31.453972],[34.417409,31.453903],[34.416693,31.454304],[34.41576,31.454466],[34.414764,31.455036],[34.414608,31.455452],[34.417749,31.458621],[34.41964,31.460293],[34.425699,31.464838],[34.426073,31.464867],[34.426936,31.464424],[34.427643,31.464434],[34.439955,31.468208],[34.439672,31.467533],[34.43951,31.465857],[34.43904,31.463732],[34.445918,31.458624],[34.447488,31.457891],[34.441238,31.450956],[34.429534,31.438451],[34.425983,31.44112],[34.421354,31.438066],[34.418323,31.442208]]]},"properties":{"name":"Al Mughraqa","named":true,"region":"gaza","currency_note":"Administrative geography as at 2019-07-18. Predates October 2023 and describes how Gaza was defined, not what still stands.","source_crs":"EPSG:4326","evidence_ref":["74212b0207"]}},{"type":"Feature","geometry":{"type":"Polygon","coordinates":[[[34.412112,31.475338],[34.413406,31.476277],[34.413693,31.47609],[34.425477,31.465548],[34.425398,31.465286],[34.424715,31.464644],[34.41925,31.460635],[34.41732,31.458926],[34.414223,31.455802],[34.413846,31.456002],[34.413388,31.456674],[34.411823,31.457564],[34.408355,31.458344],[34.405998,31.458667],[34.403111,31.458832],[34.40171,31.459195],[34.40026,31.461573],[34.399465,31.462355],[34.399784,31.464043],[34.399668,31.465077],[34.398915,31.466351],[34.398193,31.466818],[34.398214,31.468332],[34.400859,31.469544],[34.401809,31.468689],[34.406667,31.471614],[34.412112,31.475338]]]},"properties":{"name":"Al Mughraqa","named":true,"region":"gaza","currency_note":"Administrative geography as at 2019-07-18. Predates October 2023 and describes how Gaza was defined, not what still stands.","source_crs":"EPSG:4326","evidence_ref":["74212b0207"]}},{"type":"Feature","geometry":{"type":"Polygon","coordinates":[[[34.404941,31.474209],[34.400003,31.469125],[34.398594,31.469458],[34.397916,31.469021],[34.396509,31.469581],[34.395316,31.470395],[34.401743,31.476523],[34.404941,31.474209]]]},"properties":{"name":"Al Zahra","named":true,"region":"gaza","currency_note":"Administrative geography as at 2019-07-18. Predates October 2023 and describes how Gaza was defined, not what still stands.","source_crs":"EPSG:4326","evidence_ref":["74212b0207"]}},{"type":"Feature","geometry":{"type":"Polygon","coordinates":[[[34.465236,31.461049],[34.461176,31.457779],[34.455595,31.452908],[34.453708,31.451672],[34.453259,31.451241],[34.452331,31.449668],[34.44647,31.44381],[34.445372,31.443383],[34.441767,31.442519],[34.437376,31.439984],[34.436635,31.43907],[34.436166,31.438125],[34.433414,31.434845],[34.432291,31.432286],[34.430646,31.430879],[34.426818,31.426844],[34.425152,31.426557],[34.424207,31.426105],[34.422684,31.424184],[34.421301,31.423646],[34.420464,31.423043],[34.419899,31.422402],[34.416475,31.420386],[34.414052,31.418594],[34.413837,31.418169],[34.413767,31.417187],[34.4129,31.41674],[34.412021,31.415759],[34.410544,31.415587],[34.409406,31.415193],[34.408951,31.414759],[34.408705,31.414158],[34.407619,31.413404],[34.407034,31.412487],[34.406282,31.412344],[34.405307,31.412626],[34.402228,31.411032],[34.401666,31.409655],[34.398557,31.406266],[34.398189,31.405946],[34.396769,31.405372],[34.39566,31.404617],[34.394431,31.401949],[34.393155,31.39998],[34.391701,31.398651],[34.389867,31.397352],[34.388737,31.3959],[34.387028,31.395073],[34.385022,31.39303],[34.383127,31.391627],[34.381059,31.389784],[34.380763,31.389408],[34.380744,31.389138],[34.381376,31.388108],[34.381205,31.387759],[34.380288,31.386927],[34.379968,31.38561],[34.379295,31.385335],[34.378716,31.384829],[34.375822,31.380843],[34.374464,31.378658],[34.374474,31.377787],[34.374647,31.377319],[34.374566,31.376998],[34.373853,31.376416],[34.373793,31.376061],[34.374125,31.374334],[34.373444,31.373523],[34.371981,31.372277],[34.372532,31.370763],[34.372248,31.369984],[34.371555,31.369471],[34.370537,31.369072],[34.369779,31.369101],[34.368848,31.369595],[34.368442,31.369646],[34.367722,31.369372],[34.367064,31.368423],[34.366434,31.365808],[34.366095,31.365216],[34.365513,31.361576],[34.366752,31.353908],[34.367027,31.350226],[34.367881,31.343289],[34.368653,31.339344],[34.358855,31.347945],[34.359461,31.348361],[34.350295,31.348494],[34.346145,31.348197],[34.342494,31.347594],[34.342265,31.348165],[34.340895,31.348478],[34.340775,31.349058],[34.34013,31.349852],[34.339896,31.350974],[34.337362,31.349703],[34.335866,31.348734],[34.333155,31.351222],[34.332909,31.351026],[34.329908,31.353947],[34.331186,31.353963],[34.33317,31.354614],[34.33468,31.353242],[34.338878,31.354578],[34.342061,31.354555],[34.344898,31.354188],[34.347978,31.354616],[34.34948,31.35521],[34.350392,31.35577],[34.354503,31.359768],[34.356935,31.362394],[34.358603,31.365453],[34.359513,31.368526],[34.362024,31.373512],[34.362993,31.376131],[34.364744,31.377455],[34.365788,31.378627],[34.366709,31.381051],[34.368788,31.383281],[34.372283,31.388508],[34.37361,31.390051],[34.372026,31.390998],[34.369106,31.393489],[34.370357,31.39508],[34.371412,31.39678],[34.371815,31.397798],[34.371794,31.398158],[34.371083,31.398535],[34.370087,31.399411],[34.369221,31.399709],[34.368378,31.400271],[34.366384,31.400828],[34.365672,31.4007],[34.36529,31.3998],[34.364342,31.399693],[34.363977,31.399347],[34.36198,31.399912],[34.361252,31.399228],[34.360651,31.399132],[34.359617,31.399299],[34.359325,31.399096],[34.358564,31.399164],[34.357906,31.398916],[34.357976,31.399111],[34.358407,31.399324],[34.35933,31.39921],[34.359485,31.399505],[34.360234,31.399299],[34.361287,31.399387],[34.361821,31.400082],[34.364016,31.39947],[34.36415,31.399824],[34.365193,31.399928],[34.365572,31.40085],[34.366396,31.400978],[34.368672,31.40036],[34.369428,31.399796],[34.370303,31.399531],[34.371554,31.398403],[34.372757,31.398174],[34.373533,31.397813],[34.374386,31.396166],[34.378396,31.397669],[34.382922,31.400169],[34.384642,31.401625],[34.387185,31.403383],[34.38831,31.404548],[34.389445,31.40609],[34.390251,31.406289],[34.390071,31.407659],[34.393412,31.406992],[34.395085,31.406422],[34.396029,31.407184],[34.397452,31.406514],[34.398193,31.407893],[34.397481,31.408189],[34.398244,31.408846],[34.399352,31.409471],[34.400138,31.411381],[34.399987,31.412664],[34.401956,31.412854],[34.402027,31.413778],[34.402633,31.413784],[34.403423,31.413553],[34.403582,31.414189],[34.402974,31.414376],[34.402816,31.415015],[34.403888,31.414405],[34.405176,31.415457],[34.406478,31.415946],[34.410166,31.42001],[34.406923,31.422208],[34.407388,31.422688],[34.409379,31.425824],[34.411706,31.428981],[34.412437,31.430742],[34.414151,31.433012],[34.415883,31.438366],[34.415113,31.439129],[34.415722,31.441143],[34.41494,31.442439],[34.412923,31.444933],[34.411119,31.446657],[34.407447,31.449618],[34.405206,31.44787],[34.400186,31.444551],[34.397341,31.442171],[34.394508,31.43951],[34.386699,31.433458],[34.374434,31.421392],[34.371078,31.417452],[34.368192,31.414527],[34.365669,31.412231],[34.365231,31.41253],[34.367767,31.414834],[34.370639,31.417746],[34.373996,31.421688],[34.386219,31.433736],[34.394111,31.439846],[34.397256,31.442778],[34.399825,31.444917],[34.404686,31.448126],[34.410804,31.452956],[34.412767,31.454163],[34.413777,31.455315],[34.413166,31.455903],[34.411636,31.456746],[34.408603,31.457653],[34.406907,31.457677],[34.404894,31.457999],[34.402288,31.457863],[34.400285,31.459077],[34.398602,31.461058],[34.398701,31.461646],[34.398464,31.461809],[34.398861,31.462038],[34.398032,31.464584],[34.397261,31.465042],[34.396868,31.464916],[34.395317,31.465396],[34.393686,31.465291],[34.39239,31.465],[34.391398,31.465213],[34.389543,31.465124],[34.386488,31.465391],[34.383657,31.464708],[34.37857,31.461959],[34.377376,31.461574],[34.376063,31.461525],[34.375034,31.461074],[34.373064,31.46078],[34.372485,31.461007],[34.376639,31.465008],[34.378361,31.467087],[34.386061,31.474851],[34.387148,31.476271],[34.392901,31.482064],[34.401116,31.490722],[34.405357,31.494856],[34.407663,31.496729],[34.412522,31.501796],[34.41496,31.499827],[34.417741,31.497962],[34.421387,31.492268],[34.423549,31.489858],[34.420753,31.485096],[34.422813,31.483607],[34.420368,31.480581],[34.420517,31.480425],[34.42344,31.478668],[34.425831,31.477821],[34.426971,31.478282],[34.430293,31.475374],[34.433694,31.474658],[34.436213,31.476474],[34.436374,31.476243],[34.436757,31.476359],[34.43814,31.475635],[34.439105,31.475352],[34.440039,31.476374],[34.439897,31.47651],[34.441945,31.478184],[34.442535,31.477747],[34.442477,31.477452],[34.442626,31.477582],[34.442689,31.477204],[34.442184,31.476733],[34.445872,31.474471],[34.446466,31.475132],[34.447334,31.474661],[34.44581,31.472643],[34.454242,31.465938],[34.458026,31.462664],[34.458564,31.463209],[34.45901,31.465442],[34.465236,31.461049]],[[34.418323,31.442208],[34.421354,31.438066],[34.425983,31.44112],[34.429534,31.438451],[34.441238,31.450956],[34.447488,31.457891],[34.445918,31.458624],[34.43904,31.463732],[34.43951,31.465857],[34.439672,31.467533],[34.439955,31.468208],[34.427643,31.464434],[34.426936,31.464424],[34.426073,31.464867],[34.425699,31.464838],[34.41964,31.460293],[34.417749,31.458621],[34.414608,31.455452],[34.414764,31.455036],[34.41576,31.454466],[34.416693,31.454304],[34.417409,31.453903],[34.418098,31.453972],[34.417765,31.452084],[34.417175,31.452466],[34.415924,31.449313],[34.415468,31.448522],[34.41508,31.44697],[34.416027,31.446384],[34.415868,31.445031],[34.416234,31.444457],[34.417006,31.444124],[34.417439,31.443547],[34.4175,31.44299],[34.418323,31.442208]],[[34.412112,31.475338],[34.406667,31.471614],[34.401809,31.468689],[34.400859,31.469544],[34.398214,31.468332],[34.398193,31.466818],[34.398915,31.466351],[34.399668,31.465077],[34.399784,31.464043],[34.399465,31.462355],[34.40026,31.461573],[34.40171,31.459195],[34.403111,31.458832],[34.405998,31.458667],[34.408355,31.458344],[34.411823,31.457564],[34.413388,31.456674],[34.413846,31.456002],[34.414223,31.455802],[34.41732,31.458926],[34.41925,31.460635],[34.424715,31.464644],[34.425398,31.465286],[34.425477,31.465548],[34.413693,31.47609],[34.413406,31.476277],[34.412112,31.475338]],[[34.404941,31.474209],[34.401743,31.476523],[34.395316,31.470395],[34.396509,31.469581],[34.397916,31.469021],[34.398594,31.469458],[34.400003,31.469125],[34.404941,31.474209]]]},"properties":{"name":"Unnamed municipality","named":false,"region":"gaza","currency_note":"Administrative geography as at 2019-07-18. Predates October 2023 and describes how Gaza was defined, not what still stands.","source_crs":"EPSG:4326","evidence_ref":["74212b0207"]}},{"type":"Feature","geometry":{"type":"Polygon","coordinates":[[[34.518312,31.501479],[34.513292,31.500561],[34.511367,31.499645],[34.507889,31.497236],[34.503964,31.49415],[34.49376,31.486615],[34.49227,31.485322],[34.490174,31.483094],[34.48661,31.480406],[34.485688,31.479778],[34.483396,31.478824],[34.482761,31.477559],[34.480554,31.474703],[34.478389,31.472268],[34.47798,31.472031],[34.47607,31.472],[34.47531,31.471792],[34.474618,31.471336],[34.473524,31.470386],[34.470772,31.467496],[34.468543,31.465709],[34.46658,31.463159],[34.4659,31.461693],[34.465236,31.461049],[34.45901,31.465442],[34.458564,31.463209],[34.458026,31.462664],[34.454242,31.465938],[34.44581,31.472643],[34.447334,31.474661],[34.446466,31.475132],[34.445872,31.474471],[34.442184,31.476733],[34.442689,31.477204],[34.442626,31.477582],[34.442477,31.477452],[34.442535,31.477747],[34.441945,31.478184],[34.439897,31.47651],[34.440039,31.476374],[34.439105,31.475352],[34.43814,31.475635],[34.436757,31.476359],[34.436374,31.476243],[34.436213,31.476474],[34.433694,31.474658],[34.430293,31.475374],[34.426971,31.478282],[34.425831,31.477821],[34.42344,31.478668],[34.420517,31.480425],[34.420368,31.480581],[34.422813,31.483607],[34.420753,31.485096],[34.423549,31.489858],[34.421387,31.492268],[34.417741,31.497962],[34.41496,31.499827],[34.412522,31.501796],[34.418186,31.507639],[34.421362,31.511584],[34.422606,31.512559],[34.423667,31.513639],[34.423785,31.514137],[34.427881,31.518912],[34.430235,31.522432],[34.430231,31.522903],[34.429121,31.524048],[34.429913,31.524419],[34.43111,31.523798],[34.431813,31.523724],[34.43221,31.523857],[34.432265,31.524538],[34.434275,31.525466],[34.434885,31.526298],[34.435978,31.527168],[34.436945,31.52856],[34.43973,31.531821],[34.441701,31.533743],[34.442971,31.535373],[34.44676,31.539268],[34.44877,31.541578],[34.450804,31.54337],[34.452346,31.545236],[34.462365,31.539719],[34.465679,31.53716],[34.473547,31.531553],[34.473546,31.531405],[34.475781,31.529563],[34.477438,31.529179],[34.477517,31.529387],[34.477829,31.529119],[34.478065,31.529142],[34.478549,31.528694],[34.47829,31.528112],[34.478476,31.527959],[34.47842,31.527202],[34.477907,31.527379],[34.477235,31.52695],[34.477872,31.526517],[34.476598,31.525533],[34.476471,31.525156],[34.475717,31.52544],[34.47464,31.525331],[34.472156,31.524616],[34.469806,31.523028],[34.471239,31.522309],[34.471612,31.522658],[34.475081,31.520271],[34.475195,31.520376],[34.47661,31.519227],[34.476777,31.519363],[34.476937,31.519226],[34.476792,31.519114],[34.477583,31.518478],[34.478209,31.518229],[34.47843,31.51853],[34.482298,31.517149],[34.48106,31.514954],[34.482058,31.514064],[34.484235,31.515031],[34.486016,31.515423],[34.487063,31.514668],[34.490178,31.516305],[34.49167,31.515009],[34.493828,31.513755],[34.495149,31.512145],[34.496796,31.511082],[34.500818,31.507495],[34.504259,31.512058],[34.512998,31.50595],[34.512541,31.505855],[34.51313,31.505447],[34.517664,31.503364],[34.51713,31.502757],[34.518312,31.501479]]]},"properties":{"name":"Gaza","named":true,"region":"gaza","currency_note":"Administrative geography as at 2019-07-18. Predates October 2023 and describes how Gaza was defined, not what still stands.","source_crs":"EPSG:4326","evidence_ref":["74212b0207"]}},{"type":"Feature","geometry":{"type":"Polygon","coordinates":[[[34.518668,31.529744],[34.519201,31.529416],[34.517488,31.528092],[34.51611,31.52679],[34.521386,31.52346],[34.524761,31.521509],[34.527261,31.520309],[34.528566,31.5193],[34.52919,31.518559],[34.530099,31.516996],[34.533013,31.513617],[34.533616,31.512628],[34.532119,31.511532],[34.535107,31.510091],[34.538489,31.50967],[34.537501,31.509304],[34.535003,31.507981],[34.531712,31.506787],[34.530384,31.506105],[34.526127,31.503072],[34.525351,31.502721],[34.521391,31.501909],[34.518312,31.501479],[34.51713,31.502757],[34.517664,31.503364],[34.51313,31.505447],[34.512541,31.505855],[34.512998,31.50595],[34.504259,31.512058],[34.500818,31.507495],[34.496796,31.511082],[34.495149,31.512145],[34.493828,31.513755],[34.49167,31.515009],[34.490178,31.516305],[34.487063,31.514668],[34.486016,31.515423],[34.484235,31.515031],[34.482058,31.514064],[34.48106,31.514954],[34.482298,31.517149],[34.47843,31.51853],[34.478209,31.518229],[34.477583,31.518478],[34.476792,31.519114],[34.476937,31.519226],[34.476777,31.519363],[34.47661,31.519227],[34.475195,31.520376],[34.475081,31.520271],[34.471612,31.522658],[34.471239,31.522309],[34.469806,31.523028],[34.472156,31.524616],[34.47464,31.525331],[34.475717,31.52544],[34.476471,31.525156],[34.476598,31.525533],[34.477872,31.526517],[34.477235,31.52695],[34.477907,31.527379],[34.47842,31.527202],[34.478476,31.527959],[34.47829,31.528112],[34.478549,31.528694],[34.478065,31.529142],[34.477829,31.529119],[34.477517,31.529387],[34.477438,31.529179],[34.475781,31.529563],[34.473546,31.531405],[34.473547,31.531553],[34.465679,31.53716],[34.462365,31.539719],[34.452346,31.545236],[34.453527,31.546787],[34.456347,31.549682],[34.457404,31.551232],[34.458678,31.552574],[34.460851,31.555308],[34.474208,31.545424],[34.4768,31.542881],[34.478166,31.544073],[34.479593,31.544798],[34.480319,31.545348],[34.482158,31.543846],[34.482469,31.544305],[34.482563,31.544144],[34.485027,31.544394],[34.486298,31.544942],[34.487781,31.543497],[34.488548,31.543867],[34.489174,31.543276],[34.489518,31.543166],[34.489761,31.543434],[34.490375,31.543278],[34.4907,31.543486],[34.491197,31.543527],[34.492055,31.544013],[34.49285,31.544024],[34.493819,31.543278],[34.493897,31.543395],[34.495146,31.542739],[34.496066,31.542002],[34.494335,31.538762],[34.495475,31.538059],[34.496448,31.536725],[34.499358,31.534623],[34.499622,31.53421],[34.502386,31.5367],[34.50469,31.534474],[34.506706,31.53608],[34.508104,31.536484],[34.51047,31.534129],[34.51124,31.53293],[34.511824,31.531143],[34.512872,31.529364],[34.515007,31.527588],[34.518668,31.529744]]]},"properties":{"name":"Jabalya","named":true,"region":"gaza","currency_note":"Administrative geography as at 2019-07-18. Predates October 2023 and describes how Gaza was defined, not what still stands.","source_crs":"EPSG:4326","evidence_ref":["74212b0207"]}},{"type":"Feature","geometry":{"type":"Polygon","coordinates":[[[34.53962,31.510091],[34.543589,31.513992],[34.54148,31.514927],[34.545018,31.52094],[34.553163,31.526135],[34.557207,31.531844],[34.558402,31.531373],[34.559295,31.533136],[34.560777,31.539095],[34.560719,31.540336],[34.561199,31.542583],[34.556596,31.544292],[34.55451,31.545512],[34.553316,31.545576],[34.553171,31.545131],[34.552568,31.544991],[34.551927,31.54555],[34.542132,31.549448],[34.541961,31.548497],[34.538759,31.550536],[34.542683,31.554957],[34.545414,31.55769],[34.548497,31.555238],[34.551978,31.552894],[34.55321,31.551255],[34.556347,31.549149],[34.556689,31.548676],[34.55781,31.547831],[34.562894,31.54488],[34.567612,31.541515],[34.567913,31.540772],[34.568013,31.539989],[34.566877,31.536048],[34.566765,31.534635],[34.565937,31.532818],[34.563833,31.530748],[34.562673,31.530061],[34.5596,31.527686],[34.559041,31.525232],[34.558597,31.524738],[34.555616,31.522681],[34.555088,31.522044],[34.554563,31.520441],[34.55509,31.518988],[34.555094,31.518441],[34.553813,31.517223],[34.55327,31.516918],[34.550854,31.516526],[34.547357,31.512703],[34.53962,31.510091]]]},"properties":{"name":"Unnamed municipality","named":false,"region":"gaza","currency_note":"Administrative geography as at 2019-07-18. Predates October 2023 and describes how Gaza was defined, not what still stands.","source_crs":"EPSG:4326","evidence_ref":["74212b0207"]}},{"type":"Feature","geometry":{"type":"Polygon","coordinates":[[[34.545414,31.55769],[34.542683,31.554957],[34.538759,31.550536],[34.541961,31.548497],[34.542132,31.549448],[34.551927,31.54555],[34.552568,31.544991],[34.553171,31.545131],[34.553316,31.545576],[34.55451,31.545512],[34.556596,31.544292],[34.561199,31.542583],[34.560719,31.540336],[34.560777,31.539095],[34.559295,31.533136],[34.558402,31.531373],[34.557207,31.531844],[34.553163,31.526135],[34.545018,31.52094],[34.54148,31.514927],[34.543589,31.513992],[34.53962,31.510091],[34.538489,31.50967],[34.535107,31.510091],[34.532119,31.511532],[34.533616,31.512628],[34.533013,31.513617],[34.530099,31.516996],[34.52919,31.518559],[34.528066,31.519749],[34.519124,31.524787],[34.51611,31.52679],[34.517488,31.528092],[34.519201,31.529416],[34.518668,31.529744],[34.519846,31.530561],[34.520619,31.531524],[34.523581,31.538909],[34.518573,31.541358],[34.519216,31.542451],[34.519586,31.544102],[34.516765,31.544521],[34.518331,31.546636],[34.51918,31.547272],[34.520062,31.547652],[34.526407,31.548598],[34.529137,31.548109],[34.53099,31.551252],[34.531742,31.552097],[34.532655,31.552818],[34.538953,31.556234],[34.544177,31.55841],[34.545414,31.55769]]]},"properties":{"name":"Beit Hanoun","named":true,"region":"gaza","currency_note":"Administrative geography as at 2019-07-18. Predates October 2023 and describes how Gaza was defined, not what still stands.","source_crs":"EPSG:4326","evidence_ref":["74212b0207"]}},{"type":"Feature","geometry":{"type":"Polygon","coordinates":[[[34.513513,31.554468],[34.51453,31.556628],[34.513382,31.557059],[34.514722,31.559232],[34.514285,31.559431],[34.515393,31.561205],[34.512923,31.562397],[34.514751,31.565112],[34.521245,31.56237],[34.519186,31.559402],[34.52225,31.557935],[34.521132,31.55628],[34.52252,31.555619],[34.521753,31.553895],[34.521456,31.554006],[34.520712,31.551793],[34.513513,31.554468]]]},"properties":{"name":"Al Qaraya al Badawiya","named":true,"region":"gaza","currency_note":"Administrative geography as at 2019-07-18. Predates October 2023 and describes how Gaza was defined, not what still stands.","source_crs":"EPSG:4326","evidence_ref":["74212b0207"]}},{"type":"Feature","geometry":{"type":"Polygon","coordinates":[[[34.516804,31.544564],[34.519586,31.544102],[34.519216,31.542451],[34.518573,31.541358],[34.523581,31.538909],[34.520904,31.532045],[34.520278,31.531037],[34.519328,31.530152],[34.515007,31.527588],[34.512872,31.529364],[34.511824,31.531143],[34.51124,31.53293],[34.51047,31.534129],[34.508104,31.536484],[34.506706,31.53608],[34.50469,31.534474],[34.502386,31.5367],[34.499622,31.53421],[34.499358,31.534623],[34.496448,31.536725],[34.495475,31.538059],[34.494335,31.538762],[34.496066,31.542002],[34.495146,31.542739],[34.493897,31.543395],[34.493819,31.543278],[34.49285,31.544024],[34.492055,31.544013],[34.491197,31.543527],[34.4907,31.543486],[34.490375,31.543278],[34.489761,31.543434],[34.489518,31.543166],[34.489174,31.543276],[34.488548,31.543867],[34.487781,31.543497],[34.486298,31.544942],[34.485027,31.544394],[34.482563,31.544144],[34.482469,31.544305],[34.482158,31.543846],[34.480319,31.545348],[34.479593,31.544798],[34.478166,31.544073],[34.4768,31.542881],[34.474208,31.545424],[34.460851,31.555308],[34.467164,31.563058],[34.479181,31.578765],[34.480044,31.578468],[34.483001,31.579499],[34.484411,31.578209],[34.485573,31.576548],[34.488307,31.573392],[34.49254,31.570274],[34.497351,31.567772],[34.496993,31.564003],[34.49766,31.563382],[34.498904,31.563274],[34.498338,31.56245],[34.502355,31.560826],[34.502019,31.560325],[34.504733,31.558395],[34.50564,31.559626],[34.509299,31.558776],[34.509921,31.55891],[34.512293,31.557554],[34.510566,31.555122],[34.510155,31.553439],[34.510307,31.552513],[34.510693,31.552067],[34.513587,31.551321],[34.511336,31.54468],[34.516804,31.544564]]]},"properties":{"name":"Beit Lahiya","named":true,"region":"gaza","currency_note":"Administrative geography as at 2019-07-18. Predates October 2023 and describes how Gaza was defined, not what still stands.","source_crs":"EPSG:4326","evidence_ref":["74212b0207"]}},{"type":"Feature","geometry":{"type":"Polygon","coordinates":[[[34.544177,31.55841],[34.538953,31.556234],[34.53246,31.552685],[34.53099,31.551252],[34.529137,31.548109],[34.526407,31.548598],[34.520774,31.547815],[34.519672,31.547511],[34.518626,31.546897],[34.517988,31.546251],[34.516804,31.544564],[34.511336,31.54468],[34.513587,31.551321],[34.510693,31.552067],[34.510307,31.552513],[34.510155,31.553439],[34.510566,31.555122],[34.512293,31.557554],[34.509921,31.55891],[34.509299,31.558776],[34.50564,31.559626],[34.504733,31.558395],[34.502019,31.560325],[34.502355,31.560826],[34.498338,31.56245],[34.498904,31.563274],[34.49766,31.563382],[34.496993,31.564003],[34.497351,31.567772],[34.49254,31.570274],[34.488307,31.573392],[34.485573,31.576548],[34.484411,31.578209],[34.483001,31.579499],[34.480044,31.578468],[34.479181,31.578765],[34.483942,31.584734],[34.486886,31.58877],[34.487554,31.589402],[34.491444,31.59492],[34.493602,31.593986],[34.497855,31.591046],[34.505805,31.585444],[34.507805,31.583858],[34.532937,31.566396],[34.542586,31.55928],[34.544177,31.55841]],[[34.513513,31.554468],[34.520712,31.551793],[34.521456,31.554006],[34.521753,31.553895],[34.52252,31.555619],[34.521132,31.55628],[34.52225,31.557935],[34.519186,31.559402],[34.521245,31.56237],[34.514751,31.565112],[34.512923,31.562397],[34.515393,31.561205],[34.514285,31.559431],[34.514722,31.559232],[34.513382,31.557059],[34.51453,31.556628],[34.513513,31.554468]]]},"properties":{"name":"Unnamed municipality","named":false,"region":"gaza","currency_note":"Administrative geography as at 2019-07-18. Predates October 2023 and describes how Gaza was defined, not what still stands.","source_crs":"EPSG:4326","evidence_ref":["74212b0207"]}}],"metadata":{"note":"Administrative geography as at 2019-07-18. Predates October 2023 and describes how Gaza was defined, not what still stands."}}