{"type":"FeatureCollection","features":[{"type":"Feature","geometry":{"type":"Point","coordinates":[34.548135,31.533105]},"properties":{"name":"Hai Abu Ghazala","district":"North Gaza","community":"Beit Hanoun","pcode":"55274006","region":"gaza","currency_note":"Administrative geography as at 2019-07-18. Predates October 2023 and describes how Gaza was defined, not what still stands.","source_crs":"EPSG:4326","evidence_ref":["be44b9b90e"]}},{"type":"Feature","geometry":{"type":"Point","coordinates":[34.53577,31.533175]},"properties":{"name":"Zemmo","district":"North Gaza","community":"Beit Hanoun","pcode":"55274010","region":"gaza","currency_note":"Administrative geography as at 2019-07-18. Predates October 2023 and describes how Gaza was defined, not what still stands.","source_crs":"EPSG:4326","evidence_ref":["be44b9b90e"]}},{"type":"Feature","geometry":{"type":"Point","coordinates":[34.552994,31.534774]},"properties":{"name":"Hai Al Masreen","district":"North Gaza","community":"Beit Hanoun","pcode":"55274005","region":"gaza","currency_note":"Administrative geography as at 2019-07-18. Predates October 2023 and describes how Gaza was defined, not what still stands.","source_crs":"EPSG:4326","evidence_ref":["be44b9b90e"]}},{"type":"Feature","geometry":{"type":"Point","coordinates":[34.537788,31.536463]},"properties":{"name":"Al Farata","district":"North Gaza","community":"Beit Hanoun","pcode":"55274007","region":"gaza","currency_note":"Administrative geography as at 2019-07-18. Predates October 2023 and describes how Gaza was defined, not what still stands.","source_crs":"EPSG:4326","evidence_ref":["be44b9b90e"]}},{"type":"Feature","geometry":{"type":"Point","coordinates":[34.530143,31.539389]},"properties":{"name":"Al-Zatoon","district":"North Gaza","community":"Beit Hanoun","pcode":"55274009","region":"gaza","currency_note":"Administrative geography as at 2019-07-18. Predates October 2023 and describes how Gaza was defined, not what still stands.","source_crs":"EPSG:4326","evidence_ref":["be44b9b90e"]}},{"type":"Feature","geometry":{"type":"Point","coordinates":[34.535916,31.542007]},"properties":{"name":"Al Balad","district":"North Gaza","community":"Beit Hanoun","pcode":"55274008","region":"gaza","currency_note":"Administrative geography as at 2019-07-18. Predates October 2023 and describes how Gaza was defined, not what still stands.","source_crs":"EPSG:4326","evidence_ref":["be44b9b90e"]}},{"type":"Feature","geometry":{"type":"Point","coordinates":[34.548928,31.542151]},"properties":{"name":"Hai Al Amal","district":"North Gaza","community":"Beit Hanoun","pcode":"55274004","region":"gaza","currency_note":"Administrative geography as at 2019-07-18. Predates October 2023 and describes how Gaza was defined, not what still stands.","source_crs":"EPSG:4326","evidence_ref":["be44b9b90e"]}},{"type":"Feature","geometry":{"type":"Point","coordinates":[34.539131,31.547045]},"properties":{"name":"Hai Abu Rahma","district":"North Gaza","community":"Beit Hanoun","pcode":"55274003","region":"gaza","currency_note":"Administrative geography as at 2019-07-18. Predates October 2023 and describes how Gaza was defined, not what still stands.","source_crs":"EPSG:4326","evidence_ref":["be44b9b90e"]}},{"type":"Feature","geometry":{"type":"Point","coordinates":[34.533196,31.550221]},"properties":{"name":"AlSoltan Abedl Hamaid","district":"North Gaza","community":"Beit Hanoun","pcode":"55274001","region":"gaza","currency_note":"Administrative geography as at 2019-07-18. Predates October 2023 and describes how Gaza was defined, not what still stands.","source_crs":"EPSG:4326","evidence_ref":["be44b9b90e"]}},{"type":"Feature","geometry":{"type":"Point","coordinates":[34.534809,31.547927]},"properties":{"name":"Al-Sekka","district":"North Gaza","community":"Beit Hanoun","pcode":"55274002","region":"gaza","currency_note":"Administrative geography as at 2019-07-18. Predates October 2023 and describes how Gaza was defined, not what still stands.","source_crs":"EPSG:4326","evidence_ref":["be44b9b90e"]}},{"type":"Feature","geometry":{"type":"Point","coordinates":[34.499185,31.498936]},"properties":{"name":"Ijdeedeh","arabic":"اجديدة الشرقية","district":"Gaza","community":"Gaza City","pcode":"60282514","region":"gaza","currency_note":"Administrative geography as at 2019-07-18. Predates October 2023 and describes how Gaza was defined, not what still stands.","source_crs":"EPSG:4326","evidence_ref":["be44b9b90e"]}},{"type":"Feature","geometry":{"type":"Point","coordinates":[34.424788,31.50499]},"properties":{"name":"Ash Sheikh 'Ijleen","arabic":"الشيخ عِجلين","district":"Gaza","community":"Gaza City","pcode":"60282506","region":"gaza","currency_note":"Administrative geography as at 2019-07-18. Predates October 2023 and describes how Gaza was defined, not what still stands.","source_crs":"EPSG:4326","evidence_ref":["be44b9b90e"]}},{"type":"Feature","geometry":{"type":"Point","coordinates":[34.436127,31.50464]},"properties":{"name":"Tal El Hawa","arabic":"تل الهوى","district":"Gaza","community":"Gaza City","pcode":"60282510","region":"gaza","currency_note":"Administrative geography as at 2019-07-18. Predates October 2023 and describes how Gaza was defined, not what still stands.","source_crs":"EPSG:4326","evidence_ref":["be44b9b90e"]}},{"type":"Feature","geometry":{"type":"Point","coordinates":[34.450127,31.508487]},"properties":{"name":"As Sabra","arabic":"الصبرة","district":"Gaza","community":"Gaza City","pcode":"60282509","region":"gaza","currency_note":"Administrative geography as at 2019-07-18. Predates October 2023 and describes how Gaza was defined, not what still stands.","source_crs":"EPSG:4326","evidence_ref":["be44b9b90e"]}},{"type":"Feature","geometry":{"type":"Point","coordinates":[34.464924,31.505226]},"properties":{"name":"Old City","arabic":"البلدة القديمة","district":"Gaza","community":"Gaza City","pcode":"60282512","region":"gaza","currency_note":"Administrative geography as at 2019-07-18. Predates October 2023 and describes how Gaza was defined, not what still stands.","source_crs":"EPSG:4326","evidence_ref":["be44b9b90e"]}},{"type":"Feature","geometry":{"type":"Point","coordinates":[34.470466,31.531524]},"properties":{"name":"Ash Sheikh Radwan","arabic":"الشيخ رضوان","district":"Gaza","community":"Gaza City","pcode":"60282502","region":"gaza","currency_note":"Administrative geography as at 2019-07-18. Predates October 2023 and describes how Gaza was defined, not what still stands.","source_crs":"EPSG:4326","evidence_ref":["be44b9b90e"]}},{"type":"Feature","geometry":{"type":"Point","coordinates":[34.471813,31.475844]},"properties":{"name":"At Turukman","arabic":"التركمان الشرقي","district":"Gaza","community":"Gaza City","pcode":"60282515","region":"gaza","currency_note":"Administrative geography as at 2019-07-18. Predates October 2023 and describes how Gaza was defined, not what still stands.","source_crs":"EPSG:4326","evidence_ref":["be44b9b90e"]}},{"type":"Feature","geometry":{"type":"Point","coordinates":[34.449909,31.523868]},"properties":{"name":"Northern Remal","arabic":"الرمال الشمالي","district":"Gaza","community":"Gaza City","pcode":"60282504","region":"gaza","currency_note":"Administrative geography as at 2019-07-18. Predates October 2023 and describes how Gaza was defined, not what still stands.","source_crs":"EPSG:4326","evidence_ref":["be44b9b90e"]}},{"type":"Feature","geometry":{"type":"Point","coordinates":[34.437586,31.51736]},"properties":{"name":"Southern Remal","arabic":"الرمال الجنوبي","district":"Gaza","community":"Gaza City","pcode":"60282505","region":"gaza","currency_note":"Administrative geography as at 2019-07-18. Predates October 2023 and describes how Gaza was defined, not what still stands.","source_crs":"EPSG:4326","evidence_ref":["be44b9b90e"]}},{"type":"Feature","geometry":{"type":"Point","coordinates":[34.46469,31.516771]},"properties":{"name":"Ad Darraj","arabic":"الدرج","district":"Gaza","community":"Gaza City","pcode":"60282508","region":"gaza","currency_note":"Administrative geography as at 2019-07-18. Predates October 2023 and describes how Gaza was defined, not what still stands.","source_crs":"EPSG:4326","evidence_ref":["be44b9b90e"]}},{"type":"Feature","geometry":{"type":"Point","coordinates":[34.479204,31.500302]},"properties":{"name":"Ash Shuja'iyeh - Ijdeedeh","arabic":"الشجاعية - اجديدة","district":"Gaza","community":"Gaza City","pcode":"60282511","region":"gaza","currency_note":"Administrative geography as at 2019-07-18. Predates October 2023 and describes how Gaza was defined, not what still stands.","source_crs":"EPSG:4326","evidence_ref":["be44b9b90e"]}},{"type":"Feature","geometry":{"type":"Point","coordinates":[34.445504,31.488336]},"properties":{"name":"Az Zaitoun","arabic":"الزيتون","district":"Gaza","community":"Gaza City","pcode":"60282513","region":"gaza","currency_note":"Administrative geography as at 2019-07-18. Predates October 2023 and describes how Gaza was defined, not what still stands.","source_crs":"EPSG:4326","evidence_ref":["be44b9b90e"]}},{"type":"Feature","geometry":{"type":"Point","coordinates":[34.459293,31.532171]},"properties":{"name":"An Naser","arabic":"النصر","district":"Gaza","community":"Gaza City","pcode":"60282503","region":"gaza","currency_note":"Administrative geography as at 2019-07-18. Predates October 2023 and describes how Gaza was defined, not what still stands.","source_crs":"EPSG:4326","evidence_ref":["be44b9b90e"]}},{"type":"Feature","geometry":{"type":"Point","coordinates":[34.481969,31.513261]},"properties":{"name":"At Tuffah","arabic":"التفّاح","district":"Gaza","community":"Gaza City","pcode":"60282507","region":"gaza","currency_note":"Administrative geography as at 2019-07-18. Predates October 2023 and describes how Gaza was defined, not what still stands.","source_crs":"EPSG:4326","evidence_ref":["be44b9b90e"]}},{"type":"Feature","geometry":{"type":"Point","coordinates":[34.482211,31.52872]},"properties":{"name":"Jabalya El Balad","arabic":"البلدة القديمـة","district":"North Gaza","community":"Jabalya","pcode":"55279000","region":"gaza","currency_note":"Administrative geography as at 2019-07-18. Predates October 2023 and describes how Gaza was defined, not what still stands.","source_crs":"EPSG:4326","evidence_ref":["be44b9b90e"]}},{"type":"Feature","geometry":{"type":"Point","coordinates":[34.499463,31.541632]},"properties":{"name":"Mashroo' Beit Lahiya","arabic":"مشروع بيت لاهيا","district":"North Gaza","community":"Beit Lahiya","pcode":"55269511","region":"gaza","currency_note":"Administrative geography as at 2019-07-18. Predates October 2023 and describes how Gaza was defined, not what still stands.","source_crs":"EPSG:4326","evidence_ref":["be44b9b90e"]}},{"type":"Feature","geometry":{"type":"Point","coordinates":[34.505859,31.543116]},"properties":{"name":"Al Share' El Am","district":"North Gaza","community":"Beit Lahiya","pcode":"55269510","region":"gaza","currency_note":"Administrative geography as at 2019-07-18. Predates October 2023 and describes how Gaza was defined, not what still stands.","source_crs":"EPSG:4326","evidence_ref":["be44b9b90e"]}},{"type":"Feature","geometry":{"type":"Point","coordinates":[34.497396,31.547353]},"properties":{"name":"Alkhazan","district":"North Gaza","community":"Beit Lahiya","pcode":"55269509","region":"gaza","currency_note":"Administrative geography as at 2019-07-18. Predates October 2023 and describes how Gaza was defined, not what still stands.","source_crs":"EPSG:4326","evidence_ref":["be44b9b90e"]}},{"type":"Feature","geometry":{"type":"Point","coordinates":[34.493522,31.54914]},"properties":{"name":"Aslan","district":"North Gaza","community":"Beit Lahiya","pcode":"55269508","region":"gaza","currency_note":"Administrative geography as at 2019-07-18. Predates October 2023 and describes how Gaza was defined, not what still stands.","source_crs":"EPSG:4326","evidence_ref":["be44b9b90e"]}},{"type":"Feature","geometry":{"type":"Point","coordinates":[34.491464,31.553242]},"properties":{"name":"Al Kur'a El Khamsa","district":"North Gaza","community":"Beit Lahiya","pcode":"55269507","region":"gaza","currency_note":"Administrative geography as at 2019-07-18. Predates October 2023 and describes how Gaza was defined, not what still stands.","source_crs":"EPSG:4326","evidence_ref":["be44b9b90e"]}},{"type":"Feature","geometry":{"type":"Point","coordinates":[34.485175,31.555314]},"properties":{"name":"Al Salateen","arabic":"السلاطين","district":"North Gaza","community":"Beit Lahiya","pcode":"55269506","region":"gaza","currency_note":"Administrative geography as at 2019-07-18. Predates October 2023 and describes how Gaza was defined, not what still stands.","source_crs":"EPSG:4326","evidence_ref":["be44b9b90e"]}},{"type":"Feature","geometry":{"type":"Point","coordinates":[34.50941,31.553905]},"properties":{"name":"Hatabiyya","district":"North Gaza","community":"Beit Lahiya","pcode":"55269505","region":"gaza","currency_note":"Administrative geography as at 2019-07-18. Predates October 2023 and describes how Gaza was defined, not what still stands.","source_crs":"EPSG:4326","evidence_ref":["be44b9b90e"]}},{"type":"Feature","geometry":{"type":"Point","coordinates":[34.503418,31.556491]},"properties":{"name":"Al Jam'ia","district":"North Gaza","community":"Beit Lahiya","pcode":"55269503","region":"gaza","currency_note":"Administrative geography as at 2019-07-18. Predates October 2023 and describes how Gaza was defined, not what still stands.","source_crs":"EPSG:4326","evidence_ref":["be44b9b90e"]}},{"type":"Feature","geometry":{"type":"Point","coordinates":[34.484494,31.569051]},"properties":{"name":"Al Attarta & As Siafa","arabic":"العطاطرة والسيفا","district":"North Gaza","community":"Beit Lahiya","pcode":"55269501","region":"gaza","currency_note":"Administrative geography as at 2019-07-18. Predates October 2023 and describes how Gaza was defined, not what still stands.","source_crs":"EPSG:4326","evidence_ref":["be44b9b90e"]}},{"type":"Feature","geometry":{"type":"Point","coordinates":[34.542948,31.527207]},"properties":{"name":"Al-Nazaz","district":"North Gaza","community":"Beit Hanoun","pcode":"55274011","region":"gaza","currency_note":"Administrative geography as at 2019-07-18. Predates October 2023 and describes how Gaza was defined, not what still stands.","source_crs":"EPSG:4326","evidence_ref":["be44b9b90e"]}},{"type":"Feature","geometry":{"type":"Point","coordinates":[34.531319,31.530921]},"properties":{"name":"Hai-Albanat","district":"North Gaza","community":"Beit Hanoun","pcode":"55274012","region":"gaza","currency_note":"Administrative geography as at 2019-07-18. Predates October 2023 and describes how Gaza was defined, not what still stands.","source_crs":"EPSG:4326","evidence_ref":["be44b9b90e"]}},{"type":"Feature","geometry":{"type":"Point","coordinates":[34.492024,31.584823]},"properties":{"name":"As Siafa","arabic":"السيافا","district":"North Gaza","community":"As Siafa","pcode":"99000100","region":"gaza","currency_note":"Administrative geography as at 2019-07-18. Predates October 2023 and describes how Gaza was defined, not what still stands.","source_crs":"EPSG:4326","evidence_ref":["be44b9b90e"]}},{"type":"Feature","geometry":{"type":"Point","coordinates":[34.46456,31.548507]},"properties":{"name":"Al Karameh","arabic":"الكـرامة","district":"North Gaza","community":"Madinat al 'Awda","pcode":"60270000","region":"gaza","currency_note":"Administrative geography as at 2019-07-18. Predates October 2023 and describes how Gaza was defined, not what still stands.","source_crs":"EPSG:4326","evidence_ref":["be44b9b90e"]}},{"type":"Feature","geometry":{"type":"Point","coordinates":[34.375155,31.396557]},"properties":{"name":"Al-Louh","arabic":"اللوح وأبو","pcode":"0","region":"gaza","currency_note":"Administrative geography as at 2019-07-18. Predates October 2023 and describes how Gaza was defined, not what still stands.","source_crs":"EPSG:4326","evidence_ref":["be44b9b90e"]}},{"type":"Feature","geometry":{"type":"Point","coordinates":[34.364611,31.397353]},"properties":{"name":"Abu Al-'Ajeen","arabic":"أبو العجين","pcode":"0","region":"gaza","currency_note":"Administrative geography as at 2019-07-18. Predates October 2023 and describes how Gaza was defined, not what still stands.","source_crs":"EPSG:4326","evidence_ref":["be44b9b90e"]}},{"type":"Feature","geometry":{"type":"Point","coordinates":[34.362245,31.392847]},"properties":{"name":"Sanajrah","arabic":"سناجرة","pcode":"0","region":"gaza","currency_note":"Administrative geography as at 2019-07-18. Predates October 2023 and describes how Gaza was defined, not what still stands.","source_crs":"EPSG:4326","evidence_ref":["be44b9b90e"]}},{"type":"Feature","geometry":{"type":"Point","coordinates":[34.354024,31.393366]},"properties":{"name":"Sawarkeh","arabic":"سواركة","pcode":"0","region":"gaza","currency_note":"Administrative geography as at 2019-07-18. Predates October 2023 and describes how Gaza was defined, not what still stands.","source_crs":"EPSG:4326","evidence_ref":["be44b9b90e"]}},{"type":"Feature","geometry":{"type":"Point","coordinates":[34.355929,31.399512]},"properties":{"name":"Ja'afarawi","arabic":"جعفراوي","pcode":"0","region":"gaza","currency_note":"Administrative geography as at 2019-07-18. Predates October 2023 and describes how Gaza was defined, not what still stands.","source_crs":"EPSG:4326","evidence_ref":["be44b9b90e"]}},{"type":"Feature","geometry":{"type":"Point","coordinates":[34.359199,31.390536]},"properties":{"name":"AL-Shortah","arabic":"الشرطة","pcode":"0","region":"gaza","currency_note":"Administrative geography as at 2019-07-18. Predates October 2023 and describes how Gaza was defined, not what still stands.","source_crs":"EPSG:4326","evidence_ref":["be44b9b90e"]}},{"type":"Feature","geometry":{"type":"Point","coordinates":[34.358179,31.385789]},"properties":{"name":"Abu Hdaf","arabic":"أبو هداف","pcode":"0","region":"gaza","currency_note":"Administrative geography as at 2019-07-18. Predates October 2023 and describes how Gaza was defined, not what still stands.","source_crs":"EPSG:4326","evidence_ref":["be44b9b90e"]}},{"type":"Feature","geometry":{"type":"Point","coordinates":[34.363906,31.38846]},"properties":{"name":"Abu Mgheiseb","arabic":"أبو مغيصب","pcode":"0","region":"gaza","currency_note":"Administrative geography as at 2019-07-18. Predates October 2023 and describes how Gaza was defined, not what still stands.","source_crs":"EPSG:4326","evidence_ref":["be44b9b90e"]}},{"type":"Feature","geometry":{"type":"Point","coordinates":[34.362284,31.381246]},"properties":{"name":"Smeiri","arabic":"سميري","pcode":"0","region":"gaza","currency_note":"Administrative geography as at 2019-07-18. Predates October 2023 and describes how Gaza was defined, not what still stands.","source_crs":"EPSG:4326","evidence_ref":["be44b9b90e"]}},{"type":"Feature","geometry":{"type":"Point","coordinates":[34.367056,31.385545]},"properties":{"name":"Abu Thaher","arabic":"أبو ظاهر","pcode":"0","region":"gaza","currency_note":"Administrative geography as at 2019-07-18. Predates October 2023 and describes how Gaza was defined, not what still stands.","source_crs":"EPSG:4326","evidence_ref":["be44b9b90e"]}},{"type":"Feature","geometry":{"type":"Point","coordinates":[34.347605,31.347077]},"properties":{"name":"Ar-Radwan","arabic":"الرضوان","pcode":"0","region":"gaza","currency_note":"Administrative geography as at 2019-07-18. Predates October 2023 and describes how Gaza was defined, not what still stands.","source_crs":"EPSG:4326","evidence_ref":["be44b9b90e"]}},{"type":"Feature","geometry":{"type":"Point","coordinates":[34.345633,31.34343]},"properties":{"name":"An-Nai'm","arabic":"النعيم","pcode":"0","region":"gaza","currency_note":"Administrative geography as at 2019-07-18. Predates October 2023 and describes how Gaza was defined, not what still stands.","source_crs":"EPSG:4326","evidence_ref":["be44b9b90e"]}},{"type":"Feature","geometry":{"type":"Point","coordinates":[34.356057,31.342015]},"properties":{"name":"As Salam","arabic":"السلام","pcode":"0","region":"gaza","currency_note":"Administrative geography as at 2019-07-18. Predates October 2023 and describes how Gaza was defined, not what still stands.","source_crs":"EPSG:4326","evidence_ref":["be44b9b90e"]}},{"type":"Feature","geometry":{"type":"Point","coordinates":[34.343479,31.340031]},"properties":{"name":"Al-Worood","arabic":"الورود","pcode":"0","region":"gaza","currency_note":"Administrative geography as at 2019-07-18. Predates October 2023 and describes how Gaza was defined, not what still stands.","source_crs":"EPSG:4326","evidence_ref":["be44b9b90e"]}},{"type":"Feature","geometry":{"type":"Point","coordinates":[34.349425,31.341128]},"properties":{"name":"Al Wasta","arabic":"الوسطى","pcode":"0","region":"gaza","currency_note":"Administrative geography as at 2019-07-18. Predates October 2023 and describes how Gaza was defined, not what still stands.","source_crs":"EPSG:4326","evidence_ref":["be44b9b90e"]}},{"type":"Feature","geometry":{"type":"Point","coordinates":[34.342173,31.337919]},"properties":{"name":"As Sahabeh","arabic":"الصحابة","pcode":"0","region":"gaza","currency_note":"Administrative geography as at 2019-07-18. Predates October 2023 and describes how Gaza was defined, not what still stands.","source_crs":"EPSG:4326","evidence_ref":["be44b9b90e"]}},{"type":"Feature","geometry":{"type":"Point","coordinates":[34.35734,31.339882]},"properties":{"name":"Ar Rabei'i","arabic":"الوسطى","pcode":"0","region":"gaza","currency_note":"Administrative geography as at 2019-07-18. Predates October 2023 and describes how Gaza was defined, not what still stands.","source_crs":"EPSG:4326","evidence_ref":["be44b9b90e"]}},{"type":"Feature","geometry":{"type":"Point","coordinates":[34.359647,31.311878]},"properties":{"name":"Al Farra","arabic":"الفرا","pcode":"0","region":"gaza","currency_note":"Administrative geography as at 2019-07-18. Predates October 2023 and describes how Gaza was defined, not what still stands.","source_crs":"EPSG:4326","evidence_ref":["be44b9b90e"]}},{"type":"Feature","geometry":{"type":"Point","coordinates":[34.3633,31.314559]},"properties":{"name":"Abu al-A'awar","arabic":"ابو الأعور","pcode":"0","region":"gaza","currency_note":"Administrative geography as at 2019-07-18. Predates October 2023 and describes how Gaza was defined, not what still stands.","source_crs":"EPSG:4326","evidence_ref":["be44b9b90e"]}},{"type":"Feature","geometry":{"type":"Point","coordinates":[34.365353,31.311019]},"properties":{"name":"Azata","arabic":"عزاتا","pcode":"0","region":"gaza","currency_note":"Administrative geography as at 2019-07-18. Predates October 2023 and describes how Gaza was defined, not what still stands.","source_crs":"EPSG:4326","evidence_ref":["be44b9b90e"]}},{"type":"Feature","geometry":{"type":"Point","coordinates":[34.362342,31.310323]},"properties":{"name":"Najjar","arabic":"نجار","pcode":"0","region":"gaza","currency_note":"Administrative geography as at 2019-07-18. Predates October 2023 and describes how Gaza was defined, not what still stands.","source_crs":"EPSG:4326","evidence_ref":["be44b9b90e"]}},{"type":"Feature","geometry":{"type":"Point","coordinates":[34.363281,31.308258]},"properties":{"name":"Ishnino","arabic":"اشنينو","pcode":"0","region":"gaza","currency_note":"Administrative geography as at 2019-07-18. Predates October 2023 and describes how Gaza was defined, not what still stands.","source_crs":"EPSG:4326","evidence_ref":["be44b9b90e"]}},{"type":"Feature","geometry":{"type":"Point","coordinates":[34.359174,31.308312]},"properties":{"name":"Irjeileh","arabic":"ارجيلة","pcode":"0","region":"gaza","currency_note":"Administrative geography as at 2019-07-18. Predates October 2023 and describes how Gaza was defined, not what still stands.","source_crs":"EPSG:4326","evidence_ref":["be44b9b90e"]}},{"type":"Feature","geometry":{"type":"Point","coordinates":[34.356644,31.307934]},"properties":{"name":"Radwan","arabic":"رضوان","pcode":"0","region":"gaza","currency_note":"Administrative geography as at 2019-07-18. Predates October 2023 and describes how Gaza was defined, not what still stands.","source_crs":"EPSG:4326","evidence_ref":["be44b9b90e"]}},{"type":"Feature","geometry":{"type":"Point","coordinates":[34.362043,31.305122]},"properties":{"name":"Abu Ali","arabic":"ابو علي","pcode":"0","region":"gaza","currency_note":"Administrative geography as at 2019-07-18. Predates October 2023 and describes how Gaza was defined, not what still stands.","source_crs":"EPSG:4326","evidence_ref":["be44b9b90e"]}},{"type":"Feature","geometry":{"type":"Point","coordinates":[34.360549,31.304168]},"properties":{"name":"Suboh","arabic":"صبح","pcode":"0","region":"gaza","currency_note":"Administrative geography as at 2019-07-18. Predates October 2023 and describes how Gaza was defined, not what still stands.","source_crs":"EPSG:4326","evidence_ref":["be44b9b90e"]}},{"type":"Feature","geometry":{"type":"Point","coordinates":[34.359012,31.303237]},"properties":{"name":"Rook","arabic":"روك","pcode":"0","region":"gaza","currency_note":"Administrative geography as at 2019-07-18. Predates October 2023 and describes how Gaza was defined, not what still stands.","source_crs":"EPSG:4326","evidence_ref":["be44b9b90e"]}},{"type":"Feature","geometry":{"type":"Point","coordinates":[34.35443,31.301775]},"properties":{"name":"Abu Reeda","arabic":"ابو ريدة","pcode":"0","region":"gaza","currency_note":"Administrative geography as at 2019-07-18. Predates October 2023 and describes how Gaza was defined, not what still stands.","source_crs":"EPSG:4326","evidence_ref":["be44b9b90e"]}},{"type":"Feature","geometry":{"type":"Point","coordinates":[34.350668,31.299499]},"properties":{"name":"Al wodd","arabic":"الود","pcode":"0","region":"gaza","currency_note":"Administrative geography as at 2019-07-18. Predates October 2023 and describes how Gaza was defined, not what still stands.","source_crs":"EPSG:4326","evidence_ref":["be44b9b90e"]}},{"type":"Feature","geometry":{"type":"Point","coordinates":[34.408523,31.464952]},"properties":{"name":"Al Iman","arabic":"الإيمان","pcode":"0","region":"gaza","currency_note":"Administrative geography as at 2019-07-18. Predates October 2023 and describes how Gaza was defined, not what still stands.","source_crs":"EPSG:4326","evidence_ref":["be44b9b90e"]}},{"type":"Feature","geometry":{"type":"Point","coordinates":[34.402151,31.466889]},"properties":{"name":"At Taqwa","arabic":"التقوى","pcode":"0","region":"gaza","currency_note":"Administrative geography as at 2019-07-18. Predates October 2023 and describes how Gaza was defined, not what still stands.","source_crs":"EPSG:4326","evidence_ref":["be44b9b90e"]}},{"type":"Feature","geometry":{"type":"Point","coordinates":[34.403208,31.462292]},"properties":{"name":"Abu Huraira","arabic":"أبوهريرة","pcode":"0","region":"gaza","currency_note":"Administrative geography as at 2019-07-18. Predates October 2023 and describes how Gaza was defined, not what still stands.","source_crs":"EPSG:4326","evidence_ref":["be44b9b90e"]}},{"type":"Feature","geometry":{"type":"Point","coordinates":[34.412445,31.470982]},"properties":{"name":"Bader","arabic":"بدر","pcode":"0","region":"gaza","currency_note":"Administrative geography as at 2019-07-18. Predates October 2023 and describes how Gaza was defined, not what still stands.","source_crs":"EPSG:4326","evidence_ref":["be44b9b90e"]}},{"type":"Feature","geometry":{"type":"Point","coordinates":[34.414477,31.45928]},"properties":{"name":"Ar Rahmah","arabic":"الرحمة","pcode":"0","region":"gaza","currency_note":"Administrative geography as at 2019-07-18. Predates October 2023 and describes how Gaza was defined, not what still stands.","source_crs":"EPSG:4326","evidence_ref":["be44b9b90e"]}},{"type":"Feature","geometry":{"type":"Point","coordinates":[34.420083,31.463474]},"properties":{"name":"Al Qadisiah","arabic":"القادسية","pcode":"0","region":"gaza","currency_note":"Administrative geography as at 2019-07-18. Predates October 2023 and describes how Gaza was defined, not what still stands.","source_crs":"EPSG:4326","evidence_ref":["be44b9b90e"]}},{"type":"Feature","geometry":{"type":"Point","coordinates":[34.422352,31.445697]},"properties":{"name":"Al Wadi","arabic":"الوادي","pcode":"0","region":"gaza","currency_note":"Administrative geography as at 2019-07-18. Predates October 2023 and describes how Gaza was defined, not what still stands.","source_crs":"EPSG:4326","evidence_ref":["be44b9b90e"]}},{"type":"Feature","geometry":{"type":"Point","coordinates":[34.396012,31.474646]},"properties":{"name":"Az Zahra'a","arabic":"الزهراء","pcode":"0","region":"gaza","currency_note":"Administrative geography as at 2019-07-18. Predates October 2023 and describes how Gaza was defined, not what still stands.","source_crs":"EPSG:4326","evidence_ref":["be44b9b90e"]}},{"type":"Feature","geometry":{"type":"Point","coordinates":[34.414012,31.466312]},"properties":{"name":"Al Huda","arabic":"الهدى","pcode":"0","region":"gaza","currency_note":"Administrative geography as at 2019-07-18. Predates October 2023 and describes how Gaza was defined, not what still stands.","source_crs":"EPSG:4326","evidence_ref":["be44b9b90e"]}},{"type":"Feature","geometry":{"type":"Point","coordinates":[34.419062,31.469563]},"properties":{"name":"As Saqa","arabic":"السقا","pcode":"0","region":"gaza","currency_note":"Administrative geography as at 2019-07-18. Predates October 2023 and describes how Gaza was defined, not what still stands.","source_crs":"EPSG:4326","evidence_ref":["be44b9b90e"]}},{"type":"Feature","geometry":{"type":"Point","coordinates":[34.395212,31.411743]},"properties":{"name":"Al Ansar","arabic":"الأنصار","pcode":"0","region":"gaza","currency_note":"Administrative geography as at 2019-07-18. Predates October 2023 and describes how Gaza was defined, not what still stands.","source_crs":"EPSG:4326","evidence_ref":["be44b9b90e"]}},{"type":"Feature","geometry":{"type":"Point","coordinates":[34.358307,31.405423]},"properties":{"name":"Al Mahatta","arabic":"المحطة","pcode":"0","region":"gaza","currency_note":"Administrative geography as at 2019-07-18. Predates October 2023 and describes how Gaza was defined, not what still stands.","source_crs":"EPSG:4326","evidence_ref":["be44b9b90e"]}},{"type":"Feature","geometry":{"type":"Point","coordinates":[34.360228,31.44475]},"properties":{"name":"Ar Rasheed","arabic":"الرشيد","pcode":"0","region":"gaza","currency_note":"Administrative geography as at 2019-07-18. Predates October 2023 and describes how Gaza was defined, not what still stands.","source_crs":"EPSG:4326","evidence_ref":["be44b9b90e"]}},{"type":"Feature","geometry":{"type":"Point","coordinates":[34.364632,31.442524]},"properties":{"name":"As Samah","arabic":"السماح","pcode":"0","region":"gaza","currency_note":"Administrative geography as at 2019-07-18. Predates October 2023 and describes how Gaza was defined, not what still stands.","source_crs":"EPSG:4326","evidence_ref":["be44b9b90e"]}},{"type":"Feature","geometry":{"type":"Point","coordinates":[34.357954,31.437353]},"properties":{"name":"As Sahabah","arabic":"الصحابة","pcode":"0","region":"gaza","currency_note":"Administrative geography as at 2019-07-18. Predates October 2023 and describes how Gaza was defined, not what still stands.","source_crs":"EPSG:4326","evidence_ref":["be44b9b90e"]}},{"type":"Feature","geometry":{"type":"Point","coordinates":[34.357005,31.42973]},"properties":{"name":"As Salah","arabic":"الصلاح","pcode":"0","region":"gaza","currency_note":"Administrative geography as at 2019-07-18. Predates October 2023 and describes how Gaza was defined, not what still stands.","source_crs":"EPSG:4326","evidence_ref":["be44b9b90e"]}},{"type":"Feature","geometry":{"type":"Point","coordinates":[34.370423,31.440484]},"properties":{"name":"Al Awda","arabic":"العودة","pcode":"0","region":"gaza","currency_note":"Administrative geography as at 2019-07-18. Predates October 2023 and describes how Gaza was defined, not what still stands.","source_crs":"EPSG:4326","evidence_ref":["be44b9b90e"]}},{"type":"Feature","geometry":{"type":"Point","coordinates":[34.376537,31.436465]},"properties":{"name":"As Siddeq","arabic":"الصدّيق","pcode":"0","region":"gaza","currency_note":"Administrative geography as at 2019-07-18. Predates October 2023 and describes how Gaza was defined, not what still stands.","source_crs":"EPSG:4326","evidence_ref":["be44b9b90e"]}},{"type":"Feature","geometry":{"type":"Point","coordinates":[34.380763,31.433355]},"properties":{"name":"Al Farouq","arabic":"الفاروق","pcode":"0","region":"gaza","currency_note":"Administrative geography as at 2019-07-18. Predates October 2023 and describes how Gaza was defined, not what still stands.","source_crs":"EPSG:4326","evidence_ref":["be44b9b90e"]}},{"type":"Feature","geometry":{"type":"Point","coordinates":[34.368151,31.433699]},"properties":{"name":"Ansar","arabic":"أنصار","pcode":"0","region":"gaza","currency_note":"Administrative geography as at 2019-07-18. Predates October 2023 and describes how Gaza was defined, not what still stands.","source_crs":"EPSG:4326","evidence_ref":["be44b9b90e"]}},{"type":"Feature","geometry":{"type":"Point","coordinates":[34.369159,31.425517]},"properties":{"name":"Al Amal","arabic":"الأمل","pcode":"0","region":"gaza","currency_note":"Administrative geography as at 2019-07-18. Predates October 2023 and describes how Gaza was defined, not what still stands.","source_crs":"EPSG:4326","evidence_ref":["be44b9b90e"]}},{"type":"Feature","geometry":{"type":"Point","coordinates":[34.374547,31.428468]},"properties":{"name":"Salah Ad-Din","arabic":"صلاح الدين","pcode":"0","region":"gaza","currency_note":"Administrative geography as at 2019-07-18. Predates October 2023 and describes how Gaza was defined, not what still stands.","source_crs":"EPSG:4326","evidence_ref":["be44b9b90e"]}},{"type":"Feature","geometry":{"type":"Point","coordinates":[34.371211,31.413154]},"properties":{"name":"As Safa","arabic":"الصفا","pcode":"0","region":"gaza","currency_note":"Administrative geography as at 2019-07-18. Predates October 2023 and describes how Gaza was defined, not what still stands.","source_crs":"EPSG:4326","evidence_ref":["be44b9b90e"]}},{"type":"Feature","geometry":{"type":"Point","coordinates":[34.381597,31.407976]},"properties":{"name":"Ad Damitha'a","arabic":"الدميثاء","pcode":"0","region":"gaza","currency_note":"Administrative geography as at 2019-07-18. Predates October 2023 and describes how Gaza was defined, not what still stands.","source_crs":"EPSG:4326","evidence_ref":["be44b9b90e"]}},{"type":"Feature","geometry":{"type":"Point","coordinates":[34.375894,31.418861]},"properties":{"name":"As Sidra","arabic":"السدرة","pcode":"0","region":"gaza","currency_note":"Administrative geography as at 2019-07-18. Predates October 2023 and describes how Gaza was defined, not what still stands.","source_crs":"EPSG:4326","evidence_ref":["be44b9b90e"]}},{"type":"Feature","geometry":{"type":"Point","coordinates":[34.385516,31.413937]},"properties":{"name":"Al Basateen","arabic":"البساتين","pcode":"0","region":"gaza","currency_note":"Administrative geography as at 2019-07-18. Predates October 2023 and describes how Gaza was defined, not what still stands.","source_crs":"EPSG:4326","evidence_ref":["be44b9b90e"]}},{"type":"Feature","geometry":{"type":"Point","coordinates":[34.343484,31.416913]},"properties":{"name":"Yafa","arabic":"يافا","pcode":"0","region":"gaza","currency_note":"Administrative geography as at 2019-07-18. Predates October 2023 and describes how Gaza was defined, not what still stands.","source_crs":"EPSG:4326","evidence_ref":["be44b9b90e"]}},{"type":"Feature","geometry":{"type":"Point","coordinates":[34.338332,31.420899]},"properties":{"name":"Al Bruk","arabic":"البروك","pcode":"0","region":"gaza","currency_note":"Administrative geography as at 2019-07-18. Predates October 2023 and describes how Gaza was defined, not what still stands.","source_crs":"EPSG:4326","evidence_ref":["be44b9b90e"]}},{"type":"Feature","geometry":{"type":"Point","coordinates":[34.349448,31.426953]},"properties":{"name":"Al Bassa","arabic":"البصة","pcode":"0","region":"gaza","currency_note":"Administrative geography as at 2019-07-18. Predates October 2023 and describes how Gaza was defined, not what still stands.","source_crs":"EPSG:4326","evidence_ref":["be44b9b90e"]}},{"type":"Feature","geometry":{"type":"Point","coordinates":[34.34645,31.42339]},"properties":{"name":"As Salam","arabic":"الســلام","pcode":"0","region":"gaza","currency_note":"Administrative geography as at 2019-07-18. Predates October 2023 and describes how Gaza was defined, not what still stands.","source_crs":"EPSG:4326","evidence_ref":["be44b9b90e"]}},{"type":"Feature","geometry":{"type":"Point","coordinates":[34.344067,31.410867]},"properties":{"name":"Al Hikr","arabic":"الحكر","pcode":"0","region":"gaza","currency_note":"Administrative geography as at 2019-07-18. Predates October 2023 and describes how Gaza was defined, not what still stands.","source_crs":"EPSG:4326","evidence_ref":["be44b9b90e"]}},{"type":"Feature","geometry":{"type":"Point","coordinates":[34.358445,31.417958]},"properties":{"name":"Al Balad","arabic":"البلد","pcode":"0","region":"gaza","currency_note":"Administrative geography as at 2019-07-18. Predates October 2023 and describes how Gaza was defined, not what still stands.","source_crs":"EPSG:4326","evidence_ref":["be44b9b90e"]}},{"type":"Feature","geometry":{"type":"Point","coordinates":[34.348192,31.434156]},"properties":{"name":"Ar Rasheed","arabic":"الرشيـد","pcode":"0","region":"gaza","currency_note":"Administrative geography as at 2019-07-18. Predates October 2023 and describes how Gaza was defined, not what still stands.","source_crs":"EPSG:4326","evidence_ref":["be44b9b90e"]}},{"type":"Feature","geometry":{"type":"Point","coordinates":[34.36725,31.419963]},"properties":{"name":"Ar Rahmeh","arabic":"الرحمـة","pcode":"0","region":"gaza","currency_note":"Administrative geography as at 2019-07-18. Predates October 2023 and describes how Gaza was defined, not what still stands.","source_crs":"EPSG:4326","evidence_ref":["be44b9b90e"]}},{"type":"Feature","geometry":{"type":"Point","coordinates":[34.362529,31.426739]},"properties":{"name":"Tal Az-Zuhour","arabic":"تل الزهور","pcode":"0","region":"gaza","currency_note":"Administrative geography as at 2019-07-18. Predates October 2023 and describes how Gaza was defined, not what still stands.","source_crs":"EPSG:4326","evidence_ref":["be44b9b90e"]}},{"type":"Feature","geometry":{"type":"Point","coordinates":[34.30968,31.31298]},"properties":{"name":"Al Manarah","arabic":"المنارة","pcode":"0","region":"gaza","currency_note":"Administrative geography as at 2019-07-18. Predates October 2023 and describes how Gaza was defined, not what still stands.","source_crs":"EPSG:4326","evidence_ref":["be44b9b90e"]}},{"type":"Feature","geometry":{"type":"Point","coordinates":[34.332127,31.397945]},"properties":{"name":"Al Birkeh","arabic":"البركة","pcode":"0","region":"gaza","currency_note":"Administrative geography as at 2019-07-18. Predates October 2023 and describes how Gaza was defined, not what still stands.","source_crs":"EPSG:4326","evidence_ref":["be44b9b90e"]}},{"type":"Feature","geometry":{"type":"Point","coordinates":[34.313585,31.378047]},"properties":{"name":"Al Jala'a","arabic":"الجلاء","pcode":"0","region":"gaza","currency_note":"Administrative geography as at 2019-07-18. Predates October 2023 and describes how Gaza was defined, not what still stands.","source_crs":"EPSG:4326","evidence_ref":["be44b9b90e"]}},{"type":"Feature","geometry":{"type":"Point","coordinates":[34.293653,31.364963]},"properties":{"name":"An Naser","arabic":"النصــر","pcode":"0","region":"gaza","currency_note":"Administrative geography as at 2019-07-18. Predates October 2023 and describes how Gaza was defined, not what still stands.","source_crs":"EPSG:4326","evidence_ref":["be44b9b90e"]}},{"type":"Feature","geometry":{"type":"Point","coordinates":[34.323456,31.364247]},"properties":{"name":"As Sater","arabic":"السطر","pcode":"0","region":"gaza","currency_note":"Administrative geography as at 2019-07-18. Predates October 2023 and describes how Gaza was defined, not what still stands.","source_crs":"EPSG:4326","evidence_ref":["be44b9b90e"]}},{"type":"Feature","geometry":{"type":"Point","coordinates":[34.313782,31.350649]},"properties":{"name":"Al Mahattah","arabic":"المحطـة","pcode":"0","region":"gaza","currency_note":"Administrative geography as at 2019-07-18. Predates October 2023 and describes how Gaza was defined, not what still stands.","source_crs":"EPSG:4326","evidence_ref":["be44b9b90e"]}},{"type":"Feature","geometry":{"type":"Point","coordinates":[34.298363,31.355365]},"properties":{"name":"Al Amal","arabic":"الأمـل","pcode":"0","region":"gaza","currency_note":"Administrative geography as at 2019-07-18. Predates October 2023 and describes how Gaza was defined, not what still stands.","source_crs":"EPSG:4326","evidence_ref":["be44b9b90e"]}},{"type":"Feature","geometry":{"type":"Point","coordinates":[34.271593,31.341904]},"properties":{"name":"At Tahrir","arabic":"التحرير","pcode":"0","region":"gaza","currency_note":"Administrative geography as at 2019-07-18. Predates October 2023 and describes how Gaza was defined, not what still stands.","source_crs":"EPSG:4326","evidence_ref":["be44b9b90e"]}},{"type":"Feature","geometry":{"type":"Point","coordinates":[34.308928,31.359574]},"properties":{"name":"Al Kateebeh","arabic":"الكتيبة","pcode":"0","region":"gaza","currency_note":"Administrative geography as at 2019-07-18. Predates October 2023 and describes how Gaza was defined, not what still stands.","source_crs":"EPSG:4326","evidence_ref":["be44b9b90e"]}},{"type":"Feature","geometry":{"type":"Point","coordinates":[34.283762,31.328959]},"properties":{"name":"Qizan Abu Rashwan","arabic":"قيزان أبو رشوان","pcode":"0","region":"gaza","currency_note":"Administrative geography as at 2019-07-18. Predates October 2023 and describes how Gaza was defined, not what still stands.","source_crs":"EPSG:4326","evidence_ref":["be44b9b90e"]}},{"type":"Feature","geometry":{"type":"Point","coordinates":[34.292825,31.338514]},"properties":{"name":"Batn As-Sameen","arabic":"بطن السمين","pcode":"0","region":"gaza","currency_note":"Administrative geography as at 2019-07-18. Predates October 2023 and describes how Gaza was defined, not what still stands.","source_crs":"EPSG:4326","evidence_ref":["be44b9b90e"]}},{"type":"Feature","geometry":{"type":"Point","coordinates":[34.294644,31.320281]},"properties":{"name":"Qizan An-Najjar","arabic":"قيزان النجار","pcode":"0","region":"gaza","currency_note":"Administrative geography as at 2019-07-18. Predates October 2023 and describes how Gaza was defined, not what still stands.","source_crs":"EPSG:4326","evidence_ref":["be44b9b90e"]}},{"type":"Feature","geometry":{"type":"Point","coordinates":[34.302475,31.342836]},"properties":{"name":"City Centre","arabic":"مركز المدينة","pcode":"0","region":"gaza","currency_note":"Administrative geography as at 2019-07-18. Predates October 2023 and describes how Gaza was defined, not what still stands.","source_crs":"EPSG:4326","evidence_ref":["be44b9b90e"]}},{"type":"Feature","geometry":{"type":"Point","coordinates":[34.31683,31.330088]},"properties":{"name":"Ma'in","arabic":"معــن","pcode":"0","region":"gaza","currency_note":"Administrative geography as at 2019-07-18. Predates October 2023 and describes how Gaza was defined, not what still stands.","source_crs":"EPSG:4326","evidence_ref":["be44b9b90e"]}},{"type":"Feature","geometry":{"type":"Point","coordinates":[34.312542,31.340414]},"properties":{"name":"Ash Sheih Naser","arabic":"الشيخ ناصر","pcode":"0","region":"gaza","currency_note":"Administrative geography as at 2019-07-18. Predates October 2023 and describes how Gaza was defined, not what still stands.","source_crs":"EPSG:4326","evidence_ref":["be44b9b90e"]}},{"type":"Feature","geometry":{"type":"Point","coordinates":[34.304134,31.332535]},"properties":{"name":"Jourat Al-Loot","arabic":"جورة اللوت","pcode":"0","region":"gaza","currency_note":"Administrative geography as at 2019-07-18. Predates October 2023 and describes how Gaza was defined, not what still stands.","source_crs":"EPSG:4326","evidence_ref":["be44b9b90e"]}},{"type":"Feature","geometry":{"type":"Point","coordinates":[34.293894,31.303616]},"properties":{"name":"As Salam","arabic":"الســــلام","pcode":"0","region":"gaza","currency_note":"Administrative geography as at 2019-07-18. Predates October 2023 and describes how Gaza was defined, not what still stands.","source_crs":"EPSG:4326","evidence_ref":["be44b9b90e"]}},{"type":"Feature","geometry":{"type":"Point","coordinates":[34.260771,31.261543]},"properties":{"name":"As Salam","arabic":"السلام","pcode":"0","region":"gaza","currency_note":"Administrative geography as at 2019-07-18. Predates October 2023 and describes how Gaza was defined, not what still stands.","source_crs":"EPSG:4326","evidence_ref":["be44b9b90e"]}},{"type":"Feature","geometry":{"type":"Point","coordinates":[34.237679,31.317938]},"properties":{"name":"Al Muharrarat","arabic":"المحررات","pcode":"0","region":"gaza","currency_note":"Administrative geography as at 2019-07-18. Predates October 2023 and describes how Gaza was defined, not what still stands.","source_crs":"EPSG:4326","evidence_ref":["be44b9b90e"]}},{"type":"Feature","geometry":{"type":"Point","coordinates":[34.245755,31.297258]},"properties":{"name":"Rafah Al-Gharbieh","arabic":"رفح الغربية","pcode":"0","region":"gaza","currency_note":"Administrative geography as at 2019-07-18. Predates October 2023 and describes how Gaza was defined, not what still stands.","source_crs":"EPSG:4326","evidence_ref":["be44b9b90e"]}},{"type":"Feature","geometry":{"type":"Point","coordinates":[34.279357,31.273539]},"properties":{"name":"Tabbet Zare'i","arabic":"تبة زارع","pcode":"0","region":"gaza","currency_note":"Administrative geography as at 2019-07-18. Predates October 2023 and describes how Gaza was defined, not what still stands.","source_crs":"EPSG:4326","evidence_ref":["be44b9b90e"]}},{"type":"Feature","geometry":{"type":"Point","coordinates":[34.271161,31.287222]},"properties":{"name":"Khirbet Al-'Adas","arabic":"خربة العدس","pcode":"0","region":"gaza","currency_note":"Administrative geography as at 2019-07-18. Predates October 2023 and describes how Gaza was defined, not what still stands.","source_crs":"EPSG:4326","evidence_ref":["be44b9b90e"]}},{"type":"Feature","geometry":{"type":"Point","coordinates":[34.240045,31.308096]},"properties":{"name":"Tal As-Sultan","arabic":"تل السلطان","pcode":"0","region":"gaza","currency_note":"Administrative geography as at 2019-07-18. Predates October 2023 and describes how Gaza was defined, not what still stands.","source_crs":"EPSG:4326","evidence_ref":["be44b9b90e"]}},{"type":"Feature","geometry":{"type":"Point","coordinates":[34.276878,31.299926]},"properties":{"name":"Msabbeh","arabic":"مصبّح","pcode":"0","region":"gaza","currency_note":"Administrative geography as at 2019-07-18. Predates October 2023 and describes how Gaza was defined, not what still stands.","source_crs":"EPSG:4326","evidence_ref":["be44b9b90e"]}},{"type":"Feature","geometry":{"type":"Point","coordinates":[34.2985,31.286847]},"properties":{"name":"An Naser","arabic":"النصر","pcode":"0","region":"gaza","currency_note":"Administrative geography as at 2019-07-18. Predates October 2023 and describes how Gaza was defined, not what still stands.","source_crs":"EPSG:4326","evidence_ref":["be44b9b90e"]}},{"type":"Feature","geometry":{"type":"Point","coordinates":[34.269625,31.270779]},"properties":{"name":"Al Jneineh","arabic":"الجنينة","pcode":"0","region":"gaza","currency_note":"Administrative geography as at 2019-07-18. Predates October 2023 and describes how Gaza was defined, not what still stands.","source_crs":"EPSG:4326","evidence_ref":["be44b9b90e"]}},{"type":"Feature","geometry":{"type":"Point","coordinates":[34.256756,31.276369]},"properties":{"name":"Al Idari","arabic":"الإداري","pcode":"0","region":"gaza","currency_note":"Administrative geography as at 2019-07-18. Predates October 2023 and describes how Gaza was defined, not what still stands.","source_crs":"EPSG:4326","evidence_ref":["be44b9b90e"]}},{"type":"Feature","geometry":{"type":"Point","coordinates":[34.263608,31.306853]},"properties":{"name":"Al Hashash","arabic":"الحشاش","pcode":"0","region":"gaza","currency_note":"Administrative geography as at 2019-07-18. Predates October 2023 and describes how Gaza was defined, not what still stands.","source_crs":"EPSG:4326","evidence_ref":["be44b9b90e"]}},{"type":"Feature","geometry":{"type":"Point","coordinates":[34.250522,31.291195]},"properties":{"name":"Ash Shabbourah","arabic":"الشابورة","pcode":"0","region":"gaza","currency_note":"Administrative geography as at 2019-07-18. Predates October 2023 and describes how Gaza was defined, not what still stands.","source_crs":"EPSG:4326","evidence_ref":["be44b9b90e"]}},{"type":"Feature","geometry":{"type":"Point","coordinates":[34.262231,31.294657]},"properties":{"name":"Az Zohour","arabic":"الزهـور","pcode":"0","region":"gaza","currency_note":"Administrative geography as at 2019-07-18. Predates October 2023 and describes how Gaza was defined, not what still stands.","source_crs":"EPSG:4326","evidence_ref":["be44b9b90e"]}},{"type":"Feature","geometry":{"type":"Point","coordinates":[34.469042,31.491339]},"properties":{"name":"At Turukman - Ijdeedeh","arabic":"الشجاعية - التركمان","pcode":"0","region":"gaza","currency_note":"Administrative geography as at 2019-07-18. Predates October 2023 and describes how Gaza was defined, not what still stands.","source_crs":"EPSG:4326","evidence_ref":["be44b9b90e"]}},{"type":"Feature","geometry":{"type":"Point","coordinates":[34.499777,31.557306]},"properties":{"name":"Ash Shaima'a","arabic":"الشيماء","pcode":"0","region":"gaza","currency_note":"Administrative geography as at 2019-07-18. Predates October 2023 and describes how Gaza was defined, not what still stands.","source_crs":"EPSG:4326","evidence_ref":["be44b9b90e"]}},{"type":"Feature","geometry":{"type":"Point","coordinates":[34.473294,31.55867]},"properties":{"name":"Mashroo Amer wal Isra'a","arabic":"مشروع عامر والإسراء","pcode":"0","region":"gaza","currency_note":"Administrative geography as at 2019-07-18. Predates October 2023 and describes how Gaza was defined, not what still stands.","source_crs":"EPSG:4326","evidence_ref":["be44b9b90e"]}},{"type":"Feature","geometry":{"type":"Point","coordinates":[34.493785,31.561735]},"properties":{"name":"Ghobon","arabic":"غبــن","pcode":"0","region":"gaza","currency_note":"Administrative geography as at 2019-07-18. Predates October 2023 and describes how Gaza was defined, not what still stands.","source_crs":"EPSG:4326","evidence_ref":["be44b9b90e"]}},{"type":"Feature","geometry":{"type":"Point","coordinates":[34.515937,31.537275]},"properties":{"name":"Madinat Ash Sheikh Zayed","arabic":"مدينة الشيخ زايد","pcode":"0","region":"gaza","currency_note":"Administrative geography as at 2019-07-18. Predates October 2023 and describes how Gaza was defined, not what still stands.","source_crs":"EPSG:4326","evidence_ref":["be44b9b90e"]}},{"type":"Feature","geometry":{"type":"Point","coordinates":[34.508377,31.546575]},"properties":{"name":"Al Manshieh","arabic":"المنشية","pcode":"0","region":"gaza","currency_note":"Administrative geography as at 2019-07-18. Predates October 2023 and describes how Gaza was defined, not what still stands.","source_crs":"EPSG:4326","evidence_ref":["be44b9b90e"]}},{"type":"Feature","geometry":{"type":"Point","coordinates":[34.505771,31.55523]},"properties":{"name":"Fad'os","arabic":"فدعوس","pcode":"0","region":"gaza","currency_note":"Administrative geography as at 2019-07-18. Predates October 2023 and describes how Gaza was defined, not what still stands.","source_crs":"EPSG:4326","evidence_ref":["be44b9b90e"]}},{"type":"Feature","geometry":{"type":"Point","coordinates":[34.490031,31.549818]},"properties":{"name":"Al Karameh","arabic":"الكرامة","pcode":"0","region":"gaza","currency_note":"Administrative geography as at 2019-07-18. Predates October 2023 and describes how Gaza was defined, not what still stands.","source_crs":"EPSG:4326","evidence_ref":["be44b9b90e"]}},{"type":"Feature","geometry":{"type":"Point","coordinates":[34.481361,31.533996]},"properties":{"name":"An Nahdah","arabic":"النهضة","pcode":"0","region":"gaza","currency_note":"Administrative geography as at 2019-07-18. Predates October 2023 and describes how Gaza was defined, not what still stands.","source_crs":"EPSG:4326","evidence_ref":["be44b9b90e"]}},{"type":"Feature","geometry":{"type":"Point","coordinates":[34.473807,31.540078]},"properties":{"name":"Ibad Ar-Rahman","arabic":"عباد الرحمن","pcode":"0","region":"gaza","currency_note":"Administrative geography as at 2019-07-18. Predates October 2023 and describes how Gaza was defined, not what still stands.","source_crs":"EPSG:4326","evidence_ref":["be44b9b90e"]}},{"type":"Feature","geometry":{"type":"Point","coordinates":[34.497845,31.516255]},"properties":{"name":"As-Salam","arabic":"السـلام","pcode":"0","region":"gaza","currency_note":"Administrative geography as at 2019-07-18. Predates October 2023 and describes how Gaza was defined, not what still stands.","source_crs":"EPSG:4326","evidence_ref":["be44b9b90e"]}},{"type":"Feature","geometry":{"type":"Point","coordinates":[34.482362,31.522832]},"properties":{"name":"Ar Rawdah","arabic":"الروضة","pcode":"0","region":"gaza","currency_note":"Administrative geography as at 2019-07-18. Predates October 2023 and describes how Gaza was defined, not what still stands.","source_crs":"EPSG:4326","evidence_ref":["be44b9b90e"]}},{"type":"Feature","geometry":{"type":"Point","coordinates":[34.505359,31.522771]},"properties":{"name":"An Nur","arabic":"النور","pcode":"0","region":"gaza","currency_note":"Administrative geography as at 2019-07-18. Predates October 2023 and describes how Gaza was defined, not what still stands.","source_crs":"EPSG:4326","evidence_ref":["be44b9b90e"]}},{"type":"Feature","geometry":{"type":"Point","coordinates":[34.49443,31.525764]},"properties":{"name":"An Nuzhah","arabic":"النزهة","pcode":"0","region":"gaza","currency_note":"Administrative geography as at 2019-07-18. Predates October 2023 and describes how Gaza was defined, not what still stands.","source_crs":"EPSG:4326","evidence_ref":["be44b9b90e"]}},{"type":"Feature","geometry":{"type":"Point","coordinates":[34.506555,31.531403]},"properties":{"name":"Tal Az-Za'atar","arabic":"تل الزعتر","pcode":"0","region":"gaza","currency_note":"Administrative geography as at 2019-07-18. Predates October 2023 and describes how Gaza was defined, not what still stands.","source_crs":"EPSG:4326","evidence_ref":["be44b9b90e"]}},{"type":"Feature","geometry":{"type":"Point","coordinates":[34.486667,31.542257]},"properties":{"name":"Az Zohour","arabic":"الزهور","pcode":"0","region":"gaza","currency_note":"Administrative geography as at 2019-07-18. Predates October 2023 and describes how Gaza was defined, not what still stands.","source_crs":"EPSG:4326","evidence_ref":["be44b9b90e"]}},{"type":"Feature","geometry":{"type":"Point","coordinates":[34.519501,31.513961]},"properties":{"name":"Izbat Abed Rabbou","arabic":"المنطقة الشرقية - عزبة عبد ر","pcode":"0","region":"gaza","currency_note":"Administrative geography as at 2019-07-18. Predates October 2023 and describes how Gaza was defined, not what still stands.","source_crs":"EPSG:4326","evidence_ref":["be44b9b90e"]}}],"metadata":{"note":"Administrative geography as at 2019-07-18. Predates October 2023 and describes how Gaza was defined, not what still stands."}}