{"type":"FeatureCollection","features":[{"type":"Feature","geometry":{"type":"Point","coordinates":[35.238911,31.76977]},"properties":{"incident_id":"alhaq-27792","title":"Special Focus: Demolition and Forced Transfer in Silwan","date":"2026-08-07","url":"https://www.alhaq.org/monitoring-documentation/27792.html","source_id":"alhaq","record_type":"field_story","categories":["demolition","forced_transfer"],"location_text":"silwan","matched_locality_id":"402110","matched_from":"title","confidence":"matched","match_note":"Matched 'silwan' in title to gazetteer locality."}},{"type":"Feature","geometry":{"type":"Point","coordinates":[34.895114,31.3481]},"properties":{"incident_id":"alhaq-27625","title":"Special Focus: Advancing Annexation: Violent Settler Attacks and Arson on Palestinian Property","date":"2026-05-15","url":"https://www.alhaq.org/monitoring-documentation/27625.html","source_id":"alhaq","record_type":"field_story","categories":["settler_violence","settlement_expansion"],"location_text":"ramadan","matched_locality_id":"pom-242","matched_from":"body","confidence":"matched","match_note":"Matched 'ramadan' in body to gazetteer locality."}},{"type":"Feature","geometry":{"type":"Point","coordinates":[35.260079,32.221761]},"properties":{"incident_id":"alhaq-27603","title":"International Workers Day Focus: Continuous Denial of Palestinians’ Right to Livelihood","date":"2026-05-01","url":"https://www.alhaq.org/monitoring-documentation/27603.html","source_id":"alhaq","record_type":"field_story","location_text":"nablus","matched_locality_id":"150920","matched_from":"body","confidence":"matched","match_note":"Matched 'nablus' in body to gazetteer locality."}},{"type":"Feature","geometry":{"type":"Point","coordinates":[35.17952,32.5801]},"properties":{"incident_id":"alhaq-27464","title":"Field Report: The killing of Palestinian boy Walid Khaled Abdullah Ahmad in Megiddo Israeli Prison","date":"2026-04-17","url":"https://www.alhaq.org/monitoring-documentation/27464.html","source_id":"alhaq","record_type":"field_story","categories":["killing"],"location_text":"megiddo","matched_locality_id":"pom-10654","matched_from":"title","confidence":"matched","match_note":"Matched 'megiddo' in title to gazetteer locality."}},{"type":"Feature","geometry":{"type":"Point","coordinates":[34.383847,31.422353]},"properties":{"incident_id":"alhaq-27427","title":"Affidavit: The Torture of 22-Month-Old Jawad","date":"2026-03-24","url":"https://www.alhaq.org/monitoring-documentation/27427.html","source_id":"alhaq","record_type":"field_story","location_text":"maghazi camp","matched_locality_id":"pom-11631","matched_from":"body","confidence":"matched","match_note":"Matched 'maghazi camp' in body to gazetteer locality."}},{"type":"Feature","geometry":{"type":"Point","coordinates":[35.299522,32.462719]},"properties":{"incident_id":"alhaq-27247","title":"One Year Since the Start of Israel’s Ongoing “Operation Iron Wall” Military Attack in Jenin","date":"2026-01-21","url":"https://www.alhaq.org/monitoring-documentation/27247.html","source_id":"alhaq","record_type":"field_story","location_text":"jenin","matched_locality_id":"10180","matched_from":"title","confidence":"matched","match_note":"Matched 'jenin' in title to gazetteer locality."}},{"type":"Feature","geometry":{"type":"Point","coordinates":[34.24359,31.297493]},"properties":{"incident_id":"alhaq-27228","title":"Special Focus: Displaced Palestinians Crushed by Israeli Tanks","date":"2026-01-04","url":"https://www.alhaq.org/monitoring-documentation/27228.html","source_id":"alhaq","record_type":"field_story","categories":["forced_transfer"],"location_text":"rafah","matched_locality_id":"pom-299","matched_from":"body","confidence":"matched","match_note":"Matched 'rafah' in body to gazetteer locality."}},{"type":"Feature","geometry":{"type":"Point","coordinates":[35.299522,32.462719]},"properties":{"incident_id":"alhaq-27176","title":"Field Focus: Persecution of Children under Israeli Apartheid – The Case of Ahmad Awartani from Jenin","date":"2025-12-18","url":"https://www.alhaq.org/monitoring-documentation/27176.html","source_id":"alhaq","record_type":"field_story","location_text":"jenin","matched_locality_id":"10180","matched_from":"title","confidence":"matched","match_note":"Matched 'jenin' in title to gazetteer locality."}},{"type":"Feature","geometry":{"type":"Point","coordinates":[35.265061,32.033288]},"properties":{"incident_id":"alhaq-26889","title":"Field focus: Settler Attacks and the Killing of Palestinian Wael Ghafari in Sinjil","date":"2025-09-20","url":"https://www.alhaq.org/monitoring-documentation/26889.html","source_id":"alhaq","record_type":"field_story","categories":["settler_violence","killing"],"location_text":"sinjil","matched_locality_id":"301500","matched_from":"title","confidence":"matched","match_note":"Matched 'sinjil' in title to gazetteer locality."}},{"type":"Feature","geometry":{"type":"Point","coordinates":[35.299522,32.462719]},"properties":{"incident_id":"alhaq-26433","title":"Field Focus - Forcible Displacement from Jenin Refugee Camp, A Symbol of Return and a Target of Erasure","date":"2025-05-22","url":"https://www.alhaq.org/monitoring-documentation/26433.html","source_id":"alhaq","record_type":"field_story","categories":["forced_transfer"],"location_text":"jenin","matched_locality_id":"10180","matched_from":"title","confidence":"matched","match_note":"Matched 'jenin' in title to gazetteer locality."}},{"type":"Feature","geometry":{"type":"Point","coordinates":[35.095098,32.472152]},"properties":{"incident_id":"alhaq-26360","title":"Field Focus: Subjugating Livelihoods – The Targeting of Palestinian Workers","date":"2025-05-01","url":"https://www.alhaq.org/monitoring-documentation/26360.html","source_id":"alhaq","record_type":"field_story","location_text":"barta a sharqiya","matched_locality_id":"10120","matched_from":"body","confidence":"matched","match_note":"Matched 'barta a sharqiya' in body to gazetteer locality."}},{"type":"Feature","geometry":{"type":"Point","coordinates":[34.36798,31.437281]},"properties":{"incident_id":"alhaq-26272","title":"Field Focus: Impunity Unbound – Israel’s Attack on Humanitarian and Medical Workers","date":"2025-04-07","url":"https://www.alhaq.org/monitoring-documentation/26272.html","source_id":"alhaq","record_type":"field_story","location_text":"nuseirat","matched_locality_id":"pom-297","matched_from":"body","confidence":"matched","match_note":"Matched 'nuseirat' in body to gazetteer locality."}},{"type":"Feature","geometry":{"type":"Point","coordinates":[35.30601,31.87929]},"properties":{"incident_id":"alhaq-26151","title":"SPECIAL FOCUS: Consolidating Annexation of the West Bank: Israel’s Demolitions in Area B","date":"2025-03-30","url":"https://www.alhaq.org/monitoring-documentation/26151.html","source_id":"alhaq","record_type":"field_story","categories":["demolition","settlement_expansion"],"location_text":"ma ale mikhmas","matched_locality_id":"pom-10724","matched_from":"body","confidence":"matched","match_note":"Matched 'ma ale mikhmas' in body to gazetteer locality."}},{"type":"Feature","geometry":{"type":"Point","coordinates":[35.280935,32.410163]},"properties":{"incident_id":"alhaq-24799","title":"Field Focus: Killed and Desecrated – Israeli Dehumanisation and Brutality on Display in Qabatiya, Jenin","date":"2024-10-24","url":"https://www.alhaq.org/monitoring-documentation/24799.html","source_id":"alhaq","record_type":"field_story","categories":["killing"],"location_text":"qabatiya","matched_locality_id":"10340","matched_from":"title","confidence":"matched","match_note":"Matched 'qabatiya' in title to gazetteer locality."}},{"type":"Feature","geometry":{"type":"Point","coordinates":[35.267231,31.910926]},"properties":{"incident_id":"alhaq-24731","title":"Field Focus: Palestinians Held at Gunpoint in Israeli Settler Attack","date":"2024-10-01","url":"https://www.alhaq.org/monitoring-documentation/24731.html","source_id":"alhaq","record_type":"field_story","categories":["settler_violence"],"location_text":"deir dibwan","matched_locality_id":"301785","matched_from":"body","confidence":"matched","match_note":"Matched 'deir dibwan' in body to gazetteer locality."}},{"type":"Feature","geometry":{"type":"Point","coordinates":[35.232321,31.778112]},"properties":{"incident_id":"alhaq-20722","title":"Special Focus: Alarming Increase in Settler Attacks against Palestinians in the Occupied Palestinian Territory (OPT) - Reporting Period: 3 - 14 October 2022","date":"2022-10-24","url":"https://www.alhaq.org/monitoring-documentation/20722.html","source_id":"alhaq","record_type":"field_story","categories":["settler_violence"],"location_text":"east jerusalem","matched_locality_id":"402090","matched_from":"body","confidence":"matched","match_note":"Matched 'east jerusalem' in body to gazetteer locality."}},{"type":"Feature","geometry":{"type":"Point","coordinates":[35.232321,31.778112]},"properties":{"incident_id":"alhaq-19791","title":"Special Focus: On Palestine Land Day, Al-Haq Highlights the Continued Nakba Through Land Registration Aimed at Mass Forcible Transfer","date":"2022-03-30","url":"https://www.alhaq.org/monitoring-documentation/19791.html","source_id":"alhaq","record_type":"field_story","categories":["forced_transfer"],"location_text":"east jerusalem","matched_locality_id":"402090","matched_from":"body","confidence":"matched","match_note":"Matched 'east jerusalem' in body to gazetteer locality."}},{"type":"Feature","geometry":{"type":"Point","coordinates":[35.148138,32.535799]},"properties":{"incident_id":"alhaq-19288","title":"Special Focus: Use of Excessive Force by the Israeli Occupying Forces, the Case of Abdallah Abu Baker","date":"2021-12-07","url":"https://www.alhaq.org/monitoring-documentation/19288.html","source_id":"alhaq","record_type":"field_story","location_text":"ibrahim","matched_locality_id":"pom-11775","matched_from":"body","confidence":"matched","match_note":"Matched 'ibrahim' in body to gazetteer locality."}},{"type":"Feature","geometry":{"type":"Point","coordinates":[35.232321,31.778112]},"properties":{"incident_id":"alhaq-18827","title":"Special Focus:  Israel Intensifies Forced Self-Demolitions of Palestinian Homes in Occupied Jerusalem","date":"2021-09-14","url":"https://www.alhaq.org/monitoring-documentation/18827.html","source_id":"alhaq","record_type":"field_story","categories":["demolition"],"location_text":"east jerusalem","matched_locality_id":"402090","matched_from":"body","confidence":"matched","match_note":"Matched 'east jerusalem' in body to gazetteer locality."}},{"type":"Feature","geometry":{"type":"Point","coordinates":[35.232321,31.778112]},"properties":{"incident_id":"alhaq-17779","title":"Special Focus: Amidst a Global Pandemic, IOF Continue to Attack Palestinian Hospitals, Disregarding the Legal Obligations of the Occupying Power","date":"2021-01-17","url":"https://www.alhaq.org/monitoring-documentation/17779.html","source_id":"alhaq","record_type":"field_story","location_text":"east jerusalem","matched_locality_id":"402090","matched_from":"body","confidence":"matched","match_note":"Matched 'east jerusalem' in body to gazetteer locality."}},{"type":"Feature","geometry":{"type":"Point","coordinates":[35.213489,32.175997]},"properties":{"incident_id":"alhaq-17738","title":"Special Focus: Yitzhar Settler Violence is on the Rise","date":"2021-01-05","url":"https://www.alhaq.org/monitoring-documentation/17738.html","source_id":"alhaq","record_type":"field_story","categories":["settler_violence"],"location_text":"asira qibliya","matched_locality_id":"151095","matched_from":"body","confidence":"matched","match_note":"Matched 'asira qibliya' in body to gazetteer locality."}},{"type":"Feature","geometry":{"type":"Point","coordinates":[35.46318,31.859149]},"properties":{"incident_id":"alhaq-17468","title":"Special Focus: Sharp High Rate of Property Demolitions since the Second Half of 2020","date":"2020-10-22","url":"https://www.alhaq.org/monitoring-documentation/17468.html","source_id":"alhaq","record_type":"field_story","categories":["demolition"],"location_text":"jericho","matched_locality_id":"351920","matched_from":"body","confidence":"matched","match_note":"Matched 'jericho' in body to gazetteer locality."}},{"type":"Feature","geometry":{"type":"Point","coordinates":[35.232321,31.778112]},"properties":{"incident_id":"alhaq-16540","title":"Special Focus: Israel Forces Self-Demolitions in Occupied East Jerusalem","date":"2020-03-02","url":"https://www.alhaq.org/monitoring-documentation/16540.html","source_id":"alhaq","record_type":"field_story","categories":["demolition"],"location_text":"east jerusalem","matched_locality_id":"402090","matched_from":"title","confidence":"matched","match_note":"Matched 'east jerusalem' in title to gazetteer locality."}},{"type":"Feature","geometry":{"type":"Point","coordinates":[34.302686,31.34323]},"properties":{"incident_id":"alhaq-16446","title":"Israeli planes spray pesticides along the border fence in the Gaza Strip","date":"2020-02-13","url":"https://www.alhaq.org/monitoring-documentation/16446.html","source_id":"alhaq","record_type":"field_story","location_text":"khan yunis","matched_locality_id":"pom-287","matched_from":"body","confidence":"matched","match_note":"Matched 'khan yunis' in body to gazetteer locality."}},{"type":"Feature","geometry":{"type":"Point","coordinates":[34.483669,31.526429]},"properties":{"incident_id":"alhaq-15256","title":"Special Focus: Three Palestinians Killed during the Great Return March Protests","date":"2019-10-01","url":"https://www.alhaq.org/monitoring-documentation/15256.html","source_id":"alhaq","record_type":"field_story","categories":["killing"],"location_text":"jabaliya","matched_locality_id":"pom-276","matched_from":"body","confidence":"matched","match_note":"Matched 'jabaliya' in body to gazetteer locality."}},{"type":"Feature","geometry":{"type":"Point","coordinates":[35.072241,31.885222]},"properties":{"incident_id":"alhaq-6060","title":"Israeli Occupying Forces Kill 21 Palestinians in March 2019 - Al-Haq Field Report March 2019","date":"2019-05-02","url":"https://www.alhaq.org/monitoring-documentation/6060.html","source_id":"alhaq","record_type":"field_story","location_text":"kharbatha misbah","matched_locality_id":"301855","matched_from":"body","confidence":"matched","match_note":"Matched 'kharbatha misbah' in body to gazetteer locality."}},{"type":"Feature","geometry":{"type":"Point","coordinates":[34.28431,31.22777]},"properties":{"incident_id":"alhaq-6077","title":"Special Focus: Widespread Israeli Aerial Incursions in the Gaza Strip  (Reporting Period: 25-26 March 2019)","date":"2019-04-02","url":"https://www.alhaq.org/monitoring-documentation/6077.html","source_id":"alhaq","record_type":"field_story","location_text":"kerem shalom","matched_locality_id":"pom-10610","matched_from":"body","confidence":"matched","match_note":"Matched 'kerem shalom' in body to gazetteer locality."}},{"type":"Feature","geometry":{"type":"Point","coordinates":[35.069125,31.998357]},"properties":{"incident_id":"alhaq-6110","title":"Special Focus: Collective Punishment against the Barghouthi Family","date":"2019-01-30","url":"https://www.alhaq.org/monitoring-documentation/6110.html","source_id":"alhaq","record_type":"field_story","location_text":"deir abu mash al","matched_locality_id":"301570","matched_from":"body","confidence":"matched","match_note":"Matched 'deir abu mash al' in body to gazetteer locality."}},{"type":"Feature","geometry":{"type":"Point","coordinates":[35.230981,31.813643]},"properties":{"incident_id":"alhaq-6123","title":"Special Focus: Highest Rate of Demolitions in Shu’fat Refugee Camp in 15 Years","date":"2018-12-15","url":"https://www.alhaq.org/monitoring-documentation/6123.html","source_id":"alhaq","record_type":"field_story","categories":["demolition"],"location_text":"shu fat","matched_locality_id":"402035","matched_from":"title","confidence":"matched","match_note":"Matched 'shu fat' in title to gazetteer locality."}},{"type":"Feature","geometry":{"type":"Point","coordinates":[35.232321,31.778112]},"properties":{"incident_id":"alhaq-6448","title":"Special Focus: A Review of the Situation in the OPT in 2015","date":"2016-01-20","url":"https://www.alhaq.org/monitoring-documentation/6448.html","source_id":"alhaq","record_type":"field_story","location_text":"east jerusalem","matched_locality_id":"402090","matched_from":"body","confidence":"matched","match_note":"Matched 'east jerusalem' in body to gazetteer locality."}},{"type":"Feature","geometry":{"type":"Point","coordinates":[35.232321,31.778112]},"properties":{"incident_id":"alhaq-6454","title":"Special Focus on Palestinian Children: Targeting Palestine through its Future","date":"2015-12-17","url":"https://www.alhaq.org/monitoring-documentation/6454.html","source_id":"alhaq","record_type":"field_story","location_text":"east jerusalem","matched_locality_id":"402090","matched_from":"body","confidence":"matched","match_note":"Matched 'east jerusalem' in body to gazetteer locality."}},{"type":"Feature","geometry":{"type":"Point","coordinates":[35.40784,32.702806]},"properties":{"incident_id":"alhaq-6459","title":"Special Focus: Palestinian Universities Subject to IOF Attacks","date":"2015-11-30","url":"https://www.alhaq.org/monitoring-documentation/6459.html","source_id":"alhaq","record_type":"field_story","location_text":"kadoorie","matched_locality_id":"pom-10506","matched_from":"body","confidence":"matched","match_note":"Matched 'kadoorie' in body to gazetteer locality."}},{"type":"Feature","geometry":{"type":"Point","coordinates":[35.089713,31.531028]},"properties":{"incident_id":"alhaq-6465","title":"Special Focus on Hebron: A Microcosm of the Israeli Occupation","date":"2015-11-19","url":"https://www.alhaq.org/monitoring-documentation/6465.html","source_id":"alhaq","record_type":"field_story","location_text":"hebron","matched_locality_id":"502780","matched_from":"title","confidence":"matched","match_note":"Matched 'hebron' in title to gazetteer locality."}},{"type":"Feature","geometry":{"type":"Point","coordinates":[34.768634,32.072886]},"properties":{"incident_id":"alhaq-6469","title":"Special Focus: Holding the Bodies of Deceased Palestinians by Israel","date":"2015-11-09","url":"https://www.alhaq.org/monitoring-documentation/6469.html","source_id":"alhaq","record_type":"field_story","location_text":"tel aviv","matched_locality_id":"pom-452","matched_from":"body","confidence":"matched","match_note":"Matched 'tel aviv' in body to gazetteer locality."}},{"type":"Feature","geometry":{"type":"Point","coordinates":[35.232321,31.778112]},"properties":{"incident_id":"alhaq-6472","title":"Special Focus: Israeli Occupying Forces Assault Journalists in the OPT","date":"2015-11-03","url":"https://www.alhaq.org/monitoring-documentation/6472.html","source_id":"alhaq","record_type":"field_story","location_text":"east jerusalem","matched_locality_id":"402090","matched_from":"body","confidence":"matched","match_note":"Matched 'east jerusalem' in body to gazetteer locality."}},{"type":"Feature","geometry":{"type":"Point","coordinates":[35.232321,31.778112]},"properties":{"incident_id":"alhaq-6480","title":"Al-Haq Special Focus: Settler Attacks in the West Bank","date":"2015-10-22","url":"https://www.alhaq.org/monitoring-documentation/6480.html","source_id":"alhaq","record_type":"field_story","categories":["settler_violence"],"location_text":"east jerusalem","matched_locality_id":"402090","matched_from":"body","confidence":"matched","match_note":"Matched 'east jerusalem' in body to gazetteer locality."}}],"metadata":{"source":"Al-Haq monitoring and documentation","total_records":71,"rendered":36,"withheld":35,"confidence_breakdown":{"matched":36,"unresolved":29,"ambiguous":6},"note":"Records that could not be resolved to exactly one locality are retained in incidents_unplaced.json but are not drawn on the map."}}