{"type":"FeatureCollection","features":[{"type":"Feature","geometry":{"type":"MultiPolygon","coordinates":[[[[34.93554213961718,29.418094240144534],[34.56028274020312,30.203866563752932],[34.20194915255664,31.078446947053713],[34.146304163542965,31.20857962222461],[34.19527724703906,31.238141618684573],[34.5006590219414,31.621099077180666],[34.59913543185351,31.817897401765627],[34.681338343230465,32.045978151277346],[34.75850203951953,32.30071981997852],[34.84289077242968,32.670699678376955],[34.894969019499996,32.66283377261524],[34.95658782443164,32.704818330720705],[34.959082636443355,32.79665716739063],[34.97200683077929,32.93840750308399],[35.13920119723437,32.961654268220705],[35.20756057223437,32.951488100007815],[35.23912719210742,32.906993471101565],[35.399138483611324,32.93840368838672],[35.40285018405078,33.01396521182422],[35.4331541391289,33.10066183658008],[35.473032984343746,33.11898382754688],[35.50439361056445,33.10851248355274],[35.586558374968746,32.952796541169924],[35.67710784396289,32.89522513003711],[35.68643477877734,32.81278570742969],[35.66515639742968,32.75782736392383],[35.70218184908984,32.719405733064455],[35.68798907835729,32.71063290125933],[35.65637114962695,32.69108923526172],[35.63999465426562,32.63743933291797],[35.66946700533984,32.45244940371875],[35.6572866769707,32.327315889314455],[35.62980178317187,32.24896963687305],[35.614714655486324,31.867774568513674],[35.58311751803515,31.530948244050784],[35.523413691130855,31.403564058259768],[35.52509978732226,31.2193675860918],[35.390410456267574,30.818418107942385],[35.15767196139453,30.327973924592776],[35.16422942599414,29.959563814119143],[35.033171686736324,29.545907579377932],[34.9846792550957,29.467219911531252],[34.95425704440234,29.43680914492969],[34.93554213961718,29.418094240144534]]]]},"properties":{"name":"Mandatory Palestine","year":1920,"precision_note":"Generalised — indicative extent only.","evidence_ref":["91c6ab72a3"]}}]}