{"type":"FeatureCollection","features":[{"type":"Feature","geometry":{"type":"Polygon","coordinates":[[[35.8211,33.406722],[35.822443,33.401373],[35.816966,33.395198],[35.815415,33.378868],[35.812315,33.373365],[35.809938,33.360032],[35.793505,33.349929],[35.785753,33.342875],[35.763842,33.334401],[35.802083,33.31249],[35.768597,33.272699],[35.775625,33.264896],[35.803633,33.248463],[35.807664,33.201721],[35.830195,33.189991],[35.833399,33.161129],[35.822443,33.14157],[35.811488,33.126765],[35.811488,33.111908],[35.848902,33.098678],[35.845801,33.085423],[35.85903,32.99021],[35.864611,32.97773],[35.888073,32.944941],[35.874017,32.922333],[35.866885,32.920782],[35.849729,32.895823],[35.83805,32.866031],[35.841874,32.853577],[35.834226,32.827946],[35.784203,32.777949],[35.75759,32.744347],[35.740175,32.740535],[35.685191,32.711234],[35.652015,32.686171],[35.635995,32.679143],[35.612334,32.681535],[35.611758,32.6819],[35.607033,32.693948],[35.595004,32.707445],[35.599718,32.717436],[35.634445,32.752214],[35.634961,32.759629],[35.634341,32.765365],[35.635375,32.769448],[35.641369,32.772058],[35.635892,32.781824],[35.635375,32.793658],[35.641369,32.820478],[35.637545,32.832131],[35.637959,32.840426],[35.640129,32.849831],[35.641369,32.864817],[35.638165,32.874687],[35.630621,32.88249],[35.614084,32.895564],[35.602272,32.908603],[35.614802,32.921226],[35.619815,32.983893],[35.587736,33.017942],[35.621318,33.050297],[35.63435,33.051977],[35.636856,33.077181],[35.656153,33.124837],[35.672192,33.150019],[35.666178,33.180228],[35.661296,33.212897],[35.660163,33.236004],[35.666178,33.246903],[35.64969,33.245993],[35.641989,33.248437],[35.634548,33.248695],[35.627313,33.247171],[35.619665,33.244251],[35.616048,33.241383],[35.61212,33.239626],[35.607986,33.239161],[35.603852,33.240091],[35.604576,33.244354],[35.61806,33.256125],[35.620065,33.269536],[35.631092,33.274565],[35.642209,33.266217],[35.654342,33.262173],[35.675912,33.275654],[35.695461,33.292506],[35.712313,33.306662],[35.718379,33.316773],[35.716197,33.326727],[35.729426,33.327812],[35.743689,33.331171],[35.757538,33.336313],[35.769423,33.342643],[35.785753,33.357887],[35.8057,33.391348],[35.8211,33.406722]]]},"properties":{"name":"Golan Heights","administered_by":"Israel","claimed_by":"Syria","occupied_since":"1967","status":"occupied","legal_note":"Occupied 1967; annexed by Israel's Golan Heights Law 1981. UN Security Council Resolution 497 (17 December 1981) held the annexation null and void and without international legal effect.","source_note":"Admin. By Israel; Claimed by Syria","not_palestinian":true,"disclaimer":"Not Palestinian territory. Shown because the mechanism is adjacent, and never counted in any Palestinian land-loss figure.","generalised":"Boundary generalised at 1:10m — indicative extent, not a survey line. No area figure is computed from it.","source_crs":"EPSG:4326","evidence_ref":["0fbe3ff32e"]}},{"type":"Feature","geometry":{"type":"Polygon","coordinates":[[[35.75759,32.744347],[35.784203,32.777949],[35.834226,32.827946],[35.841874,32.853577],[35.83805,32.866031],[35.849729,32.895823],[35.866885,32.920782],[35.874017,32.922333],[35.888073,32.944941],[35.864611,32.97773],[35.85903,32.99021],[35.845801,33.085423],[35.848902,33.098678],[35.811488,33.111908],[35.811488,33.126765],[35.822443,33.14157],[35.833399,33.161129],[35.830195,33.189991],[35.807664,33.201721],[35.803633,33.248463],[35.775625,33.264896],[35.768597,33.272699],[35.802083,33.31249],[35.763842,33.334401],[35.785753,33.342875],[35.793505,33.349929],[35.809938,33.360032],[35.812315,33.373365],[35.815415,33.378868],[35.816966,33.395198],[35.822443,33.401373],[35.8211,33.406722],[35.870089,33.431242],[35.873086,33.416282],[35.869986,33.406928],[35.861511,33.399074],[35.844974,33.388997],[35.834949,33.378067],[35.830195,33.36476],[35.830195,33.35148],[35.834949,33.339026],[35.843424,33.321895],[35.845801,33.313265],[35.844974,33.303886],[35.840427,33.295359],[35.833399,33.290631],[35.826371,33.288305],[35.82172,33.28598],[35.819343,33.284429],[35.82017,33.280554],[35.826371,33.279804],[35.835776,33.279029],[35.845801,33.279029],[35.851279,33.275825],[35.853656,33.272699],[35.85438,33.268823],[35.861511,33.237559],[35.866162,33.225958],[35.87474,33.215751],[35.885592,33.204047],[35.888796,33.198595],[35.888796,33.194616],[35.882491,33.189241],[35.882491,33.184591],[35.884869,33.179061],[35.888073,33.176762],[35.890346,33.176762],[35.896547,33.180611],[35.900372,33.17981],[35.905953,33.176762],[35.907503,33.17131],[35.911327,33.165806],[35.911327,33.13927],[35.910603,33.135395],[35.905953,33.133069],[35.894894,33.128289],[35.891897,33.124413],[35.893447,33.120512],[35.897271,33.116636],[35.902749,33.116636],[35.902749,33.109608],[35.890346,33.109608],[35.868436,33.107283],[35.864611,33.081548],[35.877117,32.992638],[35.898098,32.985533],[35.923833,32.967679],[35.912154,32.947292],[35.890346,32.928637],[35.860684,32.880165],[35.846628,32.836472],[35.848178,32.830271],[35.842701,32.821667],[35.82172,32.795906],[35.815415,32.786527],[35.791128,32.774099],[35.769734,32.748054],[35.763842,32.746969],[35.75759,32.744347]]]},"properties":{"name":"UNDOF Zone","administered_by":"United Nations (UNDOF)","status":"ceasefire_zone","legal_note":"UN-patrolled area of separation under the 1974 Disengagement Agreement. Context, not occupied land — a ceasefire arrangement rather than a claim.","source_note":"UN Patrolled Zone in Syria","not_palestinian":true,"disclaimer":"Not Palestinian territory. Shown because the mechanism is adjacent, and never counted in any Palestinian land-loss figure.","generalised":"Boundary generalised at 1:10m — indicative extent, not a survey line. No area figure is computed from it.","source_crs":"EPSG:4326","evidence_ref":["0fbe3ff32e"]}},{"type":"Feature","geometry":{"type":"Polygon","coordinates":[[[35.631092,33.274565],[35.652143,33.27666],[35.66049,33.289261],[35.698523,33.32267],[35.716197,33.326727],[35.718379,33.316773],[35.712313,33.306662],[35.695461,33.292506],[35.675912,33.275654],[35.654342,33.262173],[35.642209,33.266217],[35.631092,33.274565]]]},"properties":{"name":"Shebaa Farms","administered_by":"Israel","claimed_by":"Lebanon","occupied_since":"1967","status":"occupied","legal_note":"Administered by Israel and claimed by Lebanon. Its status was left unresolved by the UN's confirmation of Israeli withdrawal from Lebanon in 2000.","source_note":"Admin. By Israel; Claimed by Lebanon","not_palestinian":true,"disclaimer":"Not Palestinian territory. Shown because the mechanism is adjacent, and never counted in any Palestinian land-loss figure.","generalised":"Boundary generalised at 1:10m — indicative extent, not a survey line. No area figure is computed from it.","source_crs":"EPSG:4326","evidence_ref":["0fbe3ff32e"]}}]}