{"type":"FeatureCollection","features":[{"type":"Feature","geometry":{"type":"Point","coordinates":[34.430479,31.505814]},"properties":{"name":"PRCS HQ - Al Quds hospital","facility_type":"Hospital","district":"Gaza","operator":"Palestine Red Crescent Society","currency_note":"Facilities as at 2019-07-24. Predates October 2023; not a claim that a given facility still operates.","source_crs":"EPSG:4326","evidence_ref":["8b5c8d3222"]}},{"type":"Feature","geometry":{"type":"Point","coordinates":[34.43129,31.50438]},"properties":{"name":"PRCS Gaza EMS","facility_type":"EMS and other","district":"Gaza","operator":"Palestine Red Crescent Society","currency_note":"Facilities as at 2019-07-24. Predates October 2023; not a claim that a given facility still operates.","source_crs":"EPSG:4326","evidence_ref":["8b5c8d3222"]}},{"type":"Feature","geometry":{"type":"Point","coordinates":[34.432016,31.503871]},"properties":{"name":"PRCS Gaza Warehouse","facility_type":"Other","district":"Gaza","operator":"Palestine Red Crescent Society","currency_note":"Facilities as at 2019-07-24. Predates October 2023; not a claim that a given facility still operates.","source_crs":"EPSG:4326","evidence_ref":["8b5c8d3222"]}},{"type":"Feature","geometry":{"type":"Point","coordinates":[34.4957,31.5215]},"properties":{"name":"PRCS Jabalia branch & EMS","facility_type":"EMS and branch","district":"North","operator":"Palestine Red Crescent Society","currency_note":"Facilities as at 2019-07-24. Predates October 2023; not a claim that a given facility still operates.","source_crs":"EPSG:4326","evidence_ref":["8b5c8d3222"]}},{"type":"Feature","geometry":{"type":"Point","coordinates":[34.3437,31.4227]},"properties":{"name":"PRCS Deir al Balah branch & EMS","facility_type":"EMS and branch","district":"Middle Area","operator":"Palestine Red Crescent Society","currency_note":"Facilities as at 2019-07-24. Predates October 2023; not a claim that a given facility still operates.","source_crs":"EPSG:4326","evidence_ref":["8b5c8d3222"]}},{"type":"Feature","geometry":{"type":"Point","coordinates":[34.29863,31.35133]},"properties":{"name":"PRCS al Amal hospital","facility_type":"Hospital","district":"Khan Younis","operator":"Palestine Red Crescent Society","currency_note":"Facilities as at 2019-07-24. Predates October 2023; not a claim that a given facility still operates.","source_crs":"EPSG:4326","evidence_ref":["8b5c8d3222"]}},{"type":"Feature","geometry":{"type":"Point","coordinates":[34.29704,31.35216]},"properties":{"name":"PRCS al Amal sport center & workshop","facility_type":"Other","district":"Khan Younis","operator":"Palestine Red Crescent Society","currency_note":"Facilities as at 2019-07-24. Predates October 2023; not a claim that a given facility still operates.","source_crs":"EPSG:4326","evidence_ref":["8b5c8d3222"]}},{"type":"Feature","geometry":{"type":"Point","coordinates":[34.29798,31.35173]},"properties":{"name":"PRCS al Amal administration & ability college","facility_type":"Other","district":"Khan Younis","operator":"Palestine Red Crescent Society","currency_note":"Facilities as at 2019-07-24. Predates October 2023; not a claim that a given facility still operates.","source_crs":"EPSG:4326","evidence_ref":["8b5c8d3222"]}},{"type":"Feature","geometry":{"type":"Point","coordinates":[34.29901,31.35137]},"properties":{"name":"PRCS al Amal EMS","facility_type":"EMS","district":"Khan Younis","operator":"Palestine Red Crescent Society","currency_note":"Facilities as at 2019-07-24. Predates October 2023; not a claim that a given facility still operates.","source_crs":"EPSG:4326","evidence_ref":["8b5c8d3222"]}},{"type":"Feature","geometry":{"type":"Point","coordinates":[34.3177,31.3337]},"properties":{"name":"PRCS Ma'an Clinic","facility_type":"Clinic","district":"Khan Younis","operator":"Palestine Red Crescent Society","currency_note":"Facilities as at 2019-07-24. Predates October 2023; not a claim that a given facility still operates.","source_crs":"EPSG:4326","evidence_ref":["8b5c8d3222"]}},{"type":"Feature","geometry":{"type":"Point","coordinates":[34.2678,31.3606]},"properties":{"name":"PRCS El Mawasi clinic","facility_type":"Clinic","district":"Khan Younis","operator":"Palestine Red Crescent Society","currency_note":"Facilities as at 2019-07-24. Predates October 2023; not a claim that a given facility still operates.","source_crs":"EPSG:4326","evidence_ref":["8b5c8d3222"]}},{"type":"Feature","geometry":{"type":"Point","coordinates":[34.306069,31.398072]},"properties":{"name":"PRCS Beach psychosocial center","facility_type":"Other","district":"Khan Younis","operator":"Palestine Red Crescent Society","currency_note":"Facilities as at 2019-07-24. Predates October 2023; not a claim that a given facility still operates.","source_crs":"EPSG:4326","evidence_ref":["8b5c8d3222"]}},{"type":"Feature","geometry":{"type":"Point","coordinates":[34.2683,31.2866]},"properties":{"name":"PRCS Rafah branch and EMS","facility_type":"EMS and branch","district":"Rafah","operator":"Palestine Red Crescent Society","currency_note":"Facilities as at 2019-07-24. Predates October 2023; not a claim that a given facility still operates.","source_crs":"EPSG:4326","evidence_ref":["8b5c8d3222"]}},{"type":"Feature","geometry":{"type":"Point","coordinates":[34.24632,31.30767]},"properties":{"name":"PRCS Rafah sub-station","facility_type":"Sub-Station","district":"Rafah","operator":"Palestine Red Crescent Society","currency_note":"Facilities as at 2019-07-24. Predates October 2023; not a claim that a given facility still operates.","source_crs":"EPSG:4326","evidence_ref":["8b5c8d3222"]}},{"type":"Feature","geometry":{"type":"Point","coordinates":[34.969334,32.192224]},"properties":{"name":"Main station in Qalqilia city (EMS )","facility_type":"Station","district":"Qalqilia","operator":"Palestine Red Crescent Society","currency_note":"Facilities as at 2019-07-24. Predates October 2023; not a claim that a given facility still operates.","source_crs":"EPSG:4326","evidence_ref":["8b5c8d3222"]}},{"type":"Feature","geometry":{"type":"Point","coordinates":[35.131641,32.205389]},"properties":{"name":"substation in Hajj village   ( No EMS)","facility_type":"Sub-Station","district":"Qalqilia","operator":"Palestine Red Crescent Society","currency_note":"Facilities as at 2019-07-24. Predates October 2023; not a claim that a given facility still operates.","source_crs":"EPSG:4326","evidence_ref":["8b5c8d3222"]}},{"type":"Feature","geometry":{"type":"Point","coordinates":[35.376787,32.323731]},"properties":{"name":"emergancy unit and ambulance","facility_type":"EMS","district":"Tubas","operator":"Palestine Red Crescent Society","currency_note":"Facilities as at 2019-07-24. Predates October 2023; not a claim that a given facility still operates.","source_crs":"EPSG:4326","evidence_ref":["8b5c8d3222"]}},{"type":"Feature","geometry":{"type":"Point","coordinates":[35.366764,32.325215]},"properties":{"name":"clinic located at the first floor of mosque","facility_type":"Clinic","district":"Tubas","operator":"Palestine Red Crescent Society","currency_note":"Facilities as at 2019-07-24. Predates October 2023; not a claim that a given facility still operates.","source_crs":"EPSG:4326","evidence_ref":["8b5c8d3222"]}},{"type":"Feature","geometry":{"type":"Point","coordinates":[35.184339,32.081935]},"properties":{"name":"PRCS Ambulance Station in Salfit","facility_type":"EMS","district":"Salfit","operator":"Palestine Red Crescent Society","currency_note":"Facilities as at 2019-07-24. Predates October 2023; not a claim that a given facility still operates.","source_crs":"EPSG:4326","evidence_ref":["8b5c8d3222"]}},{"type":"Feature","geometry":{"type":"Point","coordinates":[35.186627,32.084208]},"properties":{"name":"PRCS Clinic in Salfit","facility_type":"Clinic","district":"Salfit","operator":"Palestine Red Crescent Society","currency_note":"Facilities as at 2019-07-24. Predates October 2023; not a claim that a given facility still operates.","source_crs":"EPSG:4326","evidence_ref":["8b5c8d3222"]}},{"type":"Feature","geometry":{"type":"Point","coordinates":[35.173248,32.118014]},"properties":{"name":"PRCS Ambulance Station in Qira Village","facility_type":"EMS","district":"Salfit","operator":"Palestine Red Crescent Society","currency_note":"Facilities as at 2019-07-24. Predates October 2023; not a claim that a given facility still operates.","source_crs":"EPSG:4326","evidence_ref":["8b5c8d3222"]}},{"type":"Feature","geometry":{"type":"Point","coordinates":[35.448524,31.844732]},"properties":{"name":"Jericho PRCS branch","facility_type":"Station","district":"Jericho","operator":"Palestine Red Crescent Society","currency_note":"Facilities as at 2019-07-24. Predates October 2023; not a claim that a given facility still operates.","source_crs":"EPSG:4326","evidence_ref":["8b5c8d3222"]}},{"type":"Feature","geometry":{"type":"Point","coordinates":[35.29192,32.46248]},"properties":{"name":"Main Branch","facility_type":"Station","district":"Jenin","operator":"Palestine Red Crescent Society","currency_note":"Facilities as at 2019-07-24. Predates October 2023; not a claim that a given facility still operates.","source_crs":"EPSG:4326","evidence_ref":["8b5c8d3222"]}},{"type":"Feature","geometry":{"type":"Point","coordinates":[35.29202,32.46282]},"properties":{"name":"EMS Station","facility_type":"EMS","district":"Jenin","operator":"Palestine Red Crescent Society","currency_note":"Facilities as at 2019-07-24. Predates October 2023; not a claim that a given facility still operates.","source_crs":"EPSG:4326","evidence_ref":["8b5c8d3222"]}},{"type":"Feature","geometry":{"type":"Point","coordinates":[35.2925,32.46223]},"properties":{"name":"Volunteering center","facility_type":"Youth and Volunteers Center","district":"Jenin","operator":"Palestine Red Crescent Society","currency_note":"Facilities as at 2019-07-24. Predates October 2023; not a claim that a given facility still operates.","source_crs":"EPSG:4326","evidence_ref":["8b5c8d3222"]}},{"type":"Feature","geometry":{"type":"Point","coordinates":[35.27198,32.41173]},"properties":{"name":"Qabatiya premises","facility_type":"Other","district":"Jenin","operator":"Palestine Red Crescent Society","currency_note":"Facilities as at 2019-07-24. Predates October 2023; not a claim that a given facility still operates.","source_crs":"EPSG:4326","evidence_ref":["8b5c8d3222"]}},{"type":"Feature","geometry":{"type":"Point","coordinates":[35.20368,32.4023]},"properties":{"name":"Arraba premises","facility_type":"Other","district":"Jenin","operator":"Palestine Red Crescent Society","currency_note":"Facilities as at 2019-07-24. Predates October 2023; not a claim that a given facility still operates.","source_crs":"EPSG:4326","evidence_ref":["8b5c8d3222"]}},{"type":"Feature","geometry":{"type":"Point","coordinates":[35.2245,32.32998]},"properties":{"name":"Jaba' premises","facility_type":"Other","district":"Jenin","operator":"Palestine Red Crescent Society","currency_note":"Facilities as at 2019-07-24. Predates October 2023; not a claim that a given facility still operates.","source_crs":"EPSG:4326","evidence_ref":["8b5c8d3222"]}},{"type":"Feature","geometry":{"type":"Point","coordinates":[35.02938,32.31483]},"properties":{"name":"Tulkarem main branch:","facility_type":"Station","district":"Tulkarem","operator":"Palestine Red Crescent Society","currency_note":"Facilities as at 2019-07-24. Predates October 2023; not a claim that a given facility still operates.","source_crs":"EPSG:4326","evidence_ref":["8b5c8d3222"]}},{"type":"Feature","geometry":{"type":"Point","coordinates":[35.11372,32.31017]},"properties":{"name":"Anabta sub station","facility_type":"Sub-Station","district":"Tulkarem","operator":"Palestine Red Crescent Society","currency_note":"Facilities as at 2019-07-24. Predates October 2023; not a claim that a given facility still operates.","source_crs":"EPSG:4326","evidence_ref":["8b5c8d3222"]}},{"type":"Feature","geometry":{"type":"Point","coordinates":[35.06947,32.3691]},"properties":{"name":"Attil sub station","facility_type":"Sub-Station","district":"Tulkarem","operator":"Palestine Red Crescent Society","currency_note":"Facilities as at 2019-07-24. Predates October 2023; not a claim that a given facility still operates.","source_crs":"EPSG:4326","evidence_ref":["8b5c8d3222"]}},{"type":"Feature","geometry":{"type":"Point","coordinates":[35.05876,32.1768]},"properties":{"name":"sub station in Azzun town  ( EMS)","facility_type":"EMS","district":"Qalqilia","operator":"Palestine Red Crescent Society","currency_note":"Facilities as at 2019-07-24. Predates October 2023; not a claim that a given facility still operates.","source_crs":"EPSG:4326","evidence_ref":["8b5c8d3222"]}},{"type":"Feature","geometry":{"type":"Point","coordinates":[35.0825,32.11478]},"properties":{"name":"sub station  Bidya town     ( EMS )","facility_type":"EMS","district":"Qalqilia","operator":"Palestine Red Crescent Society","currency_note":"Facilities as at 2019-07-24. Predates October 2023; not a claim that a given facility still operates.","source_crs":"EPSG:4326","evidence_ref":["8b5c8d3222"]}},{"type":"Feature","geometry":{"type":"Point","coordinates":[34.97696,32.16131]},"properties":{"name":"substation in Habla village (No EMS )","facility_type":"Sub-Station","district":"Qalqilia","operator":"Palestine Red Crescent Society","currency_note":"Facilities as at 2019-07-24. Predates October 2023; not a claim that a given facility still operates.","source_crs":"EPSG:4326","evidence_ref":["8b5c8d3222"]}},{"type":"Feature","geometry":{"type":"Point","coordinates":[35.27257,32.21223]},"properties":{"name":"PRCS Main Nablus branch","facility_type":"Station","district":"Nablus","operator":"Palestine Red Crescent Society","currency_note":"Facilities as at 2019-07-24. Predates October 2023; not a claim that a given facility still operates.","source_crs":"EPSG:4326","evidence_ref":["8b5c8d3222"]}},{"type":"Feature","geometry":{"type":"Point","coordinates":[35.27659,32.15415]},"properties":{"name":"PRCS Odala Volunteers Committee","facility_type":"Youth and Volunteers Center","district":"Nablus","operator":"Palestine Red Crescent Society","currency_note":"Facilities as at 2019-07-24. Predates October 2023; not a claim that a given facility still operates.","source_crs":"EPSG:4326","evidence_ref":["8b5c8d3222"]}},{"type":"Feature","geometry":{"type":"Point","coordinates":[35.26177,32.15718]},"properties":{"name":"PRCS Huwwara Volunteers Committee","facility_type":"Youth and Volunteers Center","district":"Nablus","operator":"Palestine Red Crescent Society","currency_note":"Facilities as at 2019-07-24. Predates October 2023; not a claim that a given facility still operates.","source_crs":"EPSG:4326","evidence_ref":["8b5c8d3222"]}},{"type":"Feature","geometry":{"type":"Point","coordinates":[35.30344,32.06573]},"properties":{"name":"PRCS Qaryut Disasters Management Committee","facility_type":"Other","district":"Nablus","operator":"Palestine Red Crescent Society","currency_note":"Facilities as at 2019-07-24. Predates October 2023; not a claim that a given facility still operates.","source_crs":"EPSG:4326","evidence_ref":["8b5c8d3222"]}},{"type":"Feature","geometry":{"type":"Point","coordinates":[35.26809,32.24928]},"properties":{"name":"PRCS 'Asira ash Shamaliya sub-branch","facility_type":"Sub-Station","district":"Nablus","operator":"Palestine Red Crescent Society","currency_note":"Facilities as at 2019-07-24. Predates October 2023; not a claim that a given facility still operates.","source_crs":"EPSG:4326","evidence_ref":["8b5c8d3222"]}},{"type":"Feature","geometry":{"type":"Point","coordinates":[35.21262,31.89341]},"properties":{"name":"PRCS Headquarters","facility_type":"Headquarters","district":"Ramallah","operator":"Palestine Red Crescent Society","currency_note":"Facilities as at 2019-07-24. Predates October 2023; not a claim that a given facility still operates.","source_crs":"EPSG:4326","evidence_ref":["8b5c8d3222"]}},{"type":"Feature","geometry":{"type":"Point","coordinates":[35.201159,31.969627]},"properties":{"name":"Bir Zeit Branch","facility_type":"Sub-Station","district":"Ramallah","operator":"Palestine Red Crescent Society","currency_note":"Facilities as at 2019-07-24. Predates October 2023; not a claim that a given facility still operates.","source_crs":"EPSG:4326","evidence_ref":["8b5c8d3222"]}},{"type":"Feature","geometry":{"type":"Point","coordinates":[35.0645,31.99836]},"properties":{"name":"Deir Abu Mash'al Heath Care Center","facility_type":"Clinic","district":"Ramallah","operator":"Palestine Red Crescent Society","currency_note":"Facilities as at 2019-07-24. Predates October 2023; not a claim that a given facility still operates.","source_crs":"EPSG:4326","evidence_ref":["8b5c8d3222"]}},{"type":"Feature","geometry":{"type":"Point","coordinates":[35.02184,31.94614]},"properties":{"name":"Ni'lin Ambulance Branch","facility_type":"Sub-Station","district":"Ramallah","operator":"Palestine Red Crescent Society","currency_note":"Facilities as at 2019-07-24. Predates October 2023; not a claim that a given facility still operates.","source_crs":"EPSG:4326","evidence_ref":["8b5c8d3222"]}},{"type":"Feature","geometry":{"type":"Point","coordinates":[35.21283,31.90616]},"properties":{"name":"PRCS Hospital -Al Bireh","facility_type":"Hospital","district":"Ramallah","operator":"Palestine Red Crescent Society","currency_note":"Facilities as at 2019-07-24. Predates October 2023; not a claim that a given facility still operates.","source_crs":"EPSG:4326","evidence_ref":["8b5c8d3222"]}},{"type":"Feature","geometry":{"type":"Point","coordinates":[35.19928,31.9044]},"properties":{"name":"Ramallah Tahta Branch","facility_type":"EMS","district":"Ramallah","operator":"Palestine Red Crescent Society","currency_note":"Facilities as at 2019-07-24. Predates October 2023; not a claim that a given facility still operates.","source_crs":"EPSG:4326","evidence_ref":["8b5c8d3222"]}},{"type":"Feature","geometry":{"type":"Point","coordinates":[35.261238,31.981755]},"properties":{"name":"Silwad Health Care Center","facility_type":"Clinic","district":"Ramallah","operator":"Palestine Red Crescent Society","currency_note":"Facilities as at 2019-07-24. Predates October 2023; not a claim that a given facility still operates.","source_crs":"EPSG:4326","evidence_ref":["8b5c8d3222"]}},{"type":"Feature","geometry":{"type":"Point","coordinates":[35.26411,32.03257]},"properties":{"name":"Sinjil Ambulance Branch","facility_type":"EMS","district":"Ramallah","operator":"Palestine Red Crescent Society","currency_note":"Facilities as at 2019-07-24. Predates October 2023; not a claim that a given facility still operates.","source_crs":"EPSG:4326","evidence_ref":["8b5c8d3222"]}},{"type":"Feature","geometry":{"type":"Point","coordinates":[35.23512,31.78625]},"properties":{"name":"Bab Al Sahira Clinic","facility_type":"Clinic","district":"Jerusalem","operator":"Palestine Red Crescent Society","currency_note":"Facilities as at 2019-07-24. Predates October 2023; not a claim that a given facility still operates.","source_crs":"EPSG:4326","evidence_ref":["8b5c8d3222"]}},{"type":"Feature","geometry":{"type":"Point","coordinates":[35.23274,31.77786]},"properties":{"name":"Old City Clinic","facility_type":"Clinic","district":"Jerusalem","operator":"Palestine Red Crescent Society","currency_note":"Facilities as at 2019-07-24. Predates October 2023; not a claim that a given facility still operates.","source_crs":"EPSG:4326","evidence_ref":["8b5c8d3222"]}},{"type":"Feature","geometry":{"type":"Point","coordinates":[35.24084,31.78551]},"properties":{"name":"PRCS Hospital","facility_type":"Hospital","district":"Jerusalem","operator":"Palestine Red Crescent Society","currency_note":"Facilities as at 2019-07-24. Predates October 2023; not a claim that a given facility still operates.","source_crs":"EPSG:4326","evidence_ref":["8b5c8d3222"]}},{"type":"Feature","geometry":{"type":"Point","coordinates":[35.24299,31.78724]},"properties":{"name":"Volunteer Center (Palace)","facility_type":"Youth and Volunteers Center","district":"Jerusalem","operator":"Palestine Red Crescent Society","currency_note":"Facilities as at 2019-07-24. Predates October 2023; not a claim that a given facility still operates.","source_crs":"EPSG:4326","evidence_ref":["8b5c8d3222"]}},{"type":"Feature","geometry":{"type":"Point","coordinates":[35.12226,31.83479]},"properties":{"name":"Qatannah Health Center","facility_type":"Clinic","district":"Jerusalem","operator":"Palestine Red Crescent Society","currency_note":"Facilities as at 2019-07-24. Predates October 2023; not a claim that a given facility still operates.","source_crs":"EPSG:4326","evidence_ref":["8b5c8d3222"]}},{"type":"Feature","geometry":{"type":"Point","coordinates":[35.26847,31.76896]},"properties":{"name":"Al 'Eizariya Health Center","facility_type":"Clinic","district":"Jerusalem","operator":"Palestine Red Crescent Society","currency_note":"Facilities as at 2019-07-24. Predates October 2023; not a claim that a given facility still operates.","source_crs":"EPSG:4326","evidence_ref":["8b5c8d3222"]}},{"type":"Feature","geometry":{"type":"Point","coordinates":[35.18989,31.70266]},"properties":{"name":"Main PRCS Station in Bethlehem City","facility_type":"Station","district":"Bethlehem","operator":"Palestine Red Crescent Society","currency_note":"Facilities as at 2019-07-24. Predates October 2023; not a claim that a given facility still operates.","source_crs":"EPSG:4326","evidence_ref":["8b5c8d3222"]}},{"type":"Feature","geometry":{"type":"Point","coordinates":[35.16793,31.69557]},"properties":{"name":"Sub-Station of PRCS in Al-Khader Town","facility_type":"Sub-Station","district":"Bethlehem","operator":"Palestine Red Crescent Society","currency_note":"Facilities as at 2019-07-24. Predates October 2023; not a claim that a given facility still operates.","source_crs":"EPSG:4326","evidence_ref":["8b5c8d3222"]}},{"type":"Feature","geometry":{"type":"Point","coordinates":[35.13326,31.71057]},"properties":{"name":"Sub-Station of PRCS in Hussan Village","facility_type":"Sub-Station","district":"Bethlehem","operator":"Palestine Red Crescent Society","currency_note":"Facilities as at 2019-07-24. Predates October 2023; not a claim that a given facility still operates.","source_crs":"EPSG:4326","evidence_ref":["8b5c8d3222"]}},{"type":"Feature","geometry":{"type":"Point","coordinates":[35.0911,31.5317]},"properties":{"name":"PRCS Hospital for Paediatric and maternity -Hebron / H1","facility_type":"Hospital","district":"Hebron","operator":"Palestine Red Crescent Society","currency_note":"Facilities as at 2019-07-24. Predates October 2023; not a claim that a given facility still operates.","source_crs":"EPSG:4326","evidence_ref":["8b5c8d3222"]}},{"type":"Feature","geometry":{"type":"Point","coordinates":[35.0913,31.5318]},"properties":{"name":"PRCS EMS Station and Physiotherapy centre-Hebron / H1","facility_type":"EMS","district":"Hebron","operator":"Palestine Red Crescent Society","currency_note":"Facilities as at 2019-07-24. Predates October 2023; not a claim that a given facility still operates.","source_crs":"EPSG:4326","evidence_ref":["8b5c8d3222"]}},{"type":"Feature","geometry":{"type":"Point","coordinates":[35.0687,31.515]},"properties":{"name":"Al Raja Center for Rehabilitation and Capacity Development & Khalil Al Rahman Kindergarten-Hebron / H1","facility_type":"Other","district":"Hebron","operator":"Palestine Red Crescent Society","currency_note":"Facilities as at 2019-07-24. Predates October 2023; not a claim that a given facility still operates.","source_crs":"EPSG:4326","evidence_ref":["8b5c8d3222"]}},{"type":"Feature","geometry":{"type":"Point","coordinates":[35.1132,31.5356]},"properties":{"name":"PRCS Temporary Ambulance Station (very basic one)-Hebron / H2","facility_type":"EMS","district":"Hebron","operator":"Palestine Red Crescent Society","currency_note":"Facilities as at 2019-07-24. Predates October 2023; not a claim that a given facility still operates.","source_crs":"EPSG:4326","evidence_ref":["8b5c8d3222"]}},{"type":"Feature","geometry":{"type":"Point","coordinates":[35.1113,31.5244]},"properties":{"name":"Saraya Kindergarten-Hebron / H2","facility_type":"Other","district":"Hebron","operator":"Palestine Red Crescent Society","currency_note":"Facilities as at 2019-07-24. Predates October 2023; not a claim that a given facility still operates.","source_crs":"EPSG:4326","evidence_ref":["8b5c8d3222"]}},{"type":"Feature","geometry":{"type":"Point","coordinates":[35.11,31.5258]},"properties":{"name":"PRCS psychosocial & Development Centre in the old city-Hebron / H2","facility_type":"Other","district":"Hebron","operator":"Palestine Red Crescent Society","currency_note":"Facilities as at 2019-07-24. Predates October 2023; not a claim that a given facility still operates.","source_crs":"EPSG:4326","evidence_ref":["8b5c8d3222"]}},{"type":"Feature","geometry":{"type":"Point","coordinates":[35.1083,31.5496]},"properties":{"name":"PRCS Warehouse -Hebron/H1","facility_type":"Other","district":"Hebron","operator":"Palestine Red Crescent Society","currency_note":"Facilities as at 2019-07-24. Predates October 2023; not a claim that a given facility still operates.","source_crs":"EPSG:4326","evidence_ref":["8b5c8d3222"]}},{"type":"Feature","geometry":{"type":"Point","coordinates":[34.9721,31.5595]},"properties":{"name":"EMS Station, Primary Health Care Centre, Woman Cultural Centre, Laboratory, X-ray , Pharmacy, Emergency Clinic-Idna","facility_type":"EMS","district":"Hebron","operator":"Palestine Red Crescent Society","currency_note":"Facilities as at 2019-07-24. Predates October 2023; not a claim that a given facility still operates.","source_crs":"EPSG:4326","evidence_ref":["8b5c8d3222"]}},{"type":"Feature","geometry":{"type":"Point","coordinates":[34.9718,31.5598]},"properties":{"name":"Rented Building that includes Disaster Management Centre, Physiotherapy, and Rehabilitation Centre-Idna","facility_type":"Other","district":"Hebron","operator":"Palestine Red Crescent Society","currency_note":"Facilities as at 2019-07-24. Predates October 2023; not a claim that a given facility still operates.","source_crs":"EPSG:4326","evidence_ref":["8b5c8d3222"]}},{"type":"Feature","geometry":{"type":"Point","coordinates":[35.0167,31.5735]},"properties":{"name":"Youth and Volunteers Centre-Tarqumia","facility_type":"Youth and Volunteers Center","district":"Hebron","operator":"Palestine Red Crescent Society","currency_note":"Facilities as at 2019-07-24. Predates October 2023; not a claim that a given facility still operates.","source_crs":"EPSG:4326","evidence_ref":["8b5c8d3222"]}},{"type":"Feature","geometry":{"type":"Point","coordinates":[35.0416,31.6106]},"properties":{"name":"EMS Station in the first floor of the Municipality Building-Kharas","facility_type":"EMS","district":"Hebron","operator":"Palestine Red Crescent Society","currency_note":"Facilities as at 2019-07-24. Predates October 2023; not a claim that a given facility still operates.","source_crs":"EPSG:4326","evidence_ref":["8b5c8d3222"]}},{"type":"Feature","geometry":{"type":"Point","coordinates":[35.0679,31.6463]},"properties":{"name":"PRCS Centre, no specific activities there-Sourif","facility_type":"Other","district":"Hebron","operator":"Palestine Red Crescent Society","currency_note":"Facilities as at 2019-07-24. Predates October 2023; not a claim that a given facility still operates.","source_crs":"EPSG:4326","evidence_ref":["8b5c8d3222"]}},{"type":"Feature","geometry":{"type":"Point","coordinates":[35.1058,31.6201]},"properties":{"name":"EMS Station-Bet Ommar","facility_type":"EMS","district":"Hebron","operator":"Palestine Red Crescent Society","currency_note":"Facilities as at 2019-07-24. Predates October 2023; not a claim that a given facility still operates.","source_crs":"EPSG:4326","evidence_ref":["8b5c8d3222"]}},{"type":"Feature","geometry":{"type":"Point","coordinates":[35.1025,31.5865]},"properties":{"name":"EMS Station-Halhoul","facility_type":"EMS","district":"Hebron","operator":"Palestine Red Crescent Society","currency_note":"Facilities as at 2019-07-24. Predates October 2023; not a claim that a given facility still operates.","source_crs":"EPSG:4326","evidence_ref":["8b5c8d3222"]}},{"type":"Feature","geometry":{"type":"Point","coordinates":[35.1055,31.5789]},"properties":{"name":"Youth and Volunteers Centre-Halhoul","facility_type":"Youth and Volunteers Center","district":"Hebron","operator":"Palestine Red Crescent Society","currency_note":"Facilities as at 2019-07-24. Predates October 2023; not a claim that a given facility still operates.","source_crs":"EPSG:4326","evidence_ref":["8b5c8d3222"]}},{"type":"Feature","geometry":{"type":"Point","coordinates":[35.0992,31.5773]},"properties":{"name":"Primary Health Care, Emergency clinic, Dental clinic, Laboratory, Pharmacy and general clinics-Halhoul","facility_type":"Clinic","district":"Hebron","operator":"Palestine Red Crescent Society","currency_note":"Facilities as at 2019-07-24. Predates October 2023; not a claim that a given facility still operates.","source_crs":"EPSG:4326","evidence_ref":["8b5c8d3222"]}},{"type":"Feature","geometry":{"type":"Point","coordinates":[35.0309,31.508]},"properties":{"name":"EMS Station,Physiotherapy, Speech therapist, Nutritionist, Laboratory, Emergency Clinic and general clinics-Doura","facility_type":"EMS","district":"Hebron","operator":"Palestine Red Crescent Society","currency_note":"Facilities as at 2019-07-24. Predates October 2023; not a claim that a given facility still operates.","source_crs":"EPSG:4326","evidence_ref":["8b5c8d3222"]}},{"type":"Feature","geometry":{"type":"Point","coordinates":[34.9765,31.4114]},"properties":{"name":"EMS Station (Ambulance Station)-Dahreyyeh","facility_type":"EMS","district":"Hebron","operator":"Palestine Red Crescent Society","currency_note":"Facilities as at 2019-07-24. Predates October 2023; not a claim that a given facility still operates.","source_crs":"EPSG:4326","evidence_ref":["8b5c8d3222"]}},{"type":"Feature","geometry":{"type":"Point","coordinates":[34.9726,31.41]},"properties":{"name":"PRCS Volunteers Centre-Dahreyyeh","facility_type":"Youth and Volunteers Center","district":"Hebron","operator":"Palestine Red Crescent Society","currency_note":"Facilities as at 2019-07-24. Predates October 2023; not a claim that a given facility still operates.","source_crs":"EPSG:4326","evidence_ref":["8b5c8d3222"]}},{"type":"Feature","geometry":{"type":"Point","coordinates":[34.9498,31.4092]},"properties":{"name":"Medical Centre (ready building bit inactive until now)-Dahreyyeh","facility_type":"Clinic","district":"Hebron","operator":"Palestine Red Crescent Society","currency_note":"Facilities as at 2019-07-24. Predates October 2023; not a claim that a given facility still operates.","source_crs":"EPSG:4326","evidence_ref":["8b5c8d3222"]}},{"type":"Feature","geometry":{"type":"Point","coordinates":[35.1026,31.4533]},"properties":{"name":"EMS Station (Ambulance Station) & PRCS volunteers centre-Yatta","facility_type":"EMS","district":"Hebron","operator":"Palestine Red Crescent Society","currency_note":"Facilities as at 2019-07-24. Predates October 2023; not a claim that a given facility still operates.","source_crs":"EPSG:4326","evidence_ref":["8b5c8d3222"]}},{"type":"Feature","geometry":{"type":"Point","coordinates":[35.1443,31.5837]},"properties":{"name":"Emergency Clinic, Laboratory in addition to youth & volunteers centre-Sair","facility_type":"Clinic","district":"Hebron","operator":"Palestine Red Crescent Society","currency_note":"Facilities as at 2019-07-24. Predates October 2023; not a claim that a given facility still operates.","source_crs":"EPSG:4326","evidence_ref":["8b5c8d3222"]}},{"type":"Feature","geometry":{"type":"Point","coordinates":[35.149,31.5762]},"properties":{"name":"Emergency clinic, x-ray and laboratory units-Shoyoukh","facility_type":"Clinic","district":"Hebron","operator":"Palestine Red Crescent Society","currency_note":"Facilities as at 2019-07-24. Predates October 2023; not a claim that a given facility still operates.","source_crs":"EPSG:4326","evidence_ref":["8b5c8d3222"]}},{"type":"Feature","geometry":{"type":"Point","coordinates":[35.15,31.578]},"properties":{"name":"Kindergarten-Shoyoukh","facility_type":"Other","district":"Hebron","operator":"Palestine Red Crescent Society","currency_note":"Facilities as at 2019-07-24. Predates October 2023; not a claim that a given facility still operates.","source_crs":"EPSG:4326","evidence_ref":["8b5c8d3222"]}},{"type":"Feature","geometry":{"type":"Point","coordinates":[35.1575,31.5172]},"properties":{"name":"PRCS Centre: Administration, Health Care Primary Unit, EMS Station that includes also a laboratory, Pharmacy, Dental clinic-Bani Naim","facility_type":"Clinic","district":"Hebron","operator":"Palestine Red Crescent Society","currency_note":"Facilities as at 2019-07-24. Predates October 2023; not a claim that a given facility still operates.","source_crs":"EPSG:4326","evidence_ref":["8b5c8d3222"]}},{"type":"Feature","geometry":{"type":"Point","coordinates":[35.1573,31.5172]},"properties":{"name":"Disastor Unit and Youth & volunteers Department-Bani Naim","facility_type":"Youth and Volunteers Center","district":"Hebron","operator":"Palestine Red Crescent Society","currency_note":"Facilities as at 2019-07-24. Predates October 2023; not a claim that a given facility still operates.","source_crs":"EPSG:4326","evidence_ref":["8b5c8d3222"]}},{"type":"Feature","geometry":{"type":"Point","coordinates":[35.1542,31.5156]},"properties":{"name":"PRCS Hospital (inactive) but at the same location a kindergarten, physiotherapy unit and a centre for special needs-Bani Naim","facility_type":"Hospital","district":"Hebron","operator":"Palestine Red Crescent Society","currency_note":"Facilities as at 2019-07-24. Predates October 2023; not a claim that a given facility still operates.","source_crs":"EPSG:4326","evidence_ref":["8b5c8d3222"]}},{"type":"Feature","geometry":{"type":"Point","coordinates":[35.2134,31.4829]},"properties":{"name":"PRCS Disaster Management Centre in Masafer Bani Naim","facility_type":"Other","district":"Hebron","operator":"Palestine Red Crescent Society","currency_note":"Facilities as at 2019-07-24. Predates October 2023; not a claim that a given facility still operates.","source_crs":"EPSG:4326","evidence_ref":["8b5c8d3222"]}},{"type":"Feature","geometry":{"type":"Point","coordinates":[35.1571,31.5173]},"properties":{"name":"PRCS Warehouse for House Distruction Kits -Bani Naim","facility_type":"Other","district":"Hebron","operator":"Palestine Red Crescent Society","currency_note":"Facilities as at 2019-07-24. Predates October 2023; not a claim that a given facility still operates.","source_crs":"EPSG:4326","evidence_ref":["8b5c8d3222"]}},{"type":"Feature","geometry":{"type":"Point","coordinates":[35.1651,31.5157]},"properties":{"name":"PRCS School for deaf and Mute-Bani Naim","facility_type":"Other","district":"Hebron","operator":"Palestine Red Crescent Society","currency_note":"Facilities as at 2019-07-24. Predates October 2023; not a claim that a given facility still operates.","source_crs":"EPSG:4326","evidence_ref":["8b5c8d3222"]}}]}