{"type":"FeatureCollection","features":[{"type":"Feature","geometry":{"type":"Point","coordinates":[35.162286,31.443464]},"properties":{"locality_id":"503125","name":"Ad Deirat","names":{"primary":"Ad Deirat","arabic":"الدِيرَات"},"district":"Hebron","record_count":3,"uncategorised":3,"violation_counts":{"Other":2,"Assault on a Palestinian using sticks or other blunt objects":1},"first_recorded":"2025-03-18","last_recorded":"2025-09-27","coverage_note":"Masafer Yatta monitoring, 2025 only. Absence elsewhere means not monitored, not absent.","evidence_ref":["7d26d0dc3e"]}},{"type":"Feature","geometry":{"type":"Point","coordinates":[35.151833,31.424014]},"properties":{"locality_id":"999938","name":"Al Jwaya","names":{"primary":"Al Jwaya"},"district":"Hebron","record_count":51,"resource_counts":{"home":10,"property":3,"livestock":2,"water":2,"agriculture":2},"resource_labels":{"home":"Homes and dwellings","property":"Vehicles, equipment and other property","livestock":"Livestock and animal shelters","water":"Water access (tanks, wells, pipes, irrigation)","agriculture":"Farmland, crops and irrigation"},"uncategorised":37,"violation_counts":{"Invasion of private Palestinian property":17,"Verbal or armed threat on Palestinians by Israeli security forces":10,"Arbitrary arrest or detention of a Palestinian":4,"Arson or damage to Palestinian homes":4,"Arson or damage to Palestinian cars or other property":3,"Other":2,"Armed assault on a Palestinian":2,"Assault on a Palestinian using sticks or other blunt objects":2,"Arson or damage to Palestinian farmland, crops, or irrigation systems":2,"Construction or expansion of an Israeli outpost":2,"Demolition of a Palestinian home":1,"Roadblock restricting Palestinian movement":1,"Raid on a Palestinian village by Israeli security forces":1},"first_recorded":"2025-02-25","last_recorded":"2025-12-25","coverage_note":"Masafer Yatta monitoring, 2025 only. Absence elsewhere means not monitored, not absent.","evidence_ref":["7d26d0dc3e"]}},{"type":"Feature","geometry":{"type":"Point","coordinates":[35.149123,31.40622]},"properties":{"locality_id":"503280","name":"Ar Rakeez","names":{"primary":"Ar Rakeez","arabic":"الرَكِيز"},"district":"Hebron","record_count":159,"resource_counts":{"home":16,"property":2,"water":16,"agriculture":16,"livestock":1},"resource_labels":{"home":"Homes and dwellings","property":"Vehicles, equipment and other property","water":"Water access (tanks, wells, pipes, irrigation)","agriculture":"Farmland, crops and irrigation","livestock":"Livestock and animal shelters"},"uncategorised":124,"violation_counts":{"Invasion of private Palestinian property":84,"Verbal or armed threat on Palestinians by Israeli security forces":18,"Arbitrary arrest or detention of a Palestinian":16,"Arson or damage to Palestinian farmland, crops, or irrigation systems":16,"Armed assault on a Palestinian":5,"Assault on a Palestinian using sticks or other blunt objects":5,"Other":5,"Raid on a Palestinian village by Israeli security forces":4,"Roadblock restricting Palestinian movement":3,"Arson or damage to Palestinian cars or other property":2,"Attack on or theft of Palestinian livestock":1},"first_recorded":"2025-01-25","last_recorded":"2025-12-26","coverage_note":"Masafer Yatta monitoring, 2025 only. Absence elsewhere means not monitored, not absent.","evidence_ref":["7d26d0dc3e"]}},{"type":"Feature","geometry":{"type":"Point","coordinates":[35.153335,31.412845]},"properties":{"locality_id":"503255","name":"At Tuwani","names":{"primary":"At Tuwani","arabic":"التَوانِي"},"district":"Hebron","record_count":263,"resource_counts":{"livestock":4,"home":21,"property":3,"water":11,"agriculture":11},"resource_labels":{"livestock":"Livestock and animal shelters","home":"Homes and dwellings","property":"Vehicles, equipment and other property","water":"Water access (tanks, wells, pipes, irrigation)","agriculture":"Farmland, crops and irrigation"},"uncategorised":226,"violation_counts":{"Invasion of private Palestinian property":118,"Verbal or armed threat on Palestinians by Israeli security forces":43,"Roadblock restricting Palestinian movement":23,"Arbitrary arrest or detention of a Palestinian":16,"Raid on a Palestinian village by Israeli security forces":15,"Other":14,"Arson or damage to Palestinian farmland, crops, or irrigation systems":11,"Assault on a Palestinian using sticks or other blunt objects":5,"Construction or expansion of an Israeli outpost":5,"Demolition of a Palestinian home":4,"Attack on or theft of Palestinian livestock":3,"Arson or damage to Palestinian cars or other property":3,"Armed assault on a Palestinian":3},"first_recorded":"2025-01-25","last_recorded":"2025-12-30","coverage_note":"Masafer Yatta monitoring, 2025 only. Absence elsewhere means not monitored, not absent.","evidence_ref":["7d26d0dc3e"]}},{"type":"Feature","geometry":{"type":"Point","coordinates":[35.158213,31.364754]},"properties":{"locality_id":"999995","name":"Halaweh","names":{"primary":"Halaweh","arabic":"حَلاوِة"},"district":"Hebron","record_count":5,"resource_counts":{"home":2},"resource_labels":{"home":"Homes and dwellings"},"uncategorised":3,"violation_counts":{"Invasion of private Palestinian property":3,"Arbitrary arrest or detention of a Palestinian":2},"first_recorded":"2025-01-23","last_recorded":"2025-09-26","coverage_note":"Masafer Yatta monitoring, 2025 only. Absence elsewhere means not monitored, not absent.","evidence_ref":["7d26d0dc3e"]}},{"type":"Feature","geometry":{"type":"Point","coordinates":[35.108703,31.377599]},"properties":{"locality_id":"503365","name":"Haribat an Nabi","names":{"primary":"Haribat an Nabi","arabic":"هَريبَة النَبي"},"district":"Hebron","record_count":187,"resource_counts":{"water":11,"agriculture":11,"home":7,"livestock":1},"resource_labels":{"water":"Water access (tanks, wells, pipes, irrigation)","agriculture":"Farmland, crops and irrigation","home":"Homes and dwellings","livestock":"Livestock and animal shelters"},"uncategorised":168,"violation_counts":{"Invasion of private Palestinian property":127,"Verbal or armed threat on Palestinians by Israeli security forces":21,"Assault on a Palestinian using sticks or other blunt objects":13,"Arson or damage to Palestinian farmland, crops, or irrigation systems":11,"Other":5,"Arbitrary arrest or detention of a Palestinian":4,"Demolition of a Palestinian home":3,"Construction or expansion of an Israeli outpost":2,"Attack on or theft of Palestinian livestock":1},"first_recorded":"2025-02-21","last_recorded":"2025-12-25","coverage_note":"Masafer Yatta monitoring, 2025 only. Absence elsewhere means not monitored, not absent.","evidence_ref":["7d26d0dc3e"]}},{"type":"Feature","geometry":{"type":"Point","coordinates":[35.192422,31.45398]},"properties":{"locality_id":"999752","name":"Hiwara","names":{"primary":"Hiwara"},"district":"Hebron","record_count":83,"resource_counts":{"home":28,"water":6,"agriculture":6,"livestock":1},"resource_labels":{"home":"Homes and dwellings","water":"Water access (tanks, wells, pipes, irrigation)","agriculture":"Farmland, crops and irrigation","livestock":"Livestock and animal shelters"},"uncategorised":48,"violation_counts":{"Arbitrary arrest or detention of a Palestinian":28,"Invasion of private Palestinian property":23,"Verbal or armed threat on Palestinians by Israeli security forces":14,"Arson or damage to Palestinian farmland, crops, or irrigation systems":6,"Construction or expansion of an Israeli outpost":5,"Assault on a Palestinian using sticks or other blunt objects":3,"Roadblock restricting Palestinian movement":2,"Armed assault on a Palestinian":1,"Attack on or theft of Palestinian livestock":1},"first_recorded":"2025-02-28","last_recorded":"2025-12-25","coverage_note":"Masafer Yatta monitoring, 2025 only. Absence elsewhere means not monitored, not absent.","evidence_ref":["7d26d0dc3e"]}},{"type":"Feature","geometry":{"type":"Point","coordinates":[35.105674,31.371305]},"properties":{"locality_id":"503380","name":"Imneizil","names":{"primary":"Imneizil","arabic":"إِمنيزِل"},"district":"Hebron","record_count":5,"resource_counts":{"property":1},"resource_labels":{"property":"Vehicles, equipment and other property"},"uncategorised":4,"violation_counts":{"Invasion of private Palestinian property":3,"Assault on a Palestinian using sticks or other blunt objects":1,"Arson or damage to Palestinian cars or other property":1},"first_recorded":"2025-03-12","last_recorded":"2025-06-08","coverage_note":"Masafer Yatta monitoring, 2025 only. Absence elsewhere means not monitored, not absent.","evidence_ref":["7d26d0dc3e"]}},{"type":"Feature","geometry":{"type":"Point","coordinates":[35.140266,31.364576]},"properties":{"locality_id":"999992","name":"Jinba","names":{"primary":"Jinba","arabic":"جِنبا"},"district":"Hebron","record_count":36,"resource_counts":{"home":27,"water":1,"property":1},"resource_labels":{"home":"Homes and dwellings","water":"Water access (tanks, wells, pipes, irrigation)","property":"Vehicles, equipment and other property"},"uncategorised":9,"violation_counts":{"Arbitrary arrest or detention of a Palestinian":26,"Assault on a Palestinian using sticks or other blunt objects":5,"Other":2,"Invasion of private Palestinian property":1,"Raid on a Palestinian village by Israeli security forces":1,"Arson or damage to Palestinian cars or other property":1},"first_recorded":"2025-03-28","last_recorded":"2025-03-29","coverage_note":"Masafer Yatta monitoring, 2025 only. Absence elsewhere means not monitored, not absent.","evidence_ref":["7d26d0dc3e"]}},{"type":"Feature","geometry":{"type":"Point","coordinates":[35.157793,31.393403]},"properties":{"locality_id":"999993","name":"Khallet Athaba'","names":{"primary":"Khallet Athaba'","arabic":"خَلِّة أَثابَة"},"district":"Hebron","record_count":134,"resource_counts":{"home":59,"water":8,"livestock":2,"property":11,"agriculture":4},"resource_labels":{"home":"Homes and dwellings","water":"Water access (tanks, wells, pipes, irrigation)","livestock":"Livestock and animal shelters","property":"Vehicles, equipment and other property","agriculture":"Farmland, crops and irrigation"},"uncategorised":66,"violation_counts":{"Demolition of a Palestinian home":43,"Invasion of private Palestinian property":28,"Arson or damage to Palestinian cars or other property":11,"Verbal or armed threat on Palestinians by Israeli security forces":10,"Armed assault on a Palestinian":10,"Arbitrary arrest or detention of a Palestinian":9,"Assault on a Palestinian using sticks or other blunt objects":5,"Roadblock restricting Palestinian movement":4,"Arson or damage to Palestinian farmland, crops, or irrigation systems":4,"Raid on a Palestinian village by Israeli security forces":4,"Other":3,"Construction or expansion of an Israeli outpost":2,"Attack on or theft of Palestinian livestock":1},"first_recorded":"2025-01-30","last_recorded":"2025-12-21","coverage_note":"Masafer Yatta monitoring, 2025 only. Absence elsewhere means not monitored, not absent.","evidence_ref":["7d26d0dc3e"]}},{"type":"Feature","geometry":{"type":"Point","coordinates":[35.079142,31.361052]},"properties":{"locality_id":"503395","name":"Khirbet Ghuwein al Fauqa","names":{"primary":"Khirbet Ghuwein al Fauqa","arabic":"خِرْبِة غْوين الفُوقَا"},"district":"Hebron","record_count":43,"resource_counts":{"home":11,"water":3,"agriculture":3},"resource_labels":{"home":"Homes and dwellings","water":"Water access (tanks, wells, pipes, irrigation)","agriculture":"Farmland, crops and irrigation"},"uncategorised":29,"violation_counts":{"Invasion of private Palestinian property":12,"Verbal or armed threat on Palestinians by Israeli security forces":11,"Arbitrary arrest or detention of a Palestinian":11,"Roadblock restricting Palestinian movement":3,"Arson or damage to Palestinian farmland, crops, or irrigation systems":3,"Construction or expansion of an Israeli outpost":2,"Other":1},"first_recorded":"2025-03-23","last_recorded":"2025-12-29","coverage_note":"Masafer Yatta monitoring, 2025 only. Absence elsewhere means not monitored, not absent.","evidence_ref":["7d26d0dc3e"]}},{"type":"Feature","geometry":{"type":"Point","coordinates":[34.994947,31.372854]},"properties":{"locality_id":"503375","name":"Khirbet Zanuta","names":{"primary":"Khirbet Zanuta","arabic":"خِرْبِة زَنُّوتَة"},"district":"Hebron","record_count":13,"uncategorised":13,"violation_counts":{"Invasion of private Palestinian property":8,"Other":3,"Roadblock restricting Palestinian movement":1,"Verbal or armed threat on Palestinians by Israeli security forces":1},"first_recorded":"2025-02-25","last_recorded":"2025-03-18","coverage_note":"Masafer Yatta monitoring, 2025 only. Absence elsewhere means not monitored, not absent.","evidence_ref":["7d26d0dc3e"]}},{"type":"Feature","geometry":{"type":"Point","coordinates":[35.16623,31.377107]},"properties":{"locality_id":"503350","name":"Khirbet al Fakheit","names":{"primary":"Khirbet al Fakheit","arabic":"خِرْبِة الفَخِيت"},"district":"Hebron","record_count":55,"resource_counts":{"property":3,"water":1,"livestock":3,"home":1},"resource_labels":{"property":"Vehicles, equipment and other property","water":"Water access (tanks, wells, pipes, irrigation)","livestock":"Livestock and animal shelters","home":"Homes and dwellings"},"uncategorised":49,"violation_counts":{"Invasion of private Palestinian property":32,"Verbal or armed threat on Palestinians by Israeli security forces":6,"Other":5,"Arson or damage to Palestinian cars or other property":3,"Assault on a Palestinian using sticks or other blunt objects":3,"Armed assault on a Palestinian":2,"Attack on or theft of Palestinian livestock":2,"Raid on a Palestinian village by Israeli security forces":1,"Arbitrary arrest or detention of a Palestinian":1},"first_recorded":"2025-02-26","last_recorded":"2025-12-27","coverage_note":"Masafer Yatta monitoring, 2025 only. Absence elsewhere means not monitored, not absent.","evidence_ref":["7d26d0dc3e"]}},{"type":"Feature","geometry":{"type":"Point","coordinates":[35.184383,31.386968]},"properties":{"locality_id":"503345","name":"Maghayir al Abeed","names":{"primary":"Maghayir al Abeed","arabic":"مَغَايِر العَبِيد"},"district":"Hebron","record_count":11,"resource_counts":{"water":3,"property":1,"agriculture":2,"livestock":1},"resource_labels":{"water":"Water access (tanks, wells, pipes, irrigation)","property":"Vehicles, equipment and other property","agriculture":"Farmland, crops and irrigation","livestock":"Livestock and animal shelters"},"uncategorised":7,"violation_counts":{"Invasion of private Palestinian property":4,"Arson or damage to Palestinian farmland, crops, or irrigation systems":2,"Verbal or armed threat on Palestinians by Israeli security forces":2,"Arson or damage to Palestinian cars or other property":1,"Assault on a Palestinian using sticks or other blunt objects":1,"Attack on or theft of Palestinian livestock":1},"first_recorded":"2025-03-02","last_recorded":"2025-11-09","coverage_note":"Masafer Yatta monitoring, 2025 only. Absence elsewhere means not monitored, not absent.","evidence_ref":["7d26d0dc3e"]}},{"type":"Feature","geometry":{"type":"Point","coordinates":[35.135705,31.383246]},"properties":{"locality_id":"503310","name":"Mantiqat Shi'b al Butum","names":{"primary":"Mantiqat Shi'b al Butum","arabic":"مَنْطِقَة شِعِب البَطِن"},"district":"Hebron","record_count":188,"resource_counts":{"home":5,"livestock":1,"property":8,"water":16,"agriculture":16},"resource_labels":{"home":"Homes and dwellings","livestock":"Livestock and animal shelters","property":"Vehicles, equipment and other property","water":"Water access (tanks, wells, pipes, irrigation)","agriculture":"Farmland, crops and irrigation"},"uncategorised":159,"violation_counts":{"Invasion of private Palestinian property":131,"Verbal or armed threat on Palestinians by Israeli security forces":19,"Arson or damage to Palestinian farmland, crops, or irrigation systems":16,"Arson or damage to Palestinian cars or other property":8,"Arbitrary arrest or detention of a Palestinian":4,"Other":3,"Construction or expansion of an Israeli outpost":2,"Roadblock restricting Palestinian movement":2,"Demolition of a Palestinian home":1,"Raid on a Palestinian village by Israeli security forces":1,"Assault on a Palestinian using sticks or other blunt objects":1},"first_recorded":"2025-01-26","last_recorded":"2025-12-20","coverage_note":"Masafer Yatta monitoring, 2025 only. Absence elsewhere means not monitored, not absent.","evidence_ref":["7d26d0dc3e"]}},{"type":"Feature","geometry":{"type":"Point","coordinates":[35.150248,31.363842]},"properties":{"locality_id":"999994","name":"Mirkez","names":{"primary":"Mirkez","arabic":"مِركِز"},"district":"Hebron","record_count":4,"uncategorised":4,"violation_counts":{"Assault on a Palestinian using sticks or other blunt objects":3,"Invasion of private Palestinian property":1},"first_recorded":"2025-11-20","last_recorded":"2025-11-20","coverage_note":"Masafer Yatta monitoring, 2025 only. Absence elsewhere means not monitored, not absent.","evidence_ref":["7d26d0dc3e"]}},{"type":"Feature","geometry":{"type":"Point","coordinates":[35.128837,31.396359]},"properties":{"locality_id":"503315","name":"Qawawis","names":{"primary":"Qawawis","arabic":"قَواوِيس"},"district":"Hebron","record_count":203,"resource_counts":{"home":6,"water":18,"agriculture":18,"property":6},"resource_labels":{"home":"Homes and dwellings","water":"Water access (tanks, wells, pipes, irrigation)","agriculture":"Farmland, crops and irrigation","property":"Vehicles, equipment and other property"},"uncategorised":176,"violation_counts":{"Invasion of private Palestinian property":136,"Verbal or armed threat on Palestinians by Israeli security forces":23,"Arson or damage to Palestinian farmland, crops, or irrigation systems":18,"Other":7,"Arson or damage to Palestinian cars or other property":6,"Assault on a Palestinian using sticks or other blunt objects":5,"Roadblock restricting Palestinian movement":3,"Arbitrary arrest or detention of a Palestinian":2,"Construction or expansion of an Israeli outpost":2,"Demolition of a Palestinian home":1},"first_recorded":"2025-02-20","last_recorded":"2025-12-31","coverage_note":"Masafer Yatta monitoring, 2025 only. Absence elsewhere means not monitored, not absent.","evidence_ref":["7d26d0dc3e"]}},{"type":"Feature","geometry":{"type":"Point","coordinates":[35.108356,31.400875]},"properties":{"locality_id":"999987","name":"Susiya","names":{"primary":"Susiya","arabic":"سوسِيا"},"district":"Hebron","record_count":390,"resource_counts":{"property":20,"home":22,"water":17,"agriculture":14,"livestock":2},"resource_labels":{"property":"Vehicles, equipment and other property","home":"Homes and dwellings","water":"Water access (tanks, wells, pipes, irrigation)","agriculture":"Farmland, crops and irrigation","livestock":"Livestock and animal shelters"},"uncategorised":336,"violation_counts":{"Invasion of private Palestinian property":226,"Verbal or armed threat on Palestinians by Israeli security forces":46,"Assault on a Palestinian using sticks or other blunt objects":33,"Arson or damage to Palestinian cars or other property":20,"Arbitrary arrest or detention of a Palestinian":16,"Arson or damage to Palestinian farmland, crops, or irrigation systems":14,"Roadblock restricting Palestinian movement":13,"Other":12,"Armed assault on a Palestinian":3,"Construction or expansion of an Israeli outpost":3,"Arson or damage to Palestinian homes":2,"Attack on or theft of Palestinian livestock":2},"first_recorded":"2025-02-19","last_recorded":"2025-12-29","coverage_note":"Masafer Yatta monitoring, 2025 only. Absence elsewhere means not monitored, not absent.","evidence_ref":["7d26d0dc3e"]}},{"type":"Feature","geometry":{"type":"Point","coordinates":[35.175597,31.425149]},"properties":{"locality_id":"999811","name":"Tha'lah","names":{"primary":"Tha'lah"},"district":"Hebron","record_count":18,"resource_counts":{"water":1,"agriculture":1,"property":1},"resource_labels":{"water":"Water access (tanks, wells, pipes, irrigation)","agriculture":"Farmland, crops and irrigation","property":"Vehicles, equipment and other property"},"uncategorised":16,"violation_counts":{"Invasion of private Palestinian property":10,"Verbal or armed threat on Palestinians by Israeli security forces":2,"Assault on a Palestinian using sticks or other blunt objects":1,"Other":1,"Construction or expansion of an Israeli outpost":1,"Arson or damage to Palestinian farmland, crops, or irrigation systems":1,"Raid on a Palestinian village by Israeli security forces":1,"Arson or damage to Palestinian cars or other property":1},"first_recorded":"2025-02-19","last_recorded":"2025-10-11","coverage_note":"Masafer Yatta monitoring, 2025 only. Absence elsewhere means not monitored, not absent.","evidence_ref":["7d26d0dc3e"]}},{"type":"Feature","geometry":{"type":"Point","coordinates":[35.177354,31.406821]},"properties":{"locality_id":"999996","name":"Tuba","names":{"primary":"Tuba","arabic":"طوبا"},"district":"Hebron","record_count":34,"resource_counts":{"livestock":1,"property":2,"home":6,"water":1,"agriculture":1},"resource_labels":{"livestock":"Livestock and animal shelters","property":"Vehicles, equipment and other property","home":"Homes and dwellings","water":"Water access (tanks, wells, pipes, irrigation)","agriculture":"Farmland, crops and irrigation"},"uncategorised":25,"violation_counts":{"Invasion of private Palestinian property":12,"Arbitrary arrest or detention of a Palestinian":6,"Armed assault on a Palestinian":3,"Other":3,"Assault on a Palestinian using sticks or other blunt objects":3,"Arson or damage to Palestinian cars or other property":2,"Raid on a Palestinian village by Israeli security forces":2,"Verbal or armed threat on Palestinians by Israeli security forces":2,"Arson or damage to Palestinian farmland, crops, or irrigation systems":1},"first_recorded":"2025-01-25","last_recorded":"2025-12-21","coverage_note":"Masafer Yatta monitoring, 2025 only. Absence elsewhere means not monitored, not absent.","evidence_ref":["7d26d0dc3e"]}},{"type":"Feature","geometry":{"type":"Point","coordinates":[35.150435,31.402703]},"properties":{"locality_id":"999982","name":"Umm Fagarah","names":{"primary":"Umm Fagarah","arabic":"أُم فَجارة"},"district":"Hebron","record_count":74,"resource_counts":{"water":4,"agriculture":4,"home":3,"property":3},"resource_labels":{"water":"Water access (tanks, wells, pipes, irrigation)","agriculture":"Farmland, crops and irrigation","home":"Homes and dwellings","property":"Vehicles, equipment and other property"},"uncategorised":65,"violation_counts":{"Invasion of private Palestinian property":44,"Verbal or armed threat on Palestinians by Israeli security forces":12,"Arson or damage to Palestinian farmland, crops, or irrigation systems":4,"Construction or expansion of an Israeli outpost":3,"Arson or damage to Palestinian cars or other property":3,"Other":2,"Assault on a Palestinian using sticks or other blunt objects":2,"Raid on a Palestinian village by Israeli security forces":2,"Arbitrary arrest or detention of a Palestinian":2},"first_recorded":"2025-02-28","last_recorded":"2025-12-30","coverage_note":"Masafer Yatta monitoring, 2025 only. Absence elsewhere means not monitored, not absent.","evidence_ref":["7d26d0dc3e"]}},{"type":"Feature","geometry":{"type":"Point","coordinates":[35.201186,31.445492]},"properties":{"locality_id":"503105","name":"Umm ad Daraj","names":{"primary":"Umm ad Daraj","arabic":"أم الدرج (عرب الكعابنه)"},"district":"Hebron","record_count":111,"resource_counts":{"home":28,"livestock":1,"property":3,"water":9,"agriculture":9},"resource_labels":{"home":"Homes and dwellings","livestock":"Livestock and animal shelters","property":"Vehicles, equipment and other property","water":"Water access (tanks, wells, pipes, irrigation)","agriculture":"Farmland, crops and irrigation"},"uncategorised":72,"violation_counts":{"Invasion of private Palestinian property":35,"Arbitrary arrest or detention of a Palestinian":25,"Verbal or armed threat on Palestinians by Israeli security forces":21,"Arson or damage to Palestinian farmland, crops, or irrigation systems":9,"Assault on a Palestinian using sticks or other blunt objects":5,"Raid on a Palestinian village by Israeli security forces":4,"Arson or damage to Palestinian cars or other property":3,"Demolition of a Palestinian home":2,"Armed assault on a Palestinian":2,"Other":2,"Roadblock restricting Palestinian movement":2,"Construction or expansion of an Israeli outpost":1},"first_recorded":"2025-04-29","last_recorded":"2025-12-29","coverage_note":"Masafer Yatta monitoring, 2025 only. Absence elsewhere means not monitored, not absent.","evidence_ref":["7d26d0dc3e"]}},{"type":"Feature","geometry":{"type":"Point","coordinates":[35.195649,31.427417]},"properties":{"locality_id":"503205","name":"Umm al Kheir","names":{"primary":"Umm al Kheir","arabic":"ام الخير"},"district":"Hebron","record_count":293,"resource_counts":{"home":35,"livestock":1,"water":17,"property":4,"agriculture":15},"resource_labels":{"home":"Homes and dwellings","livestock":"Livestock and animal shelters","water":"Water access (tanks, wells, pipes, irrigation)","property":"Vehicles, equipment and other property","agriculture":"Farmland, crops and irrigation"},"uncategorised":238,"violation_counts":{"Invasion of private Palestinian property":118,"Verbal or armed threat on Palestinians by Israeli security forces":60,"Arbitrary arrest or detention of a Palestinian":30,"Roadblock restricting Palestinian movement":17,"Other":15,"Arson or damage to Palestinian farmland, crops, or irrigation systems":15,"Construction or expansion of an Israeli outpost":10,"Assault on a Palestinian using sticks or other blunt objects":9,"Raid on a Palestinian village by Israeli security forces":6,"Demolition of a Palestinian home":5,"Arson or damage to Palestinian cars or other property":4,"Armed assault on a Palestinian":3,"Attack on or theft of Palestinian livestock":1},"first_recorded":"2025-02-19","last_recorded":"2025-12-26","coverage_note":"Masafer Yatta monitoring, 2025 only. Absence elsewhere means not monitored, not absent.","evidence_ref":["7d26d0dc3e"]}},{"type":"Feature","geometry":{"type":"Point","coordinates":[34.9917,31.382676]},"properties":{"locality_id":"999810","name":"Umm At Tiran","names":{"primary":"Umm At Tiran"},"district":"Hebron","record_count":156,"resource_counts":{"water":7,"agriculture":7,"property":5,"home":2,"livestock":1},"resource_labels":{"water":"Water access (tanks, wells, pipes, irrigation)","agriculture":"Farmland, crops and irrigation","property":"Vehicles, equipment and other property","home":"Homes and dwellings","livestock":"Livestock and animal shelters"},"uncategorised":141,"violation_counts":{"Invasion of private Palestinian property":78,"Verbal or armed threat on Palestinians by Israeli security forces":49,"Arson or damage to Palestinian farmland, crops, or irrigation systems":7,"Other":5,"Arson or damage to Palestinian cars or other property":5,"Construction or expansion of an Israeli outpost":4,"Raid on a Palestinian village by Israeli security forces":2,"Assault on a Palestinian using sticks or other blunt objects":2,"Demolition of a Palestinian home":2,"Roadblock restricting Palestinian movement":1,"Attack on or theft of Palestinian livestock":1},"first_recorded":"2025-03-10","last_recorded":"2025-12-30","coverage_note":"Masafer Yatta monitoring, 2025 only. Absence elsewhere means not monitored, not absent.","evidence_ref":["7d26d0dc3e"]}}],"metadata":{"source":"OCHA field-based monitoring, Masafer Yatta","coverage":"Masafer Yatta (South Hebron Hills) only, 2025 only","total_records":2904,"localities_plotted":24,"localities_withheld":3,"records_withheld":385,"withheld_detail":[{"village":"Anizan","records":3,"reason":"no single gazetteer match"},{"village":"Isfey","records":12,"reason":"no single gazetteer match"},{"village":"Umm Dhorit","records":370,"reason":"no single gazetteer match"}]}}